Service,Number,Name,Address,Dept,CP,Ville,Latitude,Longitude,WGS84
Vélib,14111,14111 - DENFERT-ROCHEREAU CASSINI,18 RUE CASSINI - 75014 PARIS,75,75014,PARIS,48.83754929,2.33598303,48.83754929
Vélib,14125,14125 - DAREAU,34 RUE DAREAU - 75014 PARIS,75,75014,PARIS,48.83072321,2.336146557,48.83072321
Vélib,17023,17023 - AVENUE DE LA PORTE D'ASNIÈRES,22 AVENUE DE LA PORTE D'ASNIERES - 75017 PARIS,75,75017,PARIS,48.89058622,2.303457409,48.89058622
Vélib,18036,18036 - FRANCIS DE CROISSET,7 RUE FRANCIS DE CROISSET - 75018 PARIS,75,75018,PARIS,48.89941068,2.345920133,48.89941068
Vélib,3011,03011 - TURBIGO,55 RUE TURBIGO - 75003 PARIS,75,75003,PARIS,48.86558419,2.356278448,48.86558419
Vélib,10004,10004 - METZ,7 RUE DE METZ - 75010 PARIS,75,75010,PARIS,48.87089343,2.353521565,48.87089343
Vélib,10033,10033 - LARIBOISIERE,15 RUE SAINT VINCENT DE PAUL - 75010 PARIS,75,75010,PARIS,48.88095574,2.352430515,48.88095574
Vélib,11021,11021 - PHILIPPE AUGUSTE (20EME ARR.),212 BOULEVARD CHARONNE - 75011 PARIS,75,75011,PARIS,48.85844505,2.390398122,48.85844505
Vélib,12106,12106 - BARTHES TROYES,3 RUE ROLAND BARTHES - 75012 PARIS,75,75012,PARIS,48.84394918,2.379081343,48.84394918
Vélib,21010,21010 - SILLY (BOULOGNE-BILLANCOURT),93 RUE DE SILLY - 92100 BOULOGNE-BILLANCOURT,92,92100,BOULOGNE-BILLANCOURT,48.83550441,2.232531432,48.83550441
Vélib,19125,19125 - LEDIT DE NANTES,PLACE LEDIT DE NANTES - 75019 PARIS,75,75019,PARIS,48.88879003,2.378500156,48.88879003
Vélib,20018,20018 - HARPIGNIES,2 RUE HARPIGNIES- 75020 PARIS,75,75020,PARIS,48.85862167,2.409942554,48.85862167
Vélib,13029,13029 - ITALIE,30 AVENUE D'ITALIE - 75013 PARIS,75,75013,PARIS,48.82903204,2.356183369,48.82903204
Vélib,14027,14027 - ALESIA GERGOVIE,FACE 83 RUE DE GERGOVIE - 75014 PARIS,75,75014,PARIS,48.83088717,2.318882101,48.83088717
Vélib,15043,15043 - BRANCION,122 RUE BRANCION - 75015 PARIS,75,75015,PARIS,48.82905422,2.301417436,48.82905422
Vélib,19028,19028 - PLACE DES FETES,17 RUE DES FETES - 75019 PARIS,75,75019,PARIS,48.87646834,2.39228463,48.87646834
Vélib,20036,20036 - MENILMONTANT - PELLEPORT,164 RUE DE MENILMONTANT - 75020 PARIS,75,75020,PARIS,48.87068263,2.398959602,48.87068263
Vélib,20007,20007 - BUZENVAL,52 RUE BUZENVAL - 75020 PARIS,75,75020,PARIS,48.8516172,2.401513597,48.8516172
Vélib,12004,12004 - TRAVERSIERE,76 RUE TRAVERSIERE - 75012 PARIS,75,75012,PARIS,48.85073582,2.375870112,48.85073582
Vélib,34002,34002 - PERI (SAINT OUEN),128 AVENUE GABRIEL PERI / AVENUE DU CAPITAINE GLAMER - 93400 SAINT OUEN,93,93400,SAINT-OUEN,48.90259224,2.330513565,48.90259224
Vélib,35012,35012 - CANDALE (PANTIN),FACE AU 12 RUE CANDALE - 93500 PANTIN,93,93500,PANTIN,48.88948584,2.414307515,48.88948584
Vélib,16102,16102 - PERGOLÈSE/ MARBEAU,52-54 RUE PERGOLÈSE - 75016 PARIS,75,75016,PARIS,48.87356871,2.281512523,48.87356871
Vélib,22012,22012 - MICHELIS (NEUILLY),32 RUE DE MADELEINE MICHELIS - 92200 NEUILLY,92,92200,NEUILLY-SUR-SEINE,48.88274992,2.277406381,48.88274992
Vélib,13041,13041 - PORTE D'IVRY,4 AVENUE D'IVRY - 75013 PARIS,75,75013,PARIS,48.82196244,2.3685287,48.82196244
Vélib,33104,33104 - JOINEAU (PRE SAINT GERVAIS),RUE ANDRE JOINEAU / PLACE ANATOLE FRANCE - 93310 LE PRE SAINT GERVAIS,93,93310,LE PRE SAINT-GERVAIS,48.88362023,2.403240318,48.88362023
Vélib,41202,41202 - CHARMES (FONTENAY-SOUS-BOIS),ANGLE AVENUE DES CHARMES / AVENUE FOCH - 94120 FONTENAY-SOUS-BOIS,94,94120,FONTENAY-SOUS-BOIS,48.84367434,2.46308264,48.84367434
Vélib,5024,05024 - PLACE MONGE,4 RUE DOLOMIEU - 75005 PARIS,75,75005,PARIS,48.84273504,2.352472437,48.84273504
Vélib,5034,05034 - CENSIER,21 RUE CENSIER - 75005 PARIS,75,75005,PARIS,48.84050866,2.353713552,48.84050866
Vélib,9104,9104 - CAUMARTIN PROVENCE,115 rue de provence - 75009 PARIS,75,75009,PARIS,48.87417902,2.32777869,48.87417902
Vélib,9032,09032 - MATHURINS,12 RUE DES MATHURINS - 75009 PARIS,75,75009,PARIS,48.87297125,2.329465612,48.87297125
Vélib,44102,44102 - VERDUN (SAINT MAURICE),14 avenue de Verdun - 94410 SAINT MAURICE,94,94410,SAINT-MAURICE,48.8221758,2.421504476,48.8221758
Vélo2,53004,53004 - PON04 - LA PALETTE,BD DE L'OISE ANGLE RUE DE LA PALETTE - 95000 CERGY,95,95000,CERGY,49.03214095,2.087802211,49.03214095
Vélib,42010,42010 - ROBESPIERRE (IVRY),1 RUE ROBESPIERRE - 94200 IVRY,94,94200,IVRY-SUR-SEINE,48.81084586,2.383950863,48.81084586
Vélib,4016,04016 - LOBAU,3 RUE LOBAU - 75004 PARIS,75,75004,PARIS,48.85624672,2.353281345,48.85624672
Vélib,8011,08011 - DUBLIN,1 RUE CLAPEYRON - 75008 PARIS,75,75008,PARIS,48.88093536,2.324516635,48.88093536
Vélib,9009,09009 - SQUARE MONTHOLON,26 RUE MONTHOLON - 75009 PARIS,75,75009,PARIS,48.87660117,2.345785517,48.87660117
Vélib,9014,09014 - FAUBOURG MONTMARTRE,55 RUE DU FAUBOURG MONTMARTRE - 75009 PARIS,75,75009,PARIS,48.87532972,2.340772662,48.87532972
Vélib,9034,09034 - GODOT DE MAUROY,2 RUE GODOT DE MAUROY - 75009 PARIS,75,75009,PARIS,48.86995668,2.326599657,48.86995668
Vélib,11111,11111 - CHARONNE FROT,31 RUE LEON FROT - 75011 PARIS,75,75011,PARIS,48.8549638,2.387217085,48.8549638
Vélib,12124,12124 - PYRAMIDE ARTILLERIE,ROUTE DE L'ARTILLERIE - 75012 PARIS,75,75012,PARIS,48.83904115,2.437655339,48.83904115
Vélib,13047,13047 - BOUTROUX VITRY,1 AVENUE BOUTROUX - 75013 PARIS,75,75013,PARIS,48.82263284,2.377738434,48.82263284
Vélib,13016,13016 - PRIMO LEVI,9 RUE PRIMO LEVI - 75013 PARIS,75,75013,PARIS,48.83094845,2.379653516,48.83094845
Vélib,15026,15026 - BIR HAKEIM,FACE 6 BOULEVARD DE GRENELLE - 75015 PARIS,75,75015,PARIS,48.85384405,2.289705348,48.85384405
Vélib,15031,15031 - THEATRE,60 RUE DU THEATRE - 75015 PARIS,75,75015,PARIS,48.84817034,2.289906646,48.84817034
Vélib,15041,15041 - LABROUSTE,13 RUE FRANQUET - 75015 PARIS,75,75015,PARIS,48.83285391,2.306898478,48.83285391
Vélib,16026,16026 - RANELAGH,91 RUE DU RANELAGH - 75016 PARIS,75,75016,PARIS,48.85548488,2.270408657,48.85548488
Vélib,16011,16011 - VICTOR HUGO RUE DE LA POMPE,118 AVENUE VICTOR HUGO - 75016 PARIS,75,75016,PARIS,48.86810889,2.281477522,48.86810889
Vélib,17117,17117 - PEREIRE SAUSSURE,2 BIS BOULEVARD PEREIRE - 75017 PARIS,75,75017,PARIS,48.88818564,2.310120537,48.88818564
Vélib,19029,19029 - SEINE FLANDRE,51 QUAI DE LA SEINE - 75019 PARIS,75,75019,PARIS,48.88679881,2.374719517,48.88679881
Vélib,9026,09026 - BRUYERE PIGALLE,28 RUE J.B.PIGALLE - 75009 PARIS,75,75009,PARIS,48.87939826,2.333709173,48.87939826
Vélib,12005,12005 - CROZATIER,74 RUE CROZATIER - 75012 PARIS,75,75012,PARIS,48.85044001,2.378901366,48.85044001
Vélib,43005,43005 - AUBERT (VINCENNES),18 AVENUE AUBERT - 94300 VINCENNES,94,94300,VINCENNES,48.84755044,2.433432608,48.84755044
Vélib,15039,15039 - CHARLES VALLIN,133 RUE DE L'ABBE GROULT - 75015 PARIS,75,75015,PARIS,48.83605839,2.301865968,48.83605839
Vélib,15060,15060 - MONDRIAN,9 PLACE DE LA MONTAGNE DU GOULET - 75015 PARIS,75,75015,PARIS,48.84429287,2.277345897,48.84429287
Vélib,16012,16012 - BOULEVARD FLANDRIN,68 BOULEVARD FLANDRIN - 75016 PARIS,75,75016,PARIS,48.86877849,2.274354539,48.86877849
Vélib,20039,20039 - COURONNES,44 BOULEVARD DE BELLEVILLE - 75020 PARIS,75,75020,PARIS,48.86894064,2.381282601,48.86894064
Vélib,14017,14017 - JOURDAN TOMBE ISSOIRE,160 RUE TOMBE ISSOIRE - 75014 PARIS,75,75014,PARIS,48.82278244,2.33053754,48.82278244
Vélib,14015,14015 - CITE UNIVERSITAIRE,FACE 15 BOULEVARD JOURDAN - 75014 PARIS,75,75014,PARIS,48.82015011,2.339926428,48.82015011
Vélib,15125,15125 - AQUABOULEVARD,2 AVENUE DE LA PORTE DE SEVRES / AQUABOULEVARD - 75015 PARIS,75,75015,PARIS,48.83321982,2.276630334,48.83321982
Vélib,16104,16104 - PAUL VALÉRY,26-32 RUE PAUL VALERY - 75016 PARIS,75,75016,PARIS,48.87136104,2.288866396,48.87136104
Vélib,16013,16013 - AVENUE HENRI MARTIN,71 AVENUE HENRI MARTIN - 75016 PARIS,75,75016,PARIS,48.86407671,2.276881687,48.86407671
Vélib,22402,22402 - JAURES (MALAKOFF),10 AVENUE JEAN JAURES - 92240 MALAKOFF,92,92240,MALAKOFF,48.82146008,2.30289946,48.82146008
Vélib,41604,41604 - LAGNY (SAINT MANDE),126 RUE LAGNY / ANGLE AVENUE JOFFRE - 94160 SAINT MANDE,94,94160,SAINT-MANDE,48.84931183,2.417909769,48.84931183
Vélib,1015,01015 - PLACE ANDRE MALRAUX,2 PLACE ANDRE MALRAUX - 75001 PARIS,75,75001,PARIS,48.86397966,2.335599604,48.86397966
Vélib,3004,03004 - REPUBLIQUE 23,19 PLACE DE LA REPUBLIQUE - 75003 PARIS,75,75003,PARIS,48.86707,2.36351,48.86707
Vélib,6010,06010 - MONTPARNASSE CHEVREUSE,5 RUE DE CHEVREUSE - 75006 PARIS,75,75006,PARIS,48.84173916,2.331552217,48.84173916
Vélib,10023,10023 - VERDUN,1 AVENUE DE VERDUN - 75010 PARIS,75,75010,PARIS,48.87615605,2.360914908,48.87615605
Vélib,12009,12009 - DIDEROT,FACE 124 RUE DE CHARENTON - 75012 PARIS,75,75012,PARIS,48.84626879,2.379264325,48.84626879
Vélib,12034,12034 - PIROGUES DE BERCY,20 RUE DES PIROGUES DE BERCY - 75012 PARIS,75,75012,PARIS,48.83230839,2.386370279,48.83230839
Vélib,21301,21301 - SAINT VINCENT (ISSY LES MOULINEAUX),21 RUE SAINT VINCENT - 92130 ISSY LES MOULINEAUX,92,92130,ISSY-LES-MOULINEAUX,48.81948999,2.25386942,48.81948999
Vélib,42015,42015 - PAUL BERT (IVRY),EN VIS A VIS DU 7 RUE PAUL BERT - 94200 IVRY,94,94200,IVRY-SUR-SEINE,48.81800227,2.372432376,48.81800227
Vélib,13014,13014 - GARE D'AUSTERLITZ,5 BIS BOULEVARD DE L'HOPITAL - 75013 PARIS,75,75013,PARIS,48.84252449,2.364044959,48.84252449
Vélib,13028,13028 - GOUTHIERE,12 RUE GOUTHIERE - 75013 PARIS,75,75013,PARIS,48.820507,2.351342,48.820507
Vélib,15107,15107 -  PALAIS DES SPORTS,42 BOULEVARD VICTOR - 75015 PARIS,75,75015,PARIS,48.83357362,2.285480421,48.83357362
Vélib,15113,15113 - FALGUIERE ARSONVAL,2 RUE D'ARSONVAL - 75015 PARIS,75,75015,PARIS,48.8404004,2.313117867,48.8404004
Vélib,17020,17020 - NICARAGUA,49 RUE JOUFFROY D'ABBANS - 75017 PARIS,75,75017,PARIS,48.88506994,2.307083217,48.88506994
Vélib,19039,19039 - PAILLERON,6 RUE EDOUARD PAILLERON - 75019 PARIS,75,75019,PARIS,48.87977525,2.374834351,48.87977525
Vélib,21013,21013 - GRENIER (BOULOGNE-BILLANCOURT),4 AVENUE PIERRE GRENIER - 92100 BOULOGNE-BILLANCOURT,92,92100,BOULOGNE-BILLANCOURT,48.82584693,2.248821391,48.82584693
Vélib,9037,09037 - CLICHY PARME,01 RUE DE PARME - 75009 PARIS,75,75009,PARIS,48.88126642,2.328197093,48.88126642
Vélib,11040,11040 - TEMPLE JEAN PIERRE TIMBAUD,18 BD DU TEMPLE - 75011 PARIS,75,75011,PARIS,48.86442014,2.366136374,48.86442014
Vélib,12006,12006 - GARE DE LYON VAN GOGH,15 RUE VAN GOGH - 75012 PARIS,75,75012,PARIS,48.84419241,2.371691678,48.84419241
Vélib,12038,12038 - BEL AIR,FACE 12 BOULEVARD PICPUS - 75012 PARIS,75,75012,PARIS,48.83998879,2.400525669,48.83998879
Vélib,13050,13050 - QUAI PANHARD ET LEVASSOR,23 QUAI PANHARD ET LEVASSOR - 75013 PARIS,75,75013,PARIS,48.82836989,2.384440355,48.82836989
Vélib,13009,13009 - BLANQUI CORVISART,46 BOULEVARD AUGUSTE BLANQUI - 75013 PARIS,75,75013,PARIS,48.82998371,2.350403588,48.82998371
Vélib,21012,21012 - LECLERC (BOULOGNE-BILLANCOURT),745 AVENUE DU GENERAL LECLERC - 92100 BOULOGNE-BILLANCOURT,92,92100,BOULOGNE-BILLANCOURT,48.8305863,2.23449078,48.8305863
Vélib,21112,21112 - DEBUSSY (CLICHY),31/35 AVENUE CLAUDE DEBUSSY - 92110 CLICHY,92,92110,CLICHY,48.91042913,2.311768176,48.91042913
Vélib,21501,21501 - SELLIER (SURESNES),RUE DE SAINT CLOUD / BOULEVARD HENRI SELLIER - 92150 SURESNES,92,92150,SURESNES,48.86756581,2.225998485,48.86756581
Vélib,10019,10019 - PARADIS,23 RUE PARADIS - 75010 PARIS,75,75010,PARIS,48.87503406,2.352184895,48.87503406
Vélib,11010,11010 - ST ANTOINE GONNET,1 RUE DES BOULETS - 75011 PARIS,75,75011,PARIS,48.84925926,2.391754614,48.84925926
Vélib,15048,15048 - OLIVIER DE SERRE,PLACE AMEDEE GIORDANI - 75015 PARIS,75,75015,PARIS,48.83054567,2.292046397,48.83054567
Vélib,16124,16124 - SÈVRES NEUILLY,Route de Sèvres à Neuilly - 75016 PARIS,75,75016,PARIS,48.87509594,2.249216988,48.87509594
Vélib,19011,19011 - ROUVET DAMPIERRE,2 RUE ROUVET - 75019 PARIS,75,75019,PARIS,48.89338005,2.384999757,48.89338005
Vélib,19116,19116 - JAURES VILLETTE,180 BOULEVARD DE LA VILLETTE - 75019 PARIS,75,75019,PARIS,48.8814725,2.370262482,48.8814725
Vélib,19010,19010 - PORTE DE LA VILLETTE,RUE EMILE REYNAUD SUR TPC - 75019 PARIS,75,75019,PARIS,48.90116411,2.388590734,48.90116411
Vélib,32603,32603 - CALMETTE (LES LILAS),1 ALLEE DOCTEUR CALMETTE - 93260 LES LILAS,93,93260,LES LILAS,48.88114102,2.424974243,48.88114102
Vélib,42004,42004 - COUTURIER (IVRY),30 RUE PAUL VAILLANT COUTURIER -  94200 IVRY SUR SEINE,94,94200,IVRY-SUR-SEINE,48.81901272,2.396719172,48.81901272
Vélo2,50024,50024 - CER24 - CROIX PETIT,Rue des petits prés  95000 CERGY,95,95000,CERGY,49.03805516,2.063758987,49.03805516
Vélib,18018,18018 - CARPEAUX,13 RUE CARPEAUX - 75018 PARIS,75,75018,PARIS,48.89074721,2.330820396,48.89074721
Vélib,20002,20002 - PIXERECOURT,FACE 65 RUE PIXERECOURT - 75020 PARIS,75,75020,PARIS,48.87380362,2.396012223,48.87380362
Vélib,8030,08030 - MONTAIGNE,25 RUE BAYARD - 75008 PARIS,75,75008,PARIS,48.86729324,2.307691606,48.86729324
Vélib,10003,10003 - HAUTEVILLE,1 RUE D'HAUTEVILLE - 75010 PARIS,75,75010,PARIS,48.87077436,2.349649637,48.87077436
Vélib,11103,11103 - RICHARD LENOIR,21 RUE PELEE - 75011 PARIS,75,75011,PARIS,48.86003931,2.370984374,48.86003931
Vélib,13005,13005 - ARAGO CORDELIERE - VERSION 2,2 RUE DES CORDELIERES - 75013 PARIS,75,75013,PARIS,48.83548072,2.348572462,48.83548072
Vélo2,53102,53102 - SOA02 - GARE SOA CENTRE,Av du Général Leclerc / rue du 8 mai 1945 - 95310 SAINT OUEN L'AUMONE,95,95310,"""SAINT-OUEN-LAUMONE""",49.0462492,2.105710348,49.0462492
Vélib,14018,14018 - PORTE D'ORLEANS,6 PLACE DU 25 AOUT 1944 - 75014 PARIS,75,75014,PARIS,48.8228575,2.325042671,48.8228575
Vélib,15054,15054 - CHANDON,293 RUE LECOURBE - 75015 PARIS,75,75015,PARIS,48.83797034,2.287582307,48.83797034
Vélib,20017,20017 - RUE SAINT BLAISE,69 RUE SAINT BLAISE - 75020 PARIS,75,75020,PARIS,48.85697494,2.408842457,48.85697494
Vélib,21017,21017 - REPUBLIQUE 1 (BOULOGNE-BILLANCOURT),91 BOULEVARD DE LA REPUBLIPQUE - 92100 BOULOGNE-BILLANCOURT,92,92100,BOULOGNE-BILLANCOURT,48.83347368,2.243900532,48.83347368
Vélib,21110,21110 - VILLENEUVE (CLICHY),FACE 51 RUE VILLENEUVE - 92110 CLICHY,92,92110,CLICHY,48.90550311,2.310820382,48.90550311
Vélib,23007,23007 - WILSON (LEVALLOIS),22 RUE DU PRESIDENT WILSON - 92300 LEVALLOIS-PERRET,92,92300,LEVALLOIS-PERRET,48.89038027,2.292160482,48.89038027
Vélib,32008,32008 - EMGP NORD (SAINT DENIS),EMGP PARKING ENTREE NORD - 93200 SAINT DENIS,93,93200,SAINT-DENIS,48.90574547,2.364997877,48.90574547
Vélib,32602,32602 - POULMARCH (LES LILAS),7 RUE JEAN POULMARCH - 93260 LES LILAS,93,93260,LES LILAS,48.87940005,2.416160662,48.87940005
Vélib,33011,33011 - FAURE (AUBERVILLIERS),FACE 172-174 BOULEVARD FELIX FAURE - 93300 AUBERVILLIERS,93,93300,AUBERVILLIERS,48.91139369,2.37528132,48.91139369
Vélib,21303,21303 - ILES (ISSY LES MOULINEAUX),ANGLE AVENUE JEAN MONNET ET BOULEVARD DES ILES -  92130 ISSY LES MOULINEAUX,92,92130,ISSY-LES-MOULINEAUX,48.82345055,2.249665298,48.82345055
Vélib,21702,21702 - BASCH (VANVES),6 AVENUE VICTOR BASCH - 92170 VANVES,92,92170,VANVES,48.81893986,2.291959872,48.81893986
Vélib,23011,23011 - BINEAU (LEVALLOIS),16 BOULEVARD BINEAU - 92300 LEVALLOIS-PERRET,92,92300,LEVALLOIS-PERRET,48.88668137,2.284023691,48.88668137
Vélo2,50015,50015 - CER15 - PLACE DES LINANDES (CB),PLACE DES LINANDES - 95000 CERGY,95,95000,CERGY,49.04392781,2.069824524,49.04392781
Vélib,13025,13025 - PLACE DE RUNGIS,FACE 35 RUE DE LA FONTAINE A MULARD - 75013 PARIS,75,75013,PARIS,48.82245595,2.347382729,48.82245595
Vélib,13113,13113 - CHOISY VISTULE,2 RUE DE LA VISCULE - 75013 PARIS,75,75013,PARIS,48.82363398,2.361571534,48.82363398
Vélib,15068,15068 - BOULEVARD VICTOR,FACE 5 BOULEVARD MARTIAL VALIN - 75015 PARIS,75,75015,PARIS,48.83817131,2.27033838,48.83817131
Vélib,15003,15003 - GARE DE MONTPARNASSE,TP DU 1-13 BOULEVARD DE VAUGIRARD - 75015 PARIS,75,75015,PARIS,48.84180718,2.319510027,48.84180718
Vélib,16001,16001 - AVENUE DES PORTUGAIS,2 AVENUE DES PORTUGAIS - 75016 PARIS,75,75016,PARIS,48.87121371,2.293692134,48.87121371
Vélib,18012,18012 - DOUDEAUVILLE STEPHENSON,51 RUE STEPHENSON - 75018 PARIS,75,75018,PARIS,48.8888649,2.355966721,48.8888649
Vélib,3010,03010 - BEAUBOURG,46 RUE BEAUBOURG - 75003 PARIS,75,75003,PARIS,48.86246498,2.354236781,48.86246498
Vélib,6005,06005 - MONTPARNASSE,40 RUE DU MONTPARNASSE - 75006 PARIS,75,75006,PARIS,48.84329546,2.326541134,48.84329546
Vélib,10010,10010 - JACQUES BONSERGENT,FACE 8 PLACE JACQUES BONSERGENT - 75010 PARIS,75,75010,PARIS,48.87099999,2.361141437,48.87099999
Vélib,11110,11110 - SQUARE ROQUETTE,176 RUE DE LA ROQUETTE - 75011 PARIS,75,75011,PARIS,48.85924298,2.386593289,48.85924298
Vélib,13121,13121 - IVRY BRUNESEAU,RUE BRUNESEAU - 75013 PARIS,75,75013,PARIS,48.82495287,2.388580679,48.82495287
Vélib,15018,15018 - ALLERAY,85 RUE DUTOT - 75015 PARIS,75,75015,PARIS,48.83657566,2.306874517,48.83657566
Vélib,17009,17009 - BODIN AVENUE DE CLICHY,2 RUE PAUL BODIN - 75017 PARIS,75,75017,PARIS,48.89263392,2.317313258,48.89263392
Vélib,18101,18101 - CHAMPIONNET,32 RUE CHAMPIONNET - 75018 PARIS,75,75018,PARIS,48.89547037,2.349865451,48.89547037
Vélib,19007,19007 - OURCQ-FLANDRES,139 AVENUE DE FLANDRE - 75019 PARIS,75,75019,PARIS,48.89270999,2.379199748,48.89270999
Vélib,7021,07021 - BOSQUET SAINT DOMINIQUE,37 AVENUE BOSQUET - 75007 PARIS,75,75007,PARIS,48.85865171,2.30371658,48.85865171
Vélib,12010,12010 - MICHEL BIZOT,251 AVENUE DAUMESNIL - 75012 PARIS,75,75012,PARIS,48.83749045,2.401825586,48.83749045
Vélib,41602,41602 - DIGEON (SAINT MANDE),PLACE CHARLES DIGEON - 94160 SAINT MANDE,94,94160,SAINT-MANDE,48.84354696,2.418317477,48.84354696
Vélib,20112,20112 - JOURDAIN,3 RUE DU JOURDAIN - 75020 PARIS,75,75020,PARIS,48.87409248,2.389435908,48.87409248
Vélib,13013,13013 - SAINT MARCEL,3 BD SAINT MARCEL - 75013 PARIS,75,75013,PARIS,48.83950442,2.360989417,48.83950442
Vélib,14101,14101 - PLACE FERNAND MOURLOT,33 BD EDGAR QUINET - 75014 PARIS,75,75014,PARIS,48.8415048,2.323277716,48.8415048
Vélib,14112,14112 - FAUBOURG SAINT JACQUES CASSINI,24 RUE MECHAIN - 75014 PARIS,75,75014,PARIS,48.83586772,2.337980342,48.83586772
Vélib,16116,16116 - GEORGES SAND,23 rue Georges Sand - 75016 PARIS,75,75016,PARIS,48.84986919,2.268257388,48.84986919
Vélib,17016,17016 - BROCHANT,3 RUE BROCHANT - 75017 PARIS,75,75017,PARIS,48.88818699,2.316861143,48.88818699
Vélib,19036,19036 - HOPITAL ROBERT DEBRE,AV DE LA PTE DU PRES SAINT GERVAIS / ANGLE BD D'ALGERIE - 75019 PARIS,75,75019,PARIS,48.87993042,2.400950502,48.87993042
Vélib,7008,07008 - SOLFERINO,10 RUE DE VILLERSEXEL - 75007 PARIS,75,75007,PARIS,48.85831865,2.323838438,48.85831865
Vélib,8015,08015 - ROQUEPINE,4 RUE ROQUEPINE - 75008 PARIS,75,75008,PARIS,48.87348617,2.320281234,48.87348617
Vélib,9018,09018 - PLACE PIGALLE,05 RUE DUPERRE - 75009 PARIS,75,75009,PARIS,48.88207023,2.336679631,48.88207023
Vélib,10041,10041 - CHARTRES (18 ARR.),FACE 39 BOULEVARD DE LA CHAPELLE - 75010 PARIS,75,75010,PARIS,48.88414119,2.356109466,48.88414119
Vélib,12001,12001 - BASTILLE,48 BOULEVARD DE LA BASTILLE - 75012 PARIS,75,75012,PARIS,48.85131119,2.369250484,48.85131119
Vélib,23005,23005 - BRIAND (LEVALLOIS),152 RUE ARISTIDE BRIAND - 92300 LEVALLOIS,92,92300,LEVALLOIS-PERRET,48.89605105,2.296836252,48.89605105
Vélib,35014,35014 - DE GAULLE (PANTIN),139 AVENUE JEAN LOLIVE / MAIL CHARLES DE GAULLE - 93500 PANTIN,93,93500,PANTIN,48.89326866,2.412715733,48.89326866
Vélib,35004,35004 - ALLENDE (PANTIN),AVENUE DE LA GARE - 93500 PANTIN,93,93500,PANTIN,48.89732894,2.400576594,48.89732894
Vélib,41203,41203 - STALINGRAD (FONTENAY-SOUS-BOIS),14 AVENUE STALINGRAD - 94120 FONTENAY-SOUS-BOIS,94,94120,FONTENAY-SOUS-BOIS,48.85012523,2.455529172,48.85012523
Vélib,42504,42504 - MALON (GENTILLY),FACE 59 RUE BENOIT MALON - 94250 GENTILLY,94,94250,GENTILLY,48.81444018,2.341070654,48.81444018
Vélib,18020,18020 - RUISSEAU,31 RUE FRANCOEUR - 75018 PARIS,75,75018,PARIS,48.89104123,2.340014585,48.89104123
Vélib,22005,22005 - DE GAULLE 3 (NEUILLY),195 AVENUE CHARLES DE GAULLE - 92200 NEUILLY,92,92200,NEUILLY-SUR-SEINE,48.88429893,2.260991772,48.88429893
Vélib,15013,15013 - LECOURBE VOLONTAIRE,DEV 1 RUE DES VOLONTAIRES - 75015 PARIS,75,75015,PARIS,48.84354274,2.306558616,48.84354274
Vélib,15008,15008 - SEVRES LECOURBE,FACE 4 BOULEVARD PASTEUR - 75015 PARIS,75,75015,PARIS,48.84483802,2.311085506,48.84483802
Vélib,17024,17024 - VILLIERS,1/3 PLACE PROSPER GOUBAUX - 75017 PARIS,75,75017,PARIS,48.88120833,2.316449641,48.88120833
Vélib,31702,31702 - CURIE (BAGNOLET),40 PIERRE ET MARIE CURIE - 93170 BAGNOLET,93,93170,BAGNOLET,48.87065801,2.424046438,48.87065801
Vélib,32606,32606 - GARDE CHASSE (LES LILAS),49 RUE DU GARDE CHASSE - 93260 LES LILAS,93,93260,LES LILAS,48.88324025,2.41891237,48.88324025
Vélib,2002,02002 - MONTORGUEIL ETIENNE MARCEL,32 RUE ETIENNE MARCEL - 75002 PARIS,75,75002,PARIS,48.86458238,2.346282112,48.86458238
Vélib,4001,04001 - NOTRE DAME,10 RUE D'ARCOLE - 75004 PARIS,75,75004,PARIS,48.85398414,2.349380045,48.85398414
Vélib,6009,06009 - GUYNEMER LUXEMBOURG,26 RUE GUYNEMER - 75006 PARIS,75,75006,PARIS,48.84672098,2.332394593,48.84672098
Vélib,10017,10017 - GARE DE L'EST SAINT LAURENT,1 RUE DE LA FIDELITE - 75010 PARIS,75,75010,PARIS,48.87457504,2.356796765,48.87457504
Vélib,12037,12037 - DAUMESNIL,53 BOULEVARD DE REUILLY - 75012 PARIS,75,75012,PARIS,48.8394854,2.397212376,48.8394854
Vélib,13040,13040 - PORTE DE CHOISY,111 BOULEVARD MASSENA - 75013 PARIS,75,75013,PARIS,48.81994197,2.365078586,48.81994197
Vélib,13046,13046 - OUDINE PATAY,10 RUE EUGENE OUDINE - 75013 PARIS,75,75013,PARIS,48.8257129,2.3750443,48.8257129
Vélib,13031,13031 - ITALIE MAISON BLANCHE,121 AVENUE D'ITALIE - 75013 PARIS,75,75013,PARIS,48.82115932,2.358701218,48.82115932
Vélib,22004,22004 - CHARLES DE GAULLE (NEUILLY),162 AVENUE CHARLES DE GAULLE - 92200 NEUILLY,92,92200,NEUILLY-SUR-SEINE,48.88470729,2.26153082,48.88470729
Vélib,35001,35001 - JAURES 1 (PANTIN),168 AVENUE JEAN JAURES - 93500 PANTIN,93,93500,PANTIN,48.9101371,2.399325633,48.9101371
Vélib,35011,35011 - D'ORVES (PANTIN),12 RUE HONORE D'ESTIENNE D'ORVES - 93500 PANTIN,93,93500,PANTIN,48.89048462,2.406498214,48.89048462
Vélib,4012,04012 - ECOUFFES RIVOLI,2 RUE TIRON - 75004 PARIS,75,75004,PARIS,48.85579664,2.357907882,48.85579664
Vélib,9006,09006 - TRUDAINRE ROCHECHOUART,81 RUE DUNKERQUE - 75009 PARIS,75,75009,PARIS,48.88210763,2.346261999,48.88210763
Vélib,13103,13103 - SAINT MARCEL,89 BOULEVARD DE L'HOPITAL - 75013 PARIS,75,75013,PARIS,48.83772769,2.360460336,48.83772769
Vélib,14117,14117 - MOUCHOTTE,5 RUE DU COMMANDANT RENE MOUCHOTTE - 75014 PARIS,75,75014,PARIS,48.83932503,2.320954126,48.83932503
Vélib,14037,14037 - JEAN MOULIN,56 AVENUE JEAN MOULIN - 75014 PARIS,75,75014,PARIS,48.82570982,2.321849987,48.82570982
Vélib,15012,15012 - MADEMOISELLE,76 RUE CAMBRONNE - 75015 PARIS,75,75015,PARIS,48.84327733,2.302307669,48.84327733
Vélib,17040,17040 - TERNES PEREIRE,227 BOULEVARD PEREIRE SUR TPC - 75017 PARIS,75,75017,PARIS,48.87981322,2.287956452,48.87981322
Vélib,18034,18034 - LEIBNITZ,50 RUE LEIBNITZ - 75018 PARIS,75,75018,PARIS,48.89632835,2.333390424,48.89632835
Vélib,18038,18038 - ROND POINT DE LA CHAPELLE,70 RUE DE LA CHAPELLE - 75018 PARIS,75,75018,PARIS,48.8952199,2.360097619,48.8952199
Vélib,18103,18103 - CHARLES HERMITE,45 RUE CHARLES HERMITE - 75018 PARIS,75,75018,PARIS,48.89890275,2.364732494,48.89890275
Vélib,19001,19001 - OURCQ CRIMEE,243 RUE DE CRIMEE - 75019 PARIS,75,75019,PARIS,48.89410414,2.372946088,48.89410414
Vélib,19008,19008 - CORENTIN CARIOU,177 AVENUE DE FLANDRE - 75019 PARIS,75,75019,PARIS,48.89465025,2.38186873,48.89465025
Vélib,19005,19005 - RIQUET,56 AVENUE DE FLANDRE - 75019 PARIS,75,75019,PARIS,48.88801328,2.373759596,48.88801328
Vélib,2012,02012 - QUATRE SEPTEMBRE,10 RUE DE CHOISEUL - 75002 PARIS,75,75002,PARIS,48.86996973,2.336039456,48.86996973
Vélib,9022,09022 - LAFITTE ROSSINI,19 RUE ROSSINI - 75009 PARIS,75,75009,PARIS,48.87334628,2.337980868,48.87334628
Vélib,10107,10107 - MAGENTA PARE,9 RUE AMBROISE PARE - 75010 PARIS,75,75010,PARIS,48.88194974,2.352339507,48.88194974
Vélib,11045,11045 - SAINT SEBASTIEN FROISSARD,12 BD DES FILLES DU CALVAIRE - 75011 PARIS,75,75011,PARIS,48.86120505,2.367352329,48.86120505
Vélib,11101,11101 - SQUARE NORDLING,15 RUE CHARLES DELESCLUZE - 75011 PARIS,75,75011,PARIS,48.852529,2.380583632,48.852529
Vélib,12032,12032 - PORTE DOREE,1 PLACE EDOUARD RENARD - 75012 PARIS,75,75012,PARIS,48.83554504,2.407455516,48.83554504
Vélib,33010,33010 - HUGO (AUBERVILLIERS),161 AVENUE VICTOR HUGO - 93300 AUBERVILLIERS,93,93300,AUBERVILLIERS,48.91110481,2.379143742,48.91110481
Vélib,34008,34008 - GARIBALDI (SAINT OUEN),FACE AU 4 AVENUE GARIBALDI / AVENUE GABRIEL PERI - 93400 SAINT OUEN,93,93400,SAINT-OUEN,48.90573508,2.33149746,48.90573508
Vélib,42703,42703 - FONTAINEBLEAU (KREMLIN BICETRE),93 AVENUE DE FONTAINEBLEAU - 94270 LE KREMLIN BICETRE,94,94270,LE KREMLIN-BICETRE,48.80958234,2.36268351,48.80958234
Vélib,14110,14110 - ABBE CARTON,89 RUE DE L'ABBE CARTON - 75014 PARIS,75,75014,PARIS,48.82774627,2.320714098,48.82774627
Vélib,15103,15103 - SQUARE DES CÉVENNES,01 RUE CAUCHY - 75015 PARIS,75,75015,PARIS,48.84341723,2.275108332,48.84341723
Vélib,15046,15046 - GEORGES BRASSENS,42 RUE DES MORILLONS - 75015 PARIS,75,75015,PARIS,48.83220735,2.302328738,48.83220735
Vélib,17014,17014 - PORTE DE CLICHY - AVENUE DE CLICHY,12 AVENUE DE LA PORTE DE CLICHY - 75017 PARIS,75,75017,PARIS,48.8967874,2.310714419,48.8967874
Vélib,18009,18009 - LEPINE,12 RUE JEAN FRANCOIS LEPINE - 75018 PARIS,75,75018,PARIS,48.88611467,2.356855628,48.88611467
Vélib,19035,19035 - PORTE CHAUMONT,RUE SIGMUND FREUD / PORTE CHAUMONT - 75019 PARIS,75,75019,PARIS,48.8857333,2.397846415,48.8857333
Vélib,13104,13104 - GARE D'AUSTERLITZ,FACE 109 QUAI D'AUSTERLITZ - 75013 PARIS,75,75013,PARIS,48.84379048,2.365585666,48.84379048
Vélib,14036,14036 - BOULARD DAGUERRE,14 RUE BOULARD - 75014 PARIS,75,75014,PARIS,48.8343908,2.329303947,48.8343908
Vélib,15118,15118 - PLACE BIENVENUE,11 RUE DE L'ARRIVEE - 75015 PARIS,75,75015,PARIS,48.84319883,2.322257377,48.84319883
Vélib,15126,15126 - RENAN,RUE ERNEST RENAN / PARC DES EXPOSITIONS - 75015 PARIS,75,75015,PARIS,48.83110019,2.285387595,48.83110019
Vélib,16015,16015 - RUE DE BASSANO,1 RUE DE BASSANO - 75016 PARIS,75,75016,PARIS,48.86814451,2.296149601,48.86814451
Vélib,17042,17042 - PORTE MAILLOT,FACE 279 BOULEVARD PEREIRE - 75017 PARIS,75,75017,PARIS,48.87775003,2.284444357,48.87775003
Vélib,18001,18001 - DAMREMONT CAULAINCOURT,6 RUE DAMREMONT - 75018 PARIS,75,75018,PARIS,48.88727464,2.332648364,48.88727464
Vélib,20035,20035 - PYRENEES,262 RUE DES PYRENEES - 75020 PARIS,75,75020,PARIS,48.86941289,2.395039981,48.86941289
Vélib,901,00901 - PORT SOLFÉRINO (STATION MOBILE),QUAI ANATOLE FRANCE - PONT SOLFERINO - 75007 PARIS,75,75007,PARIS,48.86138,2.32442,48.86138
Vélib,8549,08549 - PLACE DUNANT,39 AVENUE GEORGE V - 75008 PARIS,75,75008,PARIS,48.87040914,2.301123192,48.87040914
Vélib,8013,08013 - MARIGNAN,24 RUE DE MARIGNAN - 75008 PARIS,75,75008,PARIS,48.86961619,2.306620835,48.86961619
Vélib,9004,09004 - ROCHECHOUART GERANDO,19 RUE GUERANDO - 75009 PARIS,75,75009,PARIS,48.88291109,2.346319372,48.88291109
Vélib,21008,21008 - HUGO (BOULOGNE-BILLANCOURT),74 AVENUE VICTOR HUGO - 92100 BOULOGNE-BILLANCOURT,92,92100,BOULOGNE-BILLANCOURT,48.83792331,2.246064152,48.83792331
Vélib,21205,21205 - JAURES 2 (MONTROUGE),AVENUE JEAN JAURES / RUE ROGER SALENGERO - 92120 MONTROUGE,92,92120,MONTROUGE,48.81386296,2.306943606,48.81386296
Vélib,21310,21310 - KLEBER (ISSY LES MOULINEAUX),4 RUE KLEBER - 92130 ISSY LES MOULINEAUX,92,92130,ISSY-LES-MOULINEAUX,48.82692977,2.272250432,48.82692977
Vélib,4018,04018 - RIVOLI SEBASTOPOL,1 RUE SAINT BON - 75004 PARIS,75,75004,PARIS,48.85799964,2.350217281,48.85799964
Vélib,5003,05003 - GAY LUSSAC LE GOFF,9 RUE LE GOFF - 75005 PARIS,75,75005,PARIS,48.84623928,2.341324916,48.84623928
Vélib,5015,05015 - MOUFFETARD EPEE DE BOIS,12 RUE DE L'EPEE DE BOIS - 75005 PARIS,75,75005,PARIS,48.84150764,2.349983047,48.84150764
Vélib,6022,06022 - MARCHE SAINT GERMAIN - MABILLON,17 RUE LOBINEAU - 75006 PARIS,75,75006,PARIS,48.85165969,2.335504665,48.85165969
Vélib,7025,07025 - SUFFREN TOUR EIFFEL,2 AVENUE OCTAVE CREARD - 75007 PARIS,75,75007,PARIS,48.85650298,2.293178754,48.85650298
Vélib,10007,10007 - CHATEAU D'EAU,57 RUE DU CHATEAU D'EAU - 75010 PARIS,75,75010,PARIS,48.87242997,2.35548939,48.87242997
Vélib,12119,12119 - DOM PÉRIGNON GRAVELLE,ROUTE DOM PERIGNON - 75012 PARIS,75,75012,PARIS,48.82558443,2.409830942,48.82558443
Vélib,12011,12011 - CHARENTON,160 RUE CHARENTON - 75012 PARIS,75,75012,PARIS,48.84486732,2.382578935,48.84486732
Vélib,33012,33012 - LANDY (AUBERVILLIERS),FACE 2 RUE DU LANDY - 93300 AUBERVILLIERS,93,93300,AUBERVILLIERS,48.91515618,2.37642401,48.91515618
Vélib,42203,42203 - ELUARD (CHARENTON),FACE AU 7 RUE PAUL ELUARD - 94220 CHARENTON,94,94220,CHARENTON,48.82040389,2.408405472,48.82040389
Vélib,8003,08003 - GALILLE,63 RUE GALILEE - 75008 PARIS,75,75008,PARIS,48.87170519,2.298528266,48.87170519
Vélib,11011,11011 - RICHARD LENOIR,FACE 86 BOULEVARD RICHARD LENOIR - 75011 PARIS,75,75011,PARIS,48.86180485,2.372651428,48.86180485
Vélib,12019,12019 - GARE DE REUILLY,58 RUE DE LA GARE DE REUILLY - 75012 PARIS,75,75012,PARIS,48.8425771,2.397249991,48.8425771
Vélib,21002,21002 - DENFERT ROCHEREAU (BOULOGNE-BILLANCOURT),PLACE DENFERT ROCHEREAU - 92100 BOULOGNE BILLANCOURT,92,92100,BOULOGNE-BILLANCOURT,48.84317666,2.246214232,48.84317666
Vélib,23002,23002 - FRANCE (LEVALLOIS),157 ANATOLE FRANCE - 92300 LEVALLOIS,92,92300,LEVALLOIS-PERRET,48.89834985,2.279179489,48.89834985
Vélib,33013,33013 - RECHAUSSIERE (AUBERVILLIERS),52 RUE LEOPOLD RECHOSSIERE - 93300 AUBERVILLIERS,93,93300,AUBERVILLIERS,48.91450611,2.391051497,48.91450611
Vélib,13024,13024 - BOBILLOT TOLBIAC,81 RUE BOBILLOT - 75013 PARIS,75,75013,PARIS,48.82552586,2.350205085,48.82552586
Vélib,17105,17105 - PALADINES,18 BOULEVARD D'AURELLE DE PALADINES - 75017 PARIS,75,75017,PARIS,48.88349808,2.28201559,48.88349808
Vélib,18110,18110 - DEPARTEMENT,FACE 53 RUE DU DEPARTEMENT - 75018 PARIS,75,75018,PARIS,48.88666562,2.361519338,48.88666562
Vélib,6104,06104 - HERSCHEL,7 RUE HERSCHEL - 75006 PARIS,75,75006,PARIS,48.84336424,2.337803431,48.84336424
Vélib,8046,08046 - ALMA MARCEAU,2 Avenue MARCEAU - 75008 PARIS,75,75008,PARIS,48.86519441,2.300249545,48.86519441
Vélib,8104,08104 - FRIEDLAND CHATEAUBRIAND,27/31 RUE DE CHATEAUBRIAND - 75008 PARIS,75,75008,PARIS,48.87401448,2.299916258,48.87401448
Vélib,9101,09101 - CADET LA FAYETTE,24-26 RUE CADET - 75009 PARIS,75,75009,PARIS,48.87563967,2.343523592,48.87563967
Vélib,9038,09038 - SQUARE BERLIOZ,50 BIS RUE DOUAI - 75009 PARIS,75,75009,PARIS,48.88320784,2.330849949,48.88320784
Vélib,10114,10114 - HOPITAL SAINT LOUIS,12 BIS RUE DE LA GRANGE AUX BELLES - 75010 PARIS,75,75010,PARIS,48.87479499,2.366669437,48.87479499
Vélib,15051,15051 - ROLLET,1 PLACE HENRI ROLLET - 75015 PARIS,75,75015,PARIS,48.835981,2.293467119,48.835981
Vélib,16031,16031 - BOULAINVILLIERS,51 RUE DES VIGNES - 75016 PARIS,75,75016,PARIS,48.85615074,2.275188415,48.85615074
Vélib,20045,20045 - LOUIS GANNE,3-5 RUE LOUIS GANNE - 75020 PARIS,75,75020,PARIS,48.86346964,2.4096701,48.86346964
Vélib,20106,20106 - MAIRIE DU 20ÈME,44-46 AVENUE GAMBETTA - 75020 PARIS,75,75020,PARIS,48.86535224,2.398946448,48.86535224
Vélib,23003,23003 - WILSON (LEVALLOIS),132 RUE DU PRESIDENT WILSON - 92300 LEVALLOIS,92,92300,LEVALLOIS-PERRET,48.89834,2.285089934,48.89834
Vélib,28001,28001 - WALLACE (PUTEAUX),FACE AU 4 BOULEVARD RICHARD WALLACE - 92800 PUTEAUX,92,92800,PUTEAUX,48.87870685,2.241975494,48.87870685
Vélib,42008,42008 - CASANOVA (IVRY),128 AVENUE DANIEL CASANOVA - 94200 IVRY,94,94200,IVRY-SUR-SEINE,48.81420628,2.384207014,48.81420628
Vélib,21202,21202 - BARBES (MONTROUGE),16 RUE BARBES - 92120 MONTROUGE,92,92120,MONTROUGE,48.81724491,2.327505999,48.81724491
Vélib,21309,21309 - CRESSON 2 (ISSY LES MOULINEAUX),1 BIS AVENUE VICTOR CRESSON - 92130 ISSY LES MOULINEAUX,92,92130,ISSY-LES-MOULINEAUX,48.82371848,2.272254454,48.82371848
Vélib,13051,13051 - QUAI FRANCOIS MAURIAC TOLBIAC,9 QUAI FRANCOIS MAURIAC - 75013 PARIS,75,75013,PARIS,48.83264101,2.379104901,48.83264101
Vélib,18022,18022 - BARBES MARCADET,57 RUE MARCADET - 75018 PARIS,75,75018,PARIS,48.89045112,2.349057393,48.89045112
Vélib,18017,18017 - PECQUEUR,93 RUE COULAINCOURT - 75018 PARIS,75,75018,PARIS,48.88967791,2.338178714,48.88967791
Vélib,18008,18008 - SQUARE LEON,FACE 36 RUE CAVE - 75018 PARIS,75,75018,PARIS,48.88666703,2.353213072,48.88666703
Vélib,2102,02102 - SAINT MARC,8 RUE SAINT MARC - 75002 PARIS,75,75002,PARIS,48.87031476,2.341878567,48.87031476
Vélib,5019,05019 - POISSY,8-10 RUE DE POISSY - 75005 PARIS,75,75005,PARIS,48.84969041,2.352970184,48.84969041
Vélib,11013,11013 - NATION VOLAIRE,5 PLACE DE LA NATION - 75011 PARIS,75,75011,PARIS,48.84927664,2.394934478,48.84927664
Vélib,12041,12041 - BOIS DE VINCENNES,AVENUE DAUMESNIL - 75012 PARIS,75,75012,PARIS,48.83365485,2.413463576,48.83365485
Vélib,12105,12105 - BERCY VILLOT,153 RUE DE BERCY - 75012 PARIS,75,75012,PARIS,48.84190715,2.376605625,48.84190715
Vélib,13109,13109 - BRILLAT SAVARIN,16 RUE BRILLAT SAVARIN - 75013 PARIS,75,75013,PARIS,48.8222031,2.350422033,48.8222031
Vélib,13054,13054 - PAU CASALS,1 RUE PAU CASALS - 75013 PARIS,75,75013,PARIS,48.83124497,2.377263237,48.83124497
Vélib,14025,14025 - JACQUIER,10 RUE JACQUIER - 75014 PARIS,75,75014,PARIS,48.8295704,2.318353021,48.8295704
Vélib,17110,17110 - LEGENDRE,83 RUE LEGENDRE - 75017 PARIS,75,75017,PARIS,48.88777233,2.320367866,48.88777233
Vélib,19019,19019 - PETIT HONNEGER,124 RUE PETIT - 75019 PARIS,75,75019,PARIS,48.88638963,2.393637514,48.88638963
Vélib,19021,19021 - MAIRIE DU 19 EME,4 RUE ARMAND CARREL - 75019 PARIS,75,75019,PARIS,48.88259147,2.38122061,48.88259147
Vélib,1002,01002 - PLACE DU CHATELET,14 AVENUE VICTORIA - 75001 PARIS,75,75001,PARIS,48.85794009,2.347010058,48.85794009
Vélib,10025,10025 - ECLUSES SAINT MARTIN,148 QUAI DE JEMMAPES - 75010 PARIS,75,75010,PARIS,48.87742034,2.366011449,48.87742034
Vélib,11044,11044 - RICHARD LENOIR VOLTAIRE NORD,FACE 104 BOULEVARD RICHARD LENOIR - 75011 PARIS,75,75011,PARIS,48.86343199,2.371208618,48.86343199
Vélib,21109,21109 - GUICHET (CLICHY),12BIS RUE DU GUICHET - 92110 CLICHY,92,92110,CLICHY,48.905137,2.302503161,48.905137
Vélib,13020,13020 - MENDES FRANCE,FACE 15 RUE PAUL KLEE - 75013 PARIS,75,75013,PARIS,48.83908422,2.370532331,48.83908422
Vélib,15014,15014 - VOLONTAIRES,25 RUE DES VOLONTAIRES - 75015 PARIS,75,75015,PARIS,48.8413205,2.308089017,48.8413205
Vélib,6013,06013 - JACQUES CALLOT,1 RUE JACQUES CALLOT - 75006 PARIS,75,75006,PARIS,48.85525469,2.337539334,48.85525469
Vélib,908,00908 - PORT DU GROS CAILLOU (STATION MOBILE),QUAI D'ORSAY - PORT DU GROS CAILLOU - 75007 PARIS,75,75007,PARIS,48.86288,2.30652,48.86288
Vélib,8039,08039 - COLISEE,6 RUE DU COLISEE - 75008 PARIS,75,75008,PARIS,48.87048194,2.30766254,48.87048194
Vélib,8018,08018 - SAINT AUGUSTIN,18 PLACE HENRI BERGSON - 75008 PARIS,75,75008,PARIS,48.87620116,2.319793924,48.87620116
Vélib,8050,08050 - BOETIE PONTHIEU,116 RUE DE LA BOETIE - 75008 PARIS,75,75008,PARIS,48.87151274,2.307487564,48.87151274
Vélib,8045,08045 - ALMA,FACE 3 AVENUE MONTAIGNE - 75008 PARIS,75,75008,PARIS,48.86492098,2.302549182,48.86492098
Vélib,9007,09007 - CONDORCET,34 RUE CONDORCET - 75009 PARIS,75,75009,PARIS,48.87983123,2.345396339,48.87983123
Vélib,9027,09027 - FONTAINE DOUAI,24 RUE DE DOUAI - 75009 PARIS,75,75009,PARIS,48.88235326,2.333263373,48.88235326
Vélib,22010,22010 - DE GAULLE 4 (NEUILLY),72 AVENUE CHARLES DE GAULLE - 92200 NEUILLY SUR SEINE,92,92200,NEUILLY-SUR-SEINE,48.88167445,2.271177499,48.88167445
Vélib,31007,31007 - PARIS 1 (MONTREUIL),56 RUE DE PARIS - 93100 MONTREUIL,93,93100,MONTREUIL,48.85747779,2.432569782,48.85747779
Vélib,42503,42503 - LENINE (GENTILLY),FACE 71 AVENUE LENINE - 94250 GENTILLY,94,94250,GENTILLY,48.81315668,2.332054795,48.81315668
Vélib,19014,19014 - LORRAINE,28 RUE DE LORRAINE - 75019 PARIS,75,75019,PARIS,48.88633508,2.382461201,48.88633508
Vélib,22009,22009 - DE GAULLE 2 (NEUILLY),101 AVENUE CHARLES DE GAULLE - 92200 NEUILLY SUR SEINE,92,92200,NEUILLY-SUR-SEINE,48.88093949,2.271540901,48.88093949
Vélib,14106,14106 - STADE DIDOT,FACE 58 AVENUE MARC SANGNIER - 75014 PARIS,75,75014,PARIS,48.82532587,2.310670653,48.82532587
Vélib,14014,14014 - STADE CHARLETY,5 BOULEVARD JOURDAN - 75014 PARIS,75,75014,PARIS,48.8194013,2.343376611,48.8194013
Vélib,16110,16110 - OCTAVE FEUILLET,4-6 RUE OCTAVE FEUILLET - 75016 PARIS,75,75016,PARIS,48.86099837,2.273128527,48.86099837
Vélib,20024,20024 - GAMBETTA - PÈRE LACHAISE,11 RUE MALTE BRUN - 75020 PARIS,75,75020,PARIS,48.8642957,2.398228667,48.8642957
Vélib,21016,21016 - POINT DU JOUR (BOULOGNE-BILLANCOURT),118 RUE DU POINT DU JOUR - 92100 BOULOGNE BILLANCOURT,92,92100,BOULOGNE-BILLANCOURT,48.82875314,2.245911467,48.82875314
Vélo2,50003,50003 - CER03 - LES ESSARTS (CB),AVENUE DES ESSARTS ANGLE BOULEVARD DE L'OISE - 95000 CERGY,95,95000,CERGY,49.04205234,2.019491027,49.04205234
Vélib,1011,01011 - RIVOLI MAIRIE DU 1ER,36 RUE DE L'ARBRE SEC - 75001 PARIS,75,75001,PARIS,48.8602471,2.342302646,48.8602471
Vélib,3008,03008 - PERLE,22 RUE DE LA PERLE - 75003 PARIS,75,75003,PARIS,48.85984668,2.361050487,48.85984668
Vélib,5022,05022 - CARDINAL LEMOINE,40 RUE BOU LANGERS - 75005 PARIS,75,75005,PARIS,48.84629503,2.352222922,48.84629503
Vélib,10042,10042 - POISSONNIÈRE - ENGHIEN,52 RUE D'ENGHIEN / ANGLE RUE DU FAUBOURG POISSONIERE - 75010 PARIS,75,75010,PARIS,48.87242006,2.348395236,48.87242006
Vélib,11039,11039 - JULES FERRY REPUBLIQUE,FACE 121 BOULEVARD RICHARD LENOIR - 75011 PARIS,75,75011,PARIS,48.86580428,2.369337075,48.86580428
Vélo2,50006,50006 - CER06 - LE CHAT PERCHÉ,AVENUE DE LA BELLE HEAUMIÈRE ANGLE SQUARE DE L'ECHIQUIER - 95000 CERGY,95,95000,CERGY,49.04882919,2.026845292,49.04882919
Vélib,1008,01008 - LOUVRE / COQUILLERE,9 rue COQUILLIERE 75001 PARIS,75,75001,PARIS,48.86358051,2.342609464,48.86358051
Vélib,2020,02020 - OPERA CASANOVA,02 RUE DANIEL CASANOVA - 75002 PARIS,75,75002,PARIS,48.86762308,2.333268593,48.86762308
Vélib,7019,07019 - ECOLE MILITAIRE,85 AVENUE BOSQUET - 75007 PARIS,75,75007,PARIS,48.85495117,2.305478634,48.85495117
Vélib,10016,10016 - VILLEMIN,29 RUE DES RECOLLETS - 75010 PARIS,75,75010,PARIS,48.87503466,2.359801239,48.87503466
Vélib,13116,13116 - PLACE DU DOCTEUR YERSIN,FACE 5 AVENUE DE LA PORTE D'IVRY - 75013 PARIS,75,75013,PARIS,48.82022679,2.37220931,48.82022679
Vélib,13036,13036 - TOLBIAC NATIONALE,86 RUE TOLBIAC - 75013 PARIS,75,75013,PARIS,48.8269002,2.365177603,48.8269002
Vélib,14009,14009 - COTY TOMBE D'ISSOIRE,49 RUE DE LA TOMBE D'ISSOIRE - 75014 PARIS,75,75014,PARIS,48.830556,2.333783298,48.830556
Vélib,17004,17004 - LEGENDRE AVENUE DE CLICHY,130 RUE LEGENDRE - 75017 PARIS,75,75017,PARIS,48.88896162,2.322528975,48.88896162
Vélib,18029,18029 - POTEAU,1 RUE EMILE BLEMONT - 75018 PARIS,75,75018,PARIS,48.8945309,2.341541339,48.8945309
Vélib,20037,20037 - SAINT FARGEAU,177 AVENUE GAMBETTA - 75020 PARIS,75,75020,PARIS,48.87126592,2.403950752,48.87126592
Vélib,7006,07006 - QUAI VOLTAIRE,QUAI VOLTAIRE - 75007 PARIS,75,75007,PARIS,48.85894299,2.331418205,48.85894299
Vélib,9021,09021 - SAINT GEORGES,56 RUE SAINT GEORGES - 75009 PARIS,75,75009,PARIS,48.87787228,2.337446804,48.87787228
Vélib,12002,12002 - LACUEE,17 RUE LACUEE - 75012 PARIS,75,75012,PARIS,48.84921586,2.370503424,48.84921586
Vélib,22406,22406 - MOQUET (MALAKOFF),81 RUE GUY MOQUET - 92240 MALAKOFF,92,92240,MALAKOFF,48.81524985,2.298000157,48.81524985
Vélo2,50002,50002 - CER02 - AVENUE DU HAZAY,Avenue du Hazay angle rue de la Destinée - 95000 CERGY,95,95000,CERGY,49.04205234,2.019491027,49.04205234
Vélib,16122,16122 - MUETTE NEUILLY,ROUTE DE LA MUETTE A NEUILLY - 75016 PARIS,75,75016,PARIS,48.88007964,2.25857659,48.88007964
Vélib,17025,17025 - COURCELLES,2 RUE DE CHAZELLES - 75017 PARIS,75,75017,PARIS,48.87943038,2.303467407,48.87943038
Vélib,17012,17012 - MAIRIE DU 17EME,FACE 16 RUE DES BATIGNOLLES - 75017 PARIS,75,75017,PARIS,48.88410129,2.322206025,48.88410129
Vélib,17104,17104 - GENERAL KOENIG,2 BOULEVARD AURELLE DE PALADINES - 75017 PARIS,75,75017,PARIS,48.88172566,2.283682662,48.88172566
Vélib,18108,18108 - EVANGILE,61 RUE DE L'EVANGILE - 75018 PARIS,75,75018,PARIS,48.89509033,2.36869414,48.89509033
Vélib,22405,22405 - NORD (MALAKOFF),ANGLE PASSAGE DU NORD / GABRIEL PERI - 92240 MALAKOFF,92,92240,MALAKOFF,48.81933916,2.300476865,48.81933916
Vélo2,50007,50007 - CER07 -  PARC ST-CHRISTOPHE,AVENUE DE L'ENTREPRISE ANGLE ROND POINT DU CÈDRE - 95000 CERGY,95,95000,CERGY,49.04288782,2.029710532,49.04288782
Vélo2,50011,50011 - CER11 - PLACE DE L'HOTEL DE VILLE (CB),RUE DES GÉMEAUX - 95000 CERGY,95,95000,CERGY,49.05127384,2.037590092,49.05127384
Vélib,2014,02014 - SAINT AUGUSTIN,1  3 RUE DAUNOU - 75002 PARIS,75,75002,PARIS,48.86911315,2.332515105,48.86911315
Vélib,6030,06030 - ASSAS-VAUGIRARD,22 RUE D'ASSAS - 75006 PARIS,75,75006,PARIS,48.84846886,2.328996747,48.84846886
Vélib,9024,09024 - LAFAYETTE TAITBOUT,27 RUE TAITBOUT - 75009 PARIS,75,75009,PARIS,48.87338581,2.33529684,48.87338581
Vélib,11006,11006 - LEDRU ROLLIN-BASFROI,169 AVENUE LEDRU ROLLIN - 75011 PARIS,75,75011,PARIS,48.85643371,2.379020588,48.85643371
Vélib,13055,13055 - LAGROUA,18 RUE MARIE ANDREE LAGROUA - 75013 PARIS,75,75013,PARIS,48.82859528,2.380220606,48.82859528
Vélib,21204,21204 - D'ORVES (MONTROUGE),FACE 44 RUE D'ESTIENNES D'ORVES / PISCINE - 92120 MONTROUGE,92,92120,MONTROUGE,48.81538822,2.320886791,48.81538822
Vélib,31013,31013 - CENTENAIRE (MONTREUIL),8 RUE DU CENTENAIRE - 93100 MONTREUIL,93,93100,MONTREUIL,48.85845965,2.427390311,48.85845965
Vélib,13027,13027 - MAZAGRAND COUBERTIN,AVENUE DE LA PORTE DE GENTILLY - 75013 PARIS,75,75013,PARIS,48.81625826,2.344181923,48.81625826
Vélib,18025,18025 - MAIRIE DU 18 EME,81 RUE MONT-CENIS - 75018 PARIS,75,75018,PARIS,48.89292565,2.344517921,48.89292565
Vélib,18039,18039 - EOLE,41 RUE D'AUBERVILLIERS - 75018 PARIS,75,75018,PARIS,48.8870212,2.366886248,48.8870212
Vélib,20122,20122 - DAVOUT VITRUVE,98 RUE VITRUVE - 75020 PARIS,75,75020,PARIS,48.86024012,2.408758428,48.86024012
Vélib,5110,05110 - LACEPEDE,27 RUE LACEPEDE - 75005 PARIS,75,75005,PARIS,48.84386035,2.351902225,48.84386035
Vélib,6003,06003 - SAINT SULPICE,15 RUE DU VIEUX COLOMBIER - 75006 PARIS,75,75006,PARIS,48.85164785,2.330817074,48.85164785
Vélib,7007,07007 - MUSÉE D'ORSAY,62 RUE DE LILLE - 75007 PARIS,75,75007,PARIS,48.8597101,2.325809025,48.8597101
Vélib,10024,10024 - BUISSON SAINT LOUIS,2 RUE DU BUISSON SAINT LOUIS - 75010 PARIS,75,75010,PARIS,48.87182589,2.372203225,48.87182589
Vélib,11113,11113 - REPUBLIQUE FERRY,FACE 140 BOULEVARD RICHARD LENOIR - 75011 PARIS,75,75011,PARIS,48.86651608,2.36932253,48.86651608
Vélib,11105,11105 - REPUBLIQUE PARMENTIER,82 AVENUE PARMENTIER - 75011 PARIS,75,75011,PARIS,48.86454163,2.375195197,48.86454163
Vélib,12012,12012 - REUILLY DIDEROT,71 BOULEVARD DIDEROT - 75012 PARIS,75,75012,PARIS,48.84729631,2.385707672,48.84729631
Vélib,31001,31001 - LAGNY (MONTREUIL),96 RUE DE LAGNY - 93100 MONTREUIL,93,93100,MONTREUIL,48.8492303,2.42142994,48.8492303
Vélib,32601,32601 - PARIS (LES LILAS),46 RUE DE PARIS - 93260 LES LILAS,93,93260,LES LILAS,48.87859035,2.411899978,48.87859035
Vélib,42208,42208 - PARIS 4 (CHARENTON),178 RUE DE PARIS - 94220 CHARENTON,94,94220,CHARENTON,48.82942147,2.401648106,48.82942147
Vélib,5030,05030 - SORBONNE,5 RUE DE LA SORBONNE - 75005 PARIS,75,75005,PARIS,48.84977037,2.343573576,48.84977037
Vélib,12026,12026 - PARC DE BERCY,61 RUE DE BERCY - 75012 PARIS,75,75012,PARIS,48.83772146,2.382217337,48.83772146
Vélib,12108,12108 - PALAIS OMNISPORT,81 RUE DE BERCY - 75012 PARIS,75,75012,PARIS,48.83877531,2.380860793,48.83877531
Vélib,13010,13010 - PLACE D ITALIE AURIOL,FACE 11 PLACE D'ITALIE - 75013 PARIS,75,75013,PARIS,48.83158264,2.356708421,48.83158264
Vélib,15029,15029 - EMERIAU,27 RUE EMERIAU - 75015 PARIS,75,75015,PARIS,48.85061475,2.287250163,48.85061475
Vélib,15055,15055 - VASCO DE GAMA,44 RUE VASCO DE GAMA - 75015 PARIS,75,75015,PARIS,48.8367095,2.283692381,48.8367095
Vélib,22011,22011 - MONTROSIER (NEUILLY),7 RUE MONTROSIER - 92200 NEUILLY,92,92200,NEUILLY-SUR-SEINE,48.87944137,2.278535717,48.87944137
Vélib,41102,41102 - RENAN (ARCUEIL),rue Ernest Renan / angle rue Vaucouleurs (A la sortie du RER B) - 94110 ARCUEIL,94,94110,ARCUEIL,48.80880039,2.334689655,48.80880039
Vélib,41601,41601 - GENERAL DE GAULLE (SAINT MANDE),86 AVENUE DU GENERAL DE GAULLE - 94160 SAINT MANDE,94,94160,SAINT-MANDE,48.83903043,2.417410435,48.83903043
Vélo2,50013,50013 - CER13 - ROND-POINT DES RAIES,ALLÉE DU BELVÉDÈRE ANGLE ROND POINT DES RAIES - 95000 CERGY,95,95000,CERGY,49.04490528,2.053361002,49.04490528
Vélib,14007,14007 - SAINT JACQUES FERRUS,1 RUE FERRUS - 75014 PARIS,75,75014,PARIS,48.83136668,2.340811882,48.83136668
Vélib,18007,18007 - GOUTTE D' OR,65 RUE DE LA GOUTTE D'OR - 75018 PARIS,75,75018,PARIS,48.88519801,2.349941992,48.88519801
Vélib,21009,21009 - LECORBUSIER (BOULOGNE-BILLANCOURT),FACE AU 1 RUE LECORBUSIER - 92100 BOULOGNE-BILLANCOURT,92,92100,BOULOGNE-BILLANCOURT,48.8379983,2.240846665,48.8379983
Vélib,5020,05020 - PONT DE SULLY RIVE GAUCHE,03 RUE DES FOSSES SAINT BERNARD - 75005 PARIS,75,75005,PARIS,48.84915969,2.356140327,48.84915969
Vélib,9017,09017 - TRUDAINE MARTYRS,01 RUE LALLIER - 75009 PARIS,75,75009,PARIS,48.88103215,2.340774412,48.88103215
Vélib,10115,10115 - DODU,1 - 3 RUE DES ECLUSES SAINT MARTIN - 75010 PARIS,75,75010,PARIS,48.87613734,2.368084498,48.87613734
Vélib,11046,11046 - VOLTAIRE,8 place de la république - 75011 PARIS,75,75011,PARIS,48.86681,2.36547,48.86681
Vélib,12122,12122 - POLYGONE,AVENUE DU POLYGONE - 75012 PARIS,75,75012,PARIS,48.83544492,2.431421081,48.83544492
Cristolib,2,02 - HOPITAL INTERCOMMUNAL (CHIC),AVENUE DE VERDUN,94,94000,Créteil,48.79617363,2.463706246,48.79617363
Vélib,13019,13019 - AURIOL QUAI DE LA GARE,20 RUE FERNAND BRAUDEL - 75013 PARIS,75,75013,PARIS,48.83636225,2.372375389,48.83636225
Vélib,17030,17030 - RENNEQUIN PEREIRE,143 BOULEVARD DE PEREIRE - 75017 PARIS,75,75017,PARIS,48.88363915,2.295152067,48.88363915
Vélib,20027,20027 - PORTE DE MENILMONTANT,1 rue Vidal de la Blache / Angle 78 boulevard Mortier - 75020 PARIS,75,75020,PARIS,48.86915436,2.409322469,48.86915436
Vélib,20032,20032 - AMANDIERS,55 RUE DES CENDRIERS - 75020 PARIS,75,75020,PARIS,48.86629511,2.389350412,48.86629511
Vélib,21206,21206 - PERI (MONTROUGE),35/37 RUE GABRIEL PERI - 92120 MONTROUGE,92,92120,MONTROUGE,48.81823373,2.320884533,48.81823373
Vélib,21305,21305 - MADAULE (ISSY LES MOULINEAUX),PLACE MADAULE - 92130 ISSY LES MOULINEAUX,92,92130,ISSY-LES-MOULINEAUX,48.8241259,2.260645985,48.8241259
Vélib,21020,21020 - REPUBLIQUE 2 (BOULOGNE-BILLANCOURT),28 Bd de la République 92100 BOULOGNE BILLANCOURT,92,92100,BOULOGNE-BILLANCOURT,48.83199982,2.253719988,48.83199982
Vélib,31709,31709 - MARCEL (BAGNOLET),FACE AU 184 RUE ETIENNE MARCEL - 93170 BAGNOLET,93,93170,BAGNOLET,48.85705039,2.422549957,48.85705039
Vélo2,56104,56104 - ERA04 - LA CHALLE (CB),PLACE DE LA CHALLE ANGLE RUE DE LA CHALLE ORANGE 95600 - ERAGNY,95,95600,ERAGNY,49.01769683,2.099416812,49.01769683
Vélib,13035,13035 - IVRY TOLBIAC,116 AVENUE DE CHOISY - 75013 PARIS,75,75013,PARIS,48.82597014,2.360231841,48.82597014
Vélib,14107,14107 - PORTE DE MONTROUGE 2,2 AVENUE DE LA PORTE DE MONTROUGE - 75014 PARIS,75,75014,PARIS,48.8234163,2.322936857,48.8234163
Vélib,14114,14114 - PLACE DE CATALOGNE,4 RUE ALAIN - 75014 PARIS,75,75014,PARIS,48.83729331,2.317482931,48.83729331
Vélib,17017,17017 - PONT CARDINET,167 RUE DE ROME - 75017 PARIS,75,75017,PARIS,48.88714045,2.314521606,48.88714045
Vélib,17006,17006 - GUY MOCQUET DAVY,34 RUE GUY MOCQUET - 75017 PARIS,75,75017,PARIS,48.89206409,2.323291341,48.89206409
Vélib,18122,18122 - BINET,5 RUE BINET - 75018 PARIS,75,75018,PARIS,48.89926886,2.342963477,48.89926886
Vélib,18032,18032 - PORTE DE CLIGNANCOURT,FACE 59 RUE BELLIARD - 75018 PARIS,75,75018,PARIS,48.89748846,2.343996499,48.89748846
Vélib,20118,20118 - ORTEAUX MOURAUD,100 RUE DES ORTEAUX - 75020 PARIS,75,75020,PARIS,48.85558643,2.408762908,48.85558643
Vélib,4021,04021 - BEAUBOURG RAMBUTEAU,49 RUE RAMBUTEAU - 75004 PARIS,75,75004,PARIS,48.86141907,2.352581443,48.86141907
Vélib,5021,05021 - JUSSIEU,41 RUE JUSSIEU - 75005 PARIS,75,75005,PARIS,48.84718464,2.35339838,48.84718464
Vélib,6027,06027 - VAUGIRARD DESGOFFE,2 RUE BLAISE DESGOFFE - 75006 PARIS,75,75006,PARIS,48.84612989,2.324240578,48.84612989
Vélib,9113,09113 - BLEUE,5 RUE BLEUE - 75009 PARIS,75,75009,PARIS,48.87582186,2.34730323,48.87582186
Vélib,11043,11043 - CIRQUE D HIVER,PLACE PASDELOUP - 75011 PARIS,75,75011,PARIS,48.8626503,2.36705349,48.8626503
Vélib,11035,11035 - GONCOURT,140 AVENUE PARMENTIER - 75011 PARIS,75,75011,PARIS,48.86946961,2.371536811,48.86946961
Vélib,15047,15047 - DANTZIG,FACE AU 37 RUE MORILLONS - 75015 PARIS,75,75015,PARIS,48.83317977,2.299282642,48.83317977
Vélib,16017,16017 - RUE DE SIAM,1 BIS RUE DE SIAM - 75016 PARIS,75,75016,PARIS,48.86172033,2.275346569,48.86172033
Vélib,16003,16003 - ANDRE MAUROIS,2 BIS BOULEVARD ANDRE MAUROIS - 75016 PARIS,75,75016,PARIS,48.87793082,2.278959825,48.87793082
Vélib,2006,02006 - PLACE DES VICTOIRES,2 RUE D'ABOUKIR - 75002 PARIS,75,75002,PARIS,48.86600263,2.341920412,48.86600263
Vélib,3009,03009 - TEMPLE 113,76 RUE DU TEMPLE - 75003 PARIS,75,75003,PARIS,48.86158116,2.356609341,48.86158116
Vélib,6002,06002 - SAINT PÈRES,1 RUE SAINT BENOIT - 75006 PARIS,75,75006,PARIS,48.85549998,2.33344522,48.85549998
Vélib,8047,08047 - GEORGE V,28 AVENUE GEORGE V - 75008 PARIS,75,75008,PARIS,48.86816594,2.301274609,48.86816594
Vélib,12003,12003 - QUAI DE LA RAPEE,FACE 98 QUAI DE LA RAPEE - 75012 PARIS,75,75012,PARIS,48.84588695,2.366896794,48.84588695
Vélib,42501,42501 - RASPAIL 1 (GENTILLY),80 AVENUE RASPAIL - 94250 GENTILLY,94,94250,GENTILLY,48.81018526,2.343789204,48.81018526
Vélib,19043,19043 - PETITS PONTS,RUE JULES LADOUMEGUE / ANGLE ROUTES DES PETITS PONTS / ANGLE AV. DU GAL. LECLERC - 75019 PARIS,75,75019,PARIS,48.89380017,2.397910366,48.89380017
Vélib,18019,18019 - MONTCALM,2 RUE MONTCALM - 75018 PARIS,75,75018,PARIS,48.89187796,2.335447428,48.89187796
Vélib,20116,20116 - HAIES REUNION,53 RUE DES HAIES - 75020 PARIS,75,75020,PARIS,48.85386897,2.402426162,48.85386897
Vélib,21108,21108 - VILLENEUVE 2 (CLICHY),6-8 RUE VILLENEUVE - 92110 CLICHY,92,92110,CLICHY,48.90362101,2.306228566,48.90362101
Vélib,42702,42702 - LECLERC (KREMLIN BICETRE),73 RUE DU GENERAL LECLERC - 94270 LE KREMELIN BICETRE,94,94270,LE KREMLIN-BICETRE,48.8104775,2.358172896,48.8104775
Vélib,2021,02021 - CLERY,4 RUE DE CLERY - 75002 PARIS,75,75002,PARIS,48.86746744,2.344526615,48.86746744
Vélib,8048,08048 - MARCEAU,45 AVENUE MARCEAU - 75008 PARIS,75,75008,PARIS,48.86885171,2.298514049,48.86885171
Vélib,10022,10022 - CHABROL SAINT QUENTIN,FACE 124 RUE DU FAUBOURG SAINT DENIS - 75010 PARIS,75,75010,PARIS,48.87686691,2.356119083,48.87686691
Vélib,11009,11009 - RUE DES BOULETS,45 RUE DES BOULETS - 75011 PARIS,75,75011,PARIS,48.8521931,2.389021651,48.8521931
Vélib,12020,12020 - COURS DE VINCENNES - BD SOULT,FACE 118 COURS DE VINCENNES - 75012 PARIS,75,75012,PARIS,48.84698907,2.410145497,48.84698907
Vélib,13018,13018 - AURIOL CHEVALERET,1 RUE BRUANT - 75013 PARIS,75,75013,PARIS,48.83484845,2.3668265,48.83484845
Vélib,31705,31705 - CHAMPEAUX (BAGNOLET),RUE DES CHAMPEAUX (PRES DE LA GARE ROUTIERE) - 93170 BAGNOLET,93,93170,BAGNOLET,48.86452782,2.416170724,48.86452782
Vélib,42207,42207 - PARIS 3 (CHARENTON),136 RUE DE PARIS - 94220 CHARENTON,94,94220,CHARENTON,48.82665721,2.405876723,48.82665721
Vélib,18047,18047 - ST OUEN LAMARCK,53 AVENUE DE SAINT OUEN - 75018 PARIS,75,75018,PARIS,48.89108304,2.326735695,48.89108304
Vélib,20040,20040 - PARC DE BELLEVILLE,57 & 36 RUE JULIEN LACROIX - 75020 PARIS,75,75020,PARIS,48.87039367,2.384222473,48.87039367
Vélib,13114,13114 - NATIONALE DUCHAMP (PROP 1),46 RUE NATIONALE - 75013 PARIS,75,75013,PARIS,48.82481084,2.36773549,48.82481084
Vélib,14013,14013 - LIART AMIRAL MOUCHEZ,1 RUE LIARD - 75014 PARIS,75,75014,PARIS,48.82122766,2.342104215,48.82122766
Vélib,14023,14023 - MALAKOFF PINARD,76-78 BOULEVARD ADOLPHE PINARD - 75014 PARIS,75,75014,PARIS,48.82365348,2.307766826,48.82365348
Vélib,15053,15053 - LECOURBE,250 RUE LECOURBE - 75015 PARIS,75,75015,PARIS,48.8392221,2.291540508,48.8392221
Vélib,15023,15023 - LA MOTTE PIQUET,146 BOULEVARD GRENELLE - 75015 PARIS,75,75015,PARIS,48.84865632,2.299244077,48.84865632
Vélib,16025,16025 - FONTAINE RAYNOUARD,4 RUE JEAN DE LA FONTAINE - 75016 PARIS,75,75016,PARIS,48.85278694,2.275580584,48.85278694
Vélib,17119,17119 - TOQUEVILLE,64 RUE DE TOQUEVILLE - 75017 PARIS,75,75017,PARIS,48.88492436,2.310908553,48.88492436
Vélib,20044,20044 - DAVOUT VOLGA,63 BOULEVARD DAVOUT / ANGLE 84 RUE VOLGA 75020 PARIS,75,75020,PARIS,48.85291968,2.41052291,48.85291968
Vélo2,56106,56106 - ERA06 - CENTRE TECHNIQUE MUNICIPAL,Rue de l'Ambassadeur angle rue des Anglais - 95610 ERAGNY,95,95610,ERAGNY,49.01121582,2.098463041,49.01121582
Vélib,5026,05026 - MOUFFETARD SAINT MEDARD,3 RUE PASCAL - 75005 PARIS,75,75005,PARIS,48.83899382,2.349932053,48.83899382
Vélib,7018,07018 - SEGUR ESTREES,23 AVENUE DE SEGUR - 75007 PARIS,75,75007,PARIS,48.85129433,2.309747616,48.85129433
Vélib,11027,11027 - SAINT AMBROISE PARMENTIER,17 RUE SAINT AMBROISE - 75011 PARIS,75,75011,PARIS,48.86213504,2.377229859,48.86213504
Vélib,12031,12031 - LAME,49 RUE GABRIEL LAME - 75012 PARIS,75,75012,PARIS,48.83513805,2.385478487,48.83513805
Vélib,12102,12102 - DIDEROT BERCY,224 RUE DE BERCY - 75012 PARIS,75,75012,PARIS,48.846188,2.370406162,48.846188
Vélib,8007,08007 - HAUSSMANN ROME,1 RUE DE ROME - 75008 PARIS,75,75008,PARIS,48.87423006,2.325570112,48.87423006
Vélib,10021,10021 - MARCHE ST QUENTIN,4 RUE DES PETITS HOTELS - 75010 PARIS,75,75010,PARIS,48.87735606,2.354511446,48.87735606
Vélib,10011,10011 - BOURSE DU TRAVAIL,3 RUE DU CHATEAU D'EAU - 75010 PARIS,75,75010,PARIS,48.86909175,2.362261762,48.86909175
Vélib,12110,12110 - BARON LE ROY TRUFFAUT,57-61 RUE DES PIROGUES DE BERCY - 75012 PARIS,75,75012,PARIS,48.83370864,2.388556666,48.83370864
Vélib,13044,13044 - PLACE JEANNE D'ARC,20 PLACE JEANNE D'ARC - 75013 PARIS,75,75013,PARIS,48.82957573,2.369126816,48.82957573
Vélib,17002,17002 - LA FOURCHE RUE DE LA CONDAMINE,4 RUE DE LA CONDAMINE - 75017 PARIS,75,75017,PARIS,48.88790135,2.324400445,48.88790135
Vélib,17038,17038 - ARGENTINE,42 AVENUE DE LA GRANDE ARMEE - 75017 PARIS,75,75017,PARIS,48.87617439,2.288247405,48.87617439
Vélib,17048,17048 - TOCQUEVILLE,12 RUE DE TOCQUEVILLE - 75017 PARIS,75,75017,PARIS,48.88240229,2.314000411,48.88240229
Vélib,20048,20048 - BAGNOLET,110 RUE DE BAGNOLET - 75020 PARIS,75,75020,PARIS,48.85977764,2.403444261,48.85977764
Vélib,1024,01024 - LOUVRE COQ HERON,20 RUE COQUILLIERE - 75001 PARIS,75,75001,PARIS,48.86377283,2.342707562,48.86377283
Vélib,6006,06006 - NOTRE DAME DES CHAMPS,41 RUE NOTRE DAME DES CHAMPS - 75006 PARIS,75,75006,PARIS,48.84479929,2.329337756,48.84479929
Vélib,10034,10034 - CHAPELLE LOUIS BLANC,68 RUE LOUIS BLANC - 75010 PARIS,75,75010,PARIS,48.88384932,2.360053089,48.88384932
Vélib,11026,11026 - CHEMIN VERT SAINT MAUR,105 RUE DU CHEMIN VERT - 75011 PARIS,75,75011,PARIS,48.86119442,2.381301905,48.86119442
Vélib,12024,12024 - GARE DE BERCY,GARE DE BERCY - ANGLE RUE CORBINEAU - 75012 PARIS,75,75012,PARIS,48.83976,2.38241,48.83976
Vélib,15049,15049 - PORTE DE VERSAILLES,2 AVENUE ERNEST RENAN - 75015 PARIS,75,75015,PARIS,48.83217944,2.287122262,48.83217944
Vélib,16004,16004 - BOULEVARD LANNES,FACE 2 BOULEVARD LANNES - 75016 PARIS,75,75016,PARIS,48.87075328,2.274875298,48.87075328
Vélib,16115,16115 - RAFFET,52 RUE RAFFET - 75016 PARIS,75,75016,PARIS,48.85261885,2.262930039,48.85261885
Vélib,20132,20132 - REUNION,4 RUE DE LA REUNION - 75020 PARIS,75,75020,PARIS,48.85256675,2.403928069,48.85256675
Vélib,20041,20041 - BELLEVILLE,116 BD DE BELLEVILLE - 75020 PARIS,75,75020,PARIS,48.87119943,2.377994338,48.87119943
Vélib,20038,20038 - LEON FRAPIE,6 RUE LEON FRAPIE - 75020 PARIS,75,75020,PARIS,48.87354904,2.411003036,48.87354904
Vélib,15022,15022 - ZOLA,143 AVENUE EMILE ZOLA - 75015 PARIS,75,75015,PARIS,48.84709868,2.296238451,48.84709868
Vélib,15065,15065 - HUMBERT,23 RUE EMILE ZOLA - 75015 PARIS,75,75015,PARIS,48.84638377,2.280008412,48.84638377
Vélib,16035,16035 - HYPPODROME D AUTEUIL,ALLEE DES FORTIFICATIONS - 75016 PARIS,75,75016,PARIS,48.84889282,2.257651561,48.84889282
Vélib,16032,16032 - EGLISE D AUTEUIL,PLACE DE L'EGLISE D'AUTEUIL - 75016 PARIS,75,75016,PARIS,48.84749842,2.268483871,48.84749842
Vélib,19022,19022 - BOLIVAR,53 RUE DE MEAUX - 75019 PARIS,75,75019,PARIS,48.88144732,2.373404767,48.88144732
Vélib,19044,19044 - GRANDS MOULINS,RUE DE LA CLOTURE / ANGLE RUE DU DEBARCADERE - 75019 PARIS,75,75019,PARIS,48.89713005,2.396079008,48.89713005
Vélib,2008,02008 - MAIRIE DU 2EME,11 RUE DE LA BANQUE - 75002 PARIS,75,75002,PARIS,48.86729326,2.340563686,48.86729326
Vélib,5005,05005 - SAINT JACQUES GAY LUSSAC,27 RUE GAY LUSSAC - 75005 PARIS,75,75005,PARIS,48.84473026,2.341923945,48.84473026
Vélib,13034,13034 - EDISON,54 AVENUE EDISON - 75013 PARIS,75,75013,PARIS,48.82902667,2.361069024,48.82902667
Vélib,14001,14001 - EDGAR QUINET,13 BOULEVARD EDGAR QUINET - 75014 PARIS,75,75014,PARIS,48.84115622,2.32444879,48.84115622
Vélib,14020,14020 - PORTE DE MONTROUGE,AV. DE LA PORTE DE MONTROUGE - 75014 PARIS,75,75014,PARIS,48.82121679,2.321173502,48.82121679
Vélib,15071,15071 - CHAMP DE MARS COTE 16EME,36 RUE DE SUFFREN - 75015 PARIS,75,75015,PARIS,48.85485175,2.295007914,48.85485175
Vélib,15016,15016 - DUTOT,59 RUE DUTOT - 75015 PARIS,75,75015,PARIS,48.83831247,2.308531844,48.83831247
Vélib,16018,16018 - FLANDRIN,2 BOULEVARD FLANDRIN - 75016 PARIS,75,75016,PARIS,48.86441141,2.272448648,48.86441141
Vélib,16130,16130 - BOIS DE BOULOGNE / PORTE DE LA MUETTE 2,AVENUE LOUIS BARTHOU / PLACE DE LA COLOMBIE - 75016 PARIS,75,75016,PARIS,48.86375793,2.267504684,48.86375793
Vélib,16135,16135 - STADE WILMILLE,ROND POINT DU MARECHAL DELATRE DE TASSIGNY - 75016 PARIS,75,75016,PARIS,48.872381,2.275283,48.872381
Vélib,20113,20113 - PARC DE BELLEVILLE,30 RUE PIAT - 75020 PARIS,75,75020,PARIS,48.87195627,2.38498139,48.87195627
Vélib,20033,20033 - ETIENNE DOLET,29 RUE ETIENNE DOLLET - 75020 PARIS,75,75020,PARIS,48.86804941,2.385133098,48.86804941
Vélib,6103,06103 - MEZIERES RENNES,16 RUE DE MEZIERES - 75006 PARIS,75,75006,PARIS,48.85029701,2.33044682,48.85029701
Vélib,11003,11003 - ROQUETTE DALLERY,29 RUE KELLER - 75011 PARIS,75,75011,PARIS,48.85551286,2.375240347,48.85551286
Vélib,11018,11018 - SAINT MAUR AVENUE DE LA REPUBLIQUE,87 RUE DE SAINT MAUR - 75011 PARIS,75,75011,PARIS,48.86421167,2.378255842,48.86421167
Vélib,43009,43009 - MURS DU PARC (VINCENNES),AVENUE DES MURS DU PARC - 94300 VINCENNES,94,94300,VINCENNES,48.84696126,2.452237397,48.84696126
Vélib,4010,04010 - SAINT PAUL PAVÉE,105-109 TERRE PLEIN SAINT PAUL - 75004 PARIS,75,75004,PARIS,48.855024,2.361203539,48.855024
Vélib,7023,07023 - BOURDONNAIS TOUR EIFFEL,QUAI BRANLY - 75007 PARIS,75,75007,PARIS,48.8608978,2.295599598,48.8608978
Vélib,8005,08005 - MADELEINE,04 PLACE DE LA MADELEINE - 75008 PARIS,75,75008,PARIS,48.86909009,2.32442963,48.86909009
Vélib,8041,08041 - CHAMPS ELYSEES LINCOLN,16 RUE DE LINCOLN - 75008 PARIS,75,75008,PARIS,48.87069016,2.303222424,48.87069016
Vélib,10029,10029 - PLACE DE ROUBAIX,39 RUE DE DUNKERQUE - 75010 PARIS,75,75010,PARIS,48.88072669,2.351464333,48.88072669
Vélib,12033,12033 - SAINT EMILION,FACE 28 RUE FRANCOIS TRUFFAUT - 75012 PARIS,75,75012,PARIS,48.83350833,2.386133169,48.83350833
Vélib,15111,15111 - SERRES,48 RUE OLIVIER DE SERRES - 75015 PARIS,75,75015,PARIS,48.83465886,2.29578948,48.83465886
Vélib,16006,16006 - RUE LAURISTON,60 RUE LAURISTON - 75016 PARIS,75,75016,PARIS,48.86926022,2.289918723,48.86926022
Vélib,23009,23009 - FRANCE (LEVALLOIS),18 RUE ANATOLE FRANCE - 92300 LEVALLOIS-PERRET,92,92300,LEVALLOIS-PERRET,48.88876278,2.288136014,48.88876278
Vélib,13039,13039 - IVRY POINTE D'IVRY,2 RUE DE LA POINTE D'IVRY - 75013 PARIS,75,75013,PARIS,48.82321968,2.365469628,48.82321968
Vélib,12025,12025 - BERCY,FACE 14 PL. DU BATAILLON DU PACIFIQUE - 75012 PARIS,75,75012,PARIS,48.84026772,2.379519528,48.84026772
Vélib,14019,14019 - SARETTE GENERAL LECLERC,58 RUE SARRETTE - 75014 PARIS,75,75014,PARIS,48.82503085,2.326412869,48.82503085
Vélib,18049,18049 - PTE D'AUBERVILLIERS,3-5 BOULEVARD NEY - 75018 PARIS,75,75018,PARIS,48.89845217,2.369609463,48.89845217
Vélib,20008,20008 - MARAICHERS,73 RUE DES PYRENEES - 75020 PARIS,75,75020,PARIS,48.8532469,2.405871045,48.8532469
Vélib,21001,21001 - TRANSVAL (BOULOGNE-BILLANCOURT),11 RUE DU TRANSVAL - 92100 BOULOGNE-BILLANCOURT,92,92100,BOULOGNE-BILLANCOURT,48.84829981,2.23757011,48.84829981
Vélib,21306,21306 - LAFAYETTE (ISSY LES MOULINEAUX),PLACE LAFAYETTE - 92130 ISSY LES MOULINEAUX,92,92130,ISSY-LES-MOULINEAUX,48.82974339,2.263816342,48.82974339
Vélib,21706,21706 - BLEUZEN (VANVES),74 RUE JEAN BLEUZEN - 92170 VANVES,92,92170,VANVES,48.82330323,2.296506344,48.82330323
Vélib,42016,42016 - CURIE (IVRY),1 BIS RUE PIERRE ET MARIE CURIE - 94200 IVRY,94,94200,IVRY-SUR-SEINE,48.81584739,2.376943795,48.81584739
Vélib,15020,15020 - MAIRIE DU 15EME,4 RUE LEON SECHE - 75015 PARIS,75,75015,PARIS,48.84170964,2.298549294,48.84170964
Vélib,15005,15005 - PLACE TREFOUEL,FACE 24 BOULEVARD PASTEUR - 75015 PARIS,75,75015,PARIS,48.8426508,2.31272739,48.8426508
Vélib,17115,17115 - PORTE DE SAINT OUEN,22 AVENUE DE LA PORTE DE SAINT OUEN - 75017 PARIS,75,75017,PARIS,48.89876008,2.329558517,48.89876008
Vélib,19113,19113 - PRE ST GERVAIS,27 RUE DU PRE SAINT GERVAIS - 75019 PARIS,75,75019,PARIS,48.87792341,2.395985554,48.87792341
Vélib,3101,03101 - PORTE SAINT MARTIN,62 RUE MESLAY - 75003 PARIS,75,75003,PARIS,48.86863641,2.355591593,48.86863641
Vélib,6018,06018 - MICHELET ASSAS,13 RUE MICHELET - 75006 PARIS,75,75006,PARIS,48.84254097,2.335067886,48.84254097
Vélib,6108,06108 - SAINT ROMAIN CHERCHE MIDI,20 RUE SAINT ROMAIN - 75006 PARIS,75,75006,PARIS,48.84703008,2.321289421,48.84703008
Vélib,9003,09003 - PLACE BARBÈS,PLACE BARBES - 75009 PARIS,75,75009,PARIS,48.8836532,2.349040855,48.8836532
Vélib,9013,09013 - MAIRIE DU 9EME,20 RUE DE LA GRANGE BATELIERE - 75009 PARIS,75,75009,PARIS,48.87326714,2.340753448,48.87326714
Vélib,10031,10031 - AQUEDUC,48 RUE LOUIS BLANC - 75010 PARIS,75,75010,PARIS,48.88199721,2.363625215,48.88199721
Vélib,12021,12021 - COURTELINE,1 - 3  et 5 avenue Courteline (angle boulevard Soult) - 75012 PARIS,75,75012,PARIS,48.84437319,2.410972452,48.84437319
Vélib,12014,12014 - NATION,16 PLACE DE LA NATION SUR TPC - 75012 PARIS,75,75012,PARIS,48.8473018,2.395520565,48.8473018
Vélib,13101,13101 - CROULEBARBE RECULETTES,67-69 RUE DE CROULEBARBE - 75013 PARIS,75,75013,PARIS,48.83112178,2.348108655,48.83112178
Vélib,13011,13011 - COMPO FORMIO,112 BD DE L'HOPITAL - 75013 PARIS,75,75013,PARIS,48.83540571,2.358218345,48.83540571
Vélib,14030,14030 - LOSSERAND - PERNETY,61 RUE PERNETY - 75014 PARIS,75,75014,PARIS,48.83425463,2.317609339,48.83425463
Vélib,15056,15056 - BALARD,13 PLACE BALARD - 75015 PARIS,75,75015,PARIS,48.83653729,2.278717697,48.83653729
Vélib,17018,17018 - MONCEAU,4 RUE DE THANN - 75017 PARIS,75,75017,PARIS,48.88116198,2.309512381,48.88116198
Vélib,19027,19027 - SERRURIER,FACE 109 BOULEVARD SERURIER - 75019 PARIS,75,75019,PARIS,48.88060605,2.397896291,48.88060605
Vélib,2007,02007 - CHABANAIS,1 RUE CHABANAIS - 75002 PARIS,75,75002,PARIS,48.86712345,2.336686608,48.86712345
Vélib,6004,06004 - REGARD,19 RUE DU REGARD - 75006 PARIS,75,75006,PARIS,48.84751783,2.326973306,48.84751783
Vélib,8025,08025 - MIROMESNIL,39 RUE DE MIROMESNIL - 75008 PARIS,75,75008,PARIS,48.87376047,2.315876308,48.87376047
Vélib,10012,10012 - VINAIGRIERS,58 RUE DES VINAIGRIERS - 75010 PARIS,75,75010,PARIS,48.87326784,2.359323613,48.87326784
Vélib,11008,11008 - FAIDHERBE CHALIGNY,223 RUE DU FAUBOURG SAINT ANTOINE - 75011 PARIS,75,75011,PARIS,48.85037975,2.383869335,48.85037975
Vélib,31004,31004 - PARIS 2 (MONTREUIL),175/179 RUE DE PARIS - 93100 MONTREUIL,93,93100,MONTREUIL,48.85550131,2.422055734,48.85550131
Vélo2,50021,50021 - CER21 - DALLE PIÉTONNE GRAND CENTRE,BOULEVARD DE L'OISE / RUE DE LA GARE - 95000 CERGY,95,95000,CERGY,49.03600659,2.080075108,49.03600659
Vélib,19013,19013 - LAUMIERE,8 & 1 RUE PETIT - 75019 PARIS,75,75019,PARIS,48.88458074,2.38012665,48.88458074
Vélib,14004,14004 - PORT ROYAL COCHIN,111 BD PORT ROYAL - 75014 PARIS,75,75014,PARIS,48.83843183,2.340794667,48.83843183
Vélib,15019,15019 - VAUGIRARD CAMBRONNE,3 RUE PAUL BARRUEL - 75015 PARIS,75,75015,PARIS,48.84005772,2.304507421,48.84005772
Vélib,16022,16022 - RUE JEAN BOLOGNE,16 RUE JEAN BOLOGNE - 75016 PARIS,75,75016,PARIS,48.85756689,2.280027395,48.85756689
Vélib,17039,17039 - PLACE SAINT FERDINAND,26 RUE SAINT FERDINAND - 75017 PARIS,75,75017,PARIS,48.8781553,2.288518048,48.8781553
Vélib,19119,19119 - BOURET PAILLERON,20 RUE EDOUARD PAILLERON - 75019 PARIS,75,75019,PARIS,48.88057446,2.376853001,48.88057446
Vélib,21107,21107 - SINCHOLLE (CLICHY),RUE BERTRAND SINCHOLLE - 92110 CLICHY,92,92110,CLICHY,48.89935964,2.304040561,48.89935964
Vélo2,54904,54904 - VAU04 - MENDES FRANCE,MAIL MENDES FRANCE ANGLE BOULEVARD DE L'OISE - 95490 VAUREAL,95,95490,VAUREAL,49.02383659,2.022595486,49.02383659
Vélo2,50016,50016 - CER16 - UNIVERSITÉ LES CHÊNES (CB),RUE DES CHÊNES D'OR ANGLE BOULEVARD DU PORT - 95000 CERGY,95,95000,CERGY,49.03776158,2.073068398,49.03776158
Vélib,9111,09111 - LA FAYETTE PROVENCE,28 RUE DE LA VICTOIRE - 75009 PARIS,75,75009,PARIS,48.87514373,2.338118505,48.87514373
Vélib,10020,10020 - CHABROL,59 RUE CHABROL - 75010 PARIS,75,75010,PARIS,48.87710035,2.351222168,48.87710035
Vélib,11016,11016 - PHILIPPE AUGUSTE,5 RUE DU PASSAGE PHILIPPE AUGUSTE - 75011 PARIS,75,75011,PARIS,48.8518182,2.393255376,48.8518182
Vélib,21211,21211 - MARNE (MONTROUGE),100 AVENUE DE LA MARNE - 92120 MONTROUGE,92,92120,MONTROUGE,48.81174982,2.303169888,48.81174982
Vélib,21209,21209 - GEORGES MESSIER (MONTROUGE),35 RUE MOLIERE - 92120 MONTROUGE,92,92120,MONTROUGE,48.81110184,2.314629748,48.81110184
Vélib,18016,18016 - FRANCOEUR CAULAINCOURT,1 RUE FRANCOEUR - 75018 PARIS,75,75018,PARIS,48.8900229,2.342450013,48.8900229
Vélib,19025,19025 - BOTZARIS,FACE 80 RUE BOTZARIS - 75019 PARIS,75,75019,PARIS,48.87956145,2.388960411,48.87956145
Vélib,14126,14126 - VAILLANT COUTURIER,155 AVENUE PAUL VAILLANT COUTURIER - 75014 PARIS,75,75014,PARIS,48.81698098,2.332609688,48.81698098
Vélib,15002,15002 - BOURDELLE,26 AVENUE DU MAINE - 75015 PARIS,75,75015,PARIS,48.84308532,2.320263947,48.84308532
Vélib,22407,22407 - BARBUSSE (MALAKOFF),ROND POINT HENRI BARBUSSE - 92240 MALAKOFF,92,92240,MALAKOFF,48.81467966,2.287400457,48.81467966
Vélib,32004,32004 - BAILLY (SAINT DENIS),AVENUE DU PRESIDENT WILSON/ RUE DE BAILLY - 93200 SAINT DENIS,93,93200,SAINT-DENIS,48.91519864,2.357500684,48.91519864
Vélo2,56103,56103 - ERA03 - GARE D'ERAGNY (CB),RUE DES BELLES HÂTES ANGLE BOULEVARD DES AVIATEURS ALLIÉS 95600 - ERAGNY,95,95600,ERAGNY,49.01805726,2.091026255,49.01805726
Vélib,1016,01016 - OPERA PYRAMIDES,27 RUE THERESE - 75001 PARIS,75,75001,PARIS,48.86648351,2.334433421,48.86648351
Vélib,4009,04009 - VILLAGE SAINT PAUL,6 RUE SAINT PAUL - 75004 PARIS,75,75004,PARIS,48.85272597,2.360878343,48.85272597
Vélib,6016,06016 - DANTON,11 RUE DANTON - 75006 PARIS,75,75006,PARIS,48.85239301,2.341442522,48.85239301
Vélib,7003,07003 - BON MARCHE,RUE VELPEAU - 75007 PARIS,75,75007,PARIS,48.85123038,2.325070039,48.85123038
Vélib,7005,07005 - BAC,FACE 2 BOULEVARD RASPAIL - 75007 PARIS,75,75007,PARIS,48.85546174,2.325681936,48.85546174
Vélib,8017,08017 - ROCHER,14 RUE ROCHER - 75008 PARIS,75,75008,PARIS,48.87607933,2.322731562,48.87607933
Vélib,21103,21103 - HUGO (CLICHY),94-98 BOULEVARD VICTOR HUGO - 92110 CLICHY,92,92110,CLICHY,48.90146016,2.317129921,48.90146016
Vélib,41302,41302 - CHARLES DE GAULLE (NOGENT),FACE AU 60 AVENUE CHARLES DE GAULLES - 94130 NOGENT SUR MARNE,94,94130,NOGENT,48.83648113,2.479464269,48.83648113
Vélib,3007,03007 - ARCHIVES PASTOURELLE,67 RUE DES ARCHIVES - 75003 PARIS,75,75003,PARIS,48.86240121,2.359447032,48.86240121
Vélib,8053,08053 - FRIEDLAND,PLACE GEORGES GUILLAUMIN - 75008 PARIS,75,75008,PARIS,48.8747502,2.301771435,48.8747502
Vélib,10037,10037 - VERSION 2 JAURES,EGLISE SAINT JOSEPH ARTISAN - 75010 PARIS,75,75010,PARIS,48.88126816,2.368117528,48.88126816
Vélib,11032,11032 - METALLOS,81 BIS RUE JP TIMBAUD - 75011 PARIS,75,75011,PARIS,48.86793796,2.377885516,48.86793796
Vélib,13110,13110 - MOULIN DE LA POINTE,66 RUE DU MOULIN DE LA POINTE - 75013 PARIS,75,75013,PARIS,48.82103929,2.356345144,48.82103929
Vélib,19033,19033 - CAMBRAI,30 RUE DE CAMBRAI - 75019 PARIS,75,75019,PARIS,48.89594737,2.381133802,48.89594737
Vélib,19046,19046 - PORTE DE PANTIN,3 PLACE DE LA PORTE DE PANTIN - 75019 PARIS,75,75019,PARIS,48.88904007,2.395289462,48.88904007
Vélib,19020,19020 - MANIN HAUTPOUL,4-6 RUE GOUBET - 75019 PARIS,75,75019,PARIS,48.88466207,2.390209687,48.88466207
Vélib,19045,19045 - CANAL SAINT DENIS - BD MACDONALD,145 BOULEVARD MCDONALD - 75019 PARIS,75,75019,PARIS,48.89883019,2.379330109,48.89883019
Vélib,19040,19040 - TELEGRAPHE,265 RUE DE BELLEVILLE - 75019 PARIS,75,75019,PARIS,48.87563618,2.399461452,48.87563618
Vélib,19015,19015 - THIONVILLE,24 RUE DE THIONVILLE - 75019 PARIS,75,75019,PARIS,48.88915492,2.383375417,48.88915492
Vélib,20029,20029 - PORTE DES LILAS,57 RUE DES FRERES FLAVIEN - 75020 PARIS,75,75020,PARIS,48.87809928,2.411046299,48.87809928
Vélib,1116,01116 - OPÉRA PYRAMIDES,4 RUE DE VENTADOUR - 75001 PARIS,75,75001,PARIS,48.86681065,2.334388448,48.86681065
Vélib,2010,02010 - BOULEVARD MONTMARTRE,21 RUE D'UZES - 75002 PARIS,75,75002,PARIS,48.87077576,2.343163334,48.87077576
Vélib,2013,02013 - RICHELIEU DROUOT,20 RUE FAVART - 75002 PARIS,75,75002,PARIS,48.87144635,2.338290106,48.87144635
Vélib,3006,03006 - MAIRIE DU 3EME,10 RUE PERREE - 75003 PARIS,75,75003,PARIS,48.86453081,2.361579815,48.86453081
Vélib,5031,05031 - LACEPEDE,2 RUE LACEPEDE - 75005 PARIS,75,75005,PARIS,48.84367485,2.354615983,48.84367485
Vélib,11017,11017 - ALEXANDRE DUMAS,FACE 77 BOULEVARD DE CHARONNE - 75011 PARIS,75,75011,PARIS,48.85417604,2.396093495,48.85417604
Vélib,11001,11001 - BASTILLE RICHARD LENOIR,2 BOULEVARD RICHARD LENOIR - 75011 PARIS,75,75011,PARIS,48.85384823,2.369701488,48.85384823
Vélib,12015,12015 - NATION PICPUS,FACE 67 BOULEVARD DE PICPUS - 75012 PARIS,75,75012,PARIS,48.84696436,2.399868277,48.84696436
Vélib,12042,12042 - MONTEMPOIVRE,36-38 boulevard Soult - 75012 PARIS,75,75012,PARIS,48.84039817,2.409229421,48.84039817
Vélib,21005,21005 - MORIZET (BOULOGNE-BILLANCOURT),20 AVENUE ANDRE MORIZET - 92100 BOULOGNE-BILLANCOURT,92,92100,BOULOGNE-BILLANCOURT,48.83495398,2.241688247,48.83495398
Vélib,21102,21102 - NATIONS UNIES (CLICHY),PLACE DES NATIONS UNIES - 92110 CLICHY,92,92110,CLICHY,48.89710985,2.309900498,48.89710985
Vélib,33001,33001 - EMGP (AUBERVILLIERS),EMGP AVENUE DE PORTE DE PARIS / PARKING 264 - 93300 AUBERVILLIERS,93,93300,AUBERVILLIERS,48.90318341,2.368025613,48.90318341
Vélib,41103,41103 - BRIAND (ARCUEIL),AVENUE ARISTIDE BRIAND (CARREFOUR VACHE NOIRE) - 94110 ARCUEIL,94,94110,ARCUEIL,48.81042317,2.326969765,48.81042317
Cristolib,6,06 - AVENUE DE LA BRECHE,AVENUE DE LA BRECHE,94,94000,Créteil,48.78350103,2.454576358,48.78350103
Vélib,14104,14104 - LOSSERAND BOYER-BARRET,4 RUE BOYER BARRET - 75014 PARIS,75,75014,PARIS,48.83425014,2.317614787,48.83425014
Vélib,14028,14028 - PLAISANCE ALESIA,164 RUE ALESIA - 75014 PARIS,75,75014,PARIS,48.8316397,2.315158529,48.8316397
Vélib,16103,16103 - TRAKTIR,3 RUE TRAKTIR - 75016 PARIS,75,75016,PARIS,48.87279916,2.291508179,48.87279916
Vélib,17031,17031 - PORTE DE CHAMPERET,PLACE DE LA PORTE DE CHAMPERET - 75017 PARIS,75,75017,PARIS,48.88561742,2.290781411,48.88561742
Vélib,19018,19018 - CITÉ DE LA MUSIQUE,FACE 210 AVENUE JEAN JAURES - 75019 PARIS,75,75019,PARIS,48.88878607,2.392686122,48.88878607
Vélib,20021,20021 - PRAIRIE L INDRE,2 RUE DE L'INDRE - 75020 PARIS,75,75020,PARIS,48.86272646,2.403351311,48.86272646
Vélib,20022,20022 - PORTE DE BAGNOLET,1 RUE GEO CHAVEZ - 75020 PARIS,75,75020,PARIS,48.86422187,2.408205412,48.86422187
Vélib,15021,15021 - CROIX NIVERT,DEV 2 RUE JOSEPH LOUVILLE - 75015 PARIS,75,75015,PARIS,48.84480642,2.297572006,48.84480642
Vélib,15112,15112 - FALGUIÈRE LEBRUN,19 RUE VIGEE LEBRUN - 75015 PARIS,75,75015,PARIS,48.83875881,2.31093608,48.83875881
Vélib,16008,16008 - GALILEE KLEBER,1 RUE GALILEE - 75016 PARIS,75,75016,PARIS,48.86741187,2.29078138,48.86741187
Vélib,18005,18005 - TARDIEU,8 RUE TARDIEU - 75018 PARIS,75,75018,PARIS,48.88416327,2.341879802,48.88416327
Vélib,18104,18104 - CHAPELLE,2 IMPASSE DE LA CHAPELLE - 75018 PARIS,75,75018,PARIS,48.89265689,2.359435455,48.89265689
Vélib,18004,18004 - ABBESSES,2 RUE DE LA VIEUVILLE - 75018 PARIS,75,75018,PARIS,48.88448239,2.338812297,48.88448239
Vélib,20120,20120 - NOISY LE SEC,1 RUE EVARISTE GALOIS - 75020 PARIS,75,75020,PARIS,48.87333823,2.41323988,48.87333823
Vélib,20004,20004 - PORTE DE VINCENNES BIS,10 RUE DU COMMANDANT L'HERMINIER - 75020 PARIS,75,75020,PARIS,48.84706442,2.41602296,48.84706442
Vélib,3013,03013 - RUE DE SEVIGNE,36 RUE DE SEVIGNE - 75003 PARIS,75,75003,PARIS,48.85695415,2.36289742,48.85695415
Vélib,8008,08008 - ROME SAINT LAZARE,1 RUE JOSEPH SANSBOEUF - 75008 PARIS,75,75008,PARIS,48.87535317,2.322884366,48.87535317
Vélib,8113,08113 - PLACE ST AUGUSTIN,5 PLACE SAINT AUGUSTIN - 75008 PARIS,75,75008,PARIS,48.87492311,2.319395144,48.87492311
Vélib,8028,08028 - HOUSSAYE,1 RUE ARSENE HOUSSAYE - 75008 PARIS,75,75008,PARIS,48.87343408,2.297706778,48.87343408
Vélib,8010,08010 - LIEGE,22 RUE DE LIEGE - 75008 PARIS,75,75008,PARIS,48.87958117,2.326427352,48.87958117
Vélib,12151,12151 - GARE DE LYON,GARE DE LYON - 75012 PARIS,75,75012,PARIS,48.84551509,2.372649845,48.84551509
Vélib,21015,21015 - NATIONALE (BOULOGNE-BILLANCOURT),39 RUE NATIONALE - 92100 BOULOGNE-BILLANCOURT,92,92100,BOULOGNE-BILLANCOURT,48.82760042,2.241835191,48.82760042
Vélib,21111,21111 - LERICHE (CLICHY),14 RUE DU PROFESSEUR RENE LERICHE - 92110 CLICHY,92,92110,CLICHY,48.90811038,2.30751971,48.90811038
Vélib,21308,21308 - LASSERRE (ISSY LES MOULINEAUX),FACE AU 27 RUE LASSERRE - 92130 ISSY LES MOULINEAUX,92,92130,ISSY-LES-MOULINEAUX,48.82129238,2.273313694,48.82129238
Vélib,14002,14002 - RASPAIL QUINET,FACE 4 BD EDGAR QUINET - 75014 PARIS,75,75014,PARIS,48.83919917,2.329555097,48.83919917
Vélib,20034,20034 - SORBIER - MÉNILMONTANT,1 RUE SORBIER - 75020 PARIS,75,75020,PARIS,48.86852647,2.38979541,48.86852647
Vélib,1018,01018 - RIVOLI TUILERIE,2 RUE D'ALGER - 75001 PARIS,75,75001,PARIS,48.86479367,2.329431422,48.86479367
Vélib,8020,08020 - METRO ROME,74 BOULEVARD DES BATIGNOLLES - 75008 PARIS,75,75008,PARIS,48.88214895,2.319860055,48.88214895
Vélib,8032,08032 - MATIGNON,27 AVENUE MATIGNON - 75008 PARIS,75,75008,PARIS,48.87147642,2.31388542,48.87147642
Vélib,11022,11022 - LEON BLUM ROQUETTE,142 RUE DE LA ROQUETTE - 75011 PARIS,75,75011,PARIS,48.85800191,2.381797703,48.85800191
Vélib,41101,41101 - DOUMER (ARCUEIL),FACE AU 11 AVENUE PAUL DOUMER - 94110 ARCUEIL,94,94110,ARCUEIL,48.80638001,2.336710403,48.80638001
Vélib,8035,08035 - NARVICK,54 RUE DE LA BIENFAISANCE - 75008 PARIS,75,75008,PARIS,48.87659994,2.313165054,48.87659994
Vélib,9031,09031 - PROVENCE,69 RUE DE PROVENCE - 75009 PARIS,75,75009,PARIS,48.87428448,2.332976512,48.87428448
Vélib,11012,11012 - MONTREUIL VOLTAIRE,93 RUE DE MONTREUIL - 75011 PARIS,75,75011,PARIS,48.85050701,2.393075558,48.85050701
Vélib,11025,11025 - FROMENT BREGUET,9 RUE FROMENT - 75011 PARIS,75,75011,PARIS,48.85704145,2.372894703,48.85704145
Vélib,13026,13026 - PLACE HENOCQUE VERSION 2,21 RUE DU DR LERAY ET LANDOUZY - 75013 PARIS,75,75013,PARIS,48.82331617,2.354336944,48.82331617
Vélib,21006,21006 - PARIS (BOULOGNE-BILLANCOURT),162 RUE DE PARIS - 92100 BOULOGNE-BILLANCOURT,92,92100,BOULOGNE-BILLANCOURT,48.84159703,2.233496776,48.84159703
Cristolib,3,03 - RUE DU GENERAL LECLERC - CENTRE ANCIEN,Allée de la porte de Brie,94,94000,Créteil,48.79078862,2.464890185,48.79078862
Vélib,14032,14032 - MOUTON DUVERNET - MAIRIE DU 14EME,26 RUE MOUTON DUVERNET - 75014 PARIS,75,75014,PARIS,48.83250128,2.325401167,48.83250128
Vélib,5107,05107 - PONTOISE,1 RUE DE PONTOISE - 75005 PARIS,75,75005,PARIS,48.85045801,2.352454275,48.85045801
Vélib,6026,06026 - SAINT PLACIDE CHERCHE MIDI,28 RUE SAINT PLACIDE - 75006 PARIS,75,75006,PARIS,48.8491399,2.325175389,48.8491399
Vélib,8037,08037 - MALSHERBES MONCEAU,75 RUE DE MONCEAU - 75008 PARIS,75,75008,PARIS,48.87960646,2.314553524,48.87960646
Vélib,8115,08115 - BASSANO,10 RUE VERNET - 75008 PARIS,75,75008,PARIS,48.87134533,2.300186572,48.87134533
Vélib,10013,10013 - SAINT LOUIS,2 RUE ALIBERT - 75010 PARIS,75,75010,PARIS,48.87113995,2.366280444,48.87113995
Vélib,11042,11042 - OBERKAMPF,1 RUE DU GRAND PRIEURE - 75011 PARIS,75,75011,PARIS,48.86464942,2.369261438,48.86464942
Vélib,15110,15110 - PLACE ROBERT GUILLEMARD,PLACE ROBERT GUILLEMARD - 75015 PARIS,75,75015,PARIS,48.83621036,2.281039381,48.83621036
Vélib,17008,17008 - PORCHE POUCHET,7 PLACE ARNAUD TZANCK - 75017 PARIS,75,75017,PARIS,48.89877379,2.322478478,48.89877379
Vélib,17116,17116 - REIMS,6 BOULEVARD DE REIMS - 75017 PARIS,75,75017,PARIS,48.89183445,2.30014466,48.89183445
Vélib,17033,17033 - CARNOT,8 AVENUE CARNOT - 75017 PARIS,75,75017,PARIS,48.87553842,2.2937321,48.87553842
Vélib,21304,21304 - BLUM (ISSY LES MOULINEAUX),FACE 2 PLACE LEON BLUM - 92100 ISSY LES MOULINEAUX,92,92130,ISSY-LES-MOULINEAUX,48.82095511,2.260736413,48.82095511
Vélib,22007,22007 - CHARCOT (NEUILLY),35-37 BOULEVARD DU COMMANDANT CHARCOT - 92200 NEUILLY SUR SEINE,92,92200,NEUILLY-SUR-SEINE,48.87536028,2.255699332,48.87536028
Vélib,35009,35009 - LOLIVE 1 (PANTIN),104 AVENUE LOLIVE - 93500 PANTIN,93,93500,PANTIN,48.89213941,2.409107738,48.89213941
Vélib,14003,14003 - RASPAIL SCHOELCHER,2 RUE VICTOR SCHOELCHER - 75014 PARIS,75,75014,PARIS,48.83685082,2.331303601,48.83685082
Vélib,15052,15052 - CONVENTION,183 RUE DE LA CONVENTION - 75015 PARIS,75,75015,PARIS,48.83767682,2.295586926,48.83767682
Vélib,16034,16034 - PORTE D'AUTEUIL,76 RUE D'AUTEUIL - 75016 PARIS,75,75016,PARIS,48.84795021,2.260659826,48.84795021
Vélib,16038,16038 - RUE MOLITOR,RUE MOLITOR - 75016 PARIS,75,75016,PARIS,48.84509713,2.265724148,48.84509713
Vélib,17050,17050 - BATIGNOLLES,1 RUE DES BATIGNOLLES - 75017 PARIS,75,75017,PARIS,48.8831039,2.323834749,48.8831039
Vélib,19120,19120 - ALOUETTES,20 RUE CARDUCCI - 75019 PARIS,75,75019,PARIS,48.87751626,2.38609972,48.87751626
Vélib,19034,19034 - PANTIN,20 AVENUE DE LA PORTE DE PANTIN - 75019 PARIS,75,75019,PARIS,48.89034196,2.397813642,48.89034196
Vélib,20133,20133 - RASSELINS,2 RUE DES RASSELINS - 75020 PARIS,75,75020,PARIS,48.85352869,2.409615363,48.85352869
Vélib,20025,20025 - GAMBETTA GATINES,13 RUE DES GATINES - 75020 PARIS,75,75020,PARIS,48.86539416,2.397814475,48.86539416
Vélib,21003,21003 - JAURES 1 (BOULOGNE-BILLANCOURT),2 BOULEVARD JEAN JAURES -  92100 BOULOGNE-BILLANCOURT,92,92100,BOULOGNE-BILLANCOURT,48.84563814,2.237011471,48.84563814
Vélib,4101,04101 - BASTILLE,11 RUE DE LA BASTILLE - 75004 PARIS,75,75004,PARIS,48.85379734,2.368400807,48.85379734
Vélib,5035,05035 - BUFFON AUSTERLITZ,1 RUE BUFFON - 75005 PARIS,75,75005,PARIS,48.84315818,2.363748445,48.84315818
Vélib,9011,09011 - FOLIES BERGERES,14 RUE GEOFFROY MARIE - 75009 PARIS,75,75009,PARIS,48.87378194,2.344513876,48.87378194
Vélib,906,00906 - GARE DE L'EST,GARDE DE L'EST-PARVIS GARE DE L'EST - 75010 PARIS,75,75010,PARIS,48.87641981,2.358630065,48.87641981
Vélib,12017,12017 - ST MANDE NETTER,82 AVENUE SAINT MANDE - 75012 PARIS,75,75012,PARIS,48.84463463,2.405099826,48.84463463
Vélib,12111,12111 - DECAEN CANNEBIERE,73 RUE CLAUDE DECAEN - 75012 PARIS,75,75012,PARIS,48.83761417,2.397253782,48.83761417
Vélib,15017,15017 - PROCESSION,7 PLACE FALGUIERE - 75015 PARIS,75,75015,PARIS,48.83633386,2.310466238,48.83633386
Vélib,1007,01007 - ETIENNE MARCEL,2 RUE DE TURBIGO - 75001 PARIS,75,75001,PARIS,48.86356705,2.347702021,48.86356705
Vélib,1026,01026 - COLONEL DRIANT,PLACE DU LIEUTENANT HENRI KARCHER - 75001 PARIS,75,75001,PARIS,48.8634305,2.340169767,48.8634305
Vélib,6020,06020 - SAINT MICHEL DANTON,2 RUE DANTON - 75006 PARIS,75,75006,PARIS,48.85293041,2.342657393,48.85293041
Vélib,7009,07009 - ASSEMBLEE NATIONALE,FACE 119 RUE DE LILLE - 75007 PARIS,75,75007,PARIS,48.86137389,2.320131277,48.86137389
Vélib,9030,09030 - VICTOIR CHAUSSEE D ANTIN,79 RUE DE LA VICTOIRE - 75009 PARIS,75,75009,PARIS,48.87518586,2.332036313,48.87518586
Vélib,10036,10036 - AQUEDUC,80 RUE DE L'AQUEDUC - 75010 PARIS,75,75010,PARIS,48.88384327,2.367110644,48.88384327
Vélib,11109,11109 - REPUBLIQUE PIERRE LEVEE,1 RUE DE LA PIERRE LEVEE - 75011 PARIS,75,75011,PARIS,48.86633135,2.371097448,48.86633135
Vélib,22403,22403 - BROSSOLETTE (MALAKOFF),FACE 35 AVENUE PIERRE BROSSOLETTE - 92240 MALAKOFF,92,92240,MALAKOFF,48.82183565,2.313458608,48.82183565
Vélib,34003,34003 - CURIE (SAINT OUEN),2 RUE NEUVE PIERRE CURIE - 93401 SAINT OUEN,93,93400,SAINT-OUEN,48.90132703,2.335301237,48.90132703
Vélib,21307,21307 - CRESSON 1 (ISSY LES MOULINEAUX),FACE 36 AVENUE VICTOR CRESSON - 92130 ISSY LES MOULINEAUX,92,92130,ISSY-LES-MOULINEAUX,48.82267837,2.268631093,48.82267837
Vélib,31708,31708 - NOISY (BAGNOLET),116-118 RUE DE NOISY LE SEC - 93170 BAGNOLET,93,93170,BAGNOLET,48.87445772,2.415138092,48.87445772
Vélo2,54901,54901 - VAU01 - PLACE DU RDV (CB),Place du Rendez-Vous côté avenue Louis Lecoin - 95490 VAUREAL,95,95490,VAUREAL,49.03293359,2.020312429,49.03293359
Vélib,19009,19009 - CITE DES SCIENCES,28BIS AVENUE CORENTIN CARIOU - 75019 PARIS,75,75019,PARIS,48.89654906,2.384649644,48.89654906
Vélib,13002,13002 - ARAGO,55 BD ARAGO - 75013 PARIS,75,75013,PARIS,48.83486718,2.344575141,48.83486718
Vélib,18037,18037 - AMIRAUX,48 RUE BOINOD - 75018 PARIS,75,75018,PARIS,48.89454172,2.352295467,48.89454172
Vélib,19030,19030 - MOSELLE JAURES,6 PASSAGE DE MELUN - 75019 PARIS,75,75019,PARIS,48.883777,2.376515,48.883777
Vélib,43006,43006 - MINIMES (VINCENNES),30 AVENUE DES MINIMES - 94300 VINCENNES,94,94300,VINCENNES,48.84148686,2.430793451,48.84148686
Vélib,43010,43010 - JARRY (VINCENNES),139 RUE DE LA JARRY - 94300 VINCENNES,94,94300,VINCENNES,48.84974496,2.451960306,48.84974496
Vélib,43401,43401 - GARE RER (JOINVILLE),PARC DU STATIONNEMENT / GARE RER - 94340 JOINVILLE-LE-PONT,94,94340,JOINVILLE-LE-PONT,48.8199541,2.464025505,48.8199541
Cristolib,8,08 - ROND POINT HOTEL DE VILLE,Avenue de la France Libre,94,94000,Créteil,48.77735245,2.455378432,48.77735245
Cristolib,9,09 - EUROPARC,ALLEE FERNAND POUILLON,94,94000,Créteil,48.76603756,2.471314855,48.76603756
Vélib,2004,02004 - REAUMUR MONTORGUEIL,83 ALLEE PIERRE LAZAREF - 75002 PARIS,75,75002,PARIS,48.86697371,2.348632465,48.86697371
Vélib,4002,04002 - MARCHE AUX FLEURS,PLACE LOUIS LEPINE - 75004 PARIS,75,75004,PARIS,48.85525336,2.347356448,48.85525336
Vélib,10001,10001 - JOHANN STRAUSS,FACE 50 RUE RENE BOULANGER - 75010 PARIS,75,75010,PARIS,48.86849994,2.35997005,48.86849994
Vélib,11004,11004 - CHARONNE SAINT ANTOINE,3 RUE DE CHARONNE - 75011 PARIS,75,75011,PARIS,48.85225529,2.374027236,48.85225529
Vélib,13111,13111 - CIMETIERE DE GENTILLY,RUE DE LA POTERNE DES PEUPLIERS - 75013 PARIS,75,75013,PARIS,48.81857442,2.353260184,48.81857442
Vélib,33103,33103 - JAURES 2 (PRE SAINT GERVAIS),34 AVENUE JEAN JAURES - 93310 LE PRE SAINT GERVAIS,93,93310,LE PRE SAINT-GERVAIS,48.88400126,2.407989919,48.88400126
Vélib,42007,42007 - PIERRE ET MARIE CURIE (IVRY),Angle Avenue de Verdun et rue Pierre et Marie Curie - 94200 IVRY,94,94200,IVRY-SUR-SEINE,48.81289056,2.370650263,48.81289056
Vélib,42005,42005 - GAMBETTA (IVRY),1 PLACE DE LEON GAMBETTA - 94200 IVRY,94,94200,IVRY-SUR-SEINE,48.81470643,2.402382434,48.81470643
Vélib,14113,14113 - ARAGO 2,36 RUE DE LA SANTE - 75014 PARIS,75,75014,PARIS,48.83512887,2.341578635,48.83512887
Vélib,14016,14016 - REILLE MONTSOURIS,61 AVENUE RENE COTY - 75014 PARIS,75,75014,PARIS,48.8247671,2.335999677,48.8247671
Vélib,15120,15120 - AVIA,26 RUE DU COLONEL PIERRE AVIA - 75015 PARIS,75,75015,PARIS,48.82968433,2.275342587,48.82968433
Vélib,15045,15045 - PLAINE,AVENUE DE LA PORTE DE LA PLAINE - 75015 PARIS,75,75015,PARIS,48.82817494,2.292587523,48.82817494
Vélib,16118,16118 - MICHEL ANGE,91 RUE MICHEL ANGE - 75016 PARIS,75,75016,PARIS,48.8406104,2.258373658,48.8406104
Vélib,16028,16028 - MILLET - JEAN DE LA FONTAINE,12 RUE FRANCOIS MILLET - 75016 PARIS,75,75016,PARIS,48.85100487,2.272469483,48.85100487
Vélib,16121,16121 - SABLONS MAILLOT,ROUTE PORTE DES SABLONS / PORTE MAILLOT - 75016 PARIS,75,75016,PARIS,48.87872089,2.270568097,48.87872089
Vélib,17044,17044 - PORTE DE SAINT OUEN,1 AVENUE DE LA PORTE DE SAINT OUEN - 75017 PARIS,75,75017,PARIS,48.89792241,2.32851451,48.89792241
Vélib,31010,31010 - STALINGRAD (MONTREUIL),67-69 RUE DE STALINGRAD - 93100 MONTREUIL,93,93100,MONTREUIL,48.85681112,2.444987425,48.85681112
Vélib,35003,35003 - VAILLANT (PANTIN),ANGLE RUE GENERAL GOSSERAND ET AVENUE EDOUARD VAILLANT - 93500 PANTIN,93,93500,PANTIN,48.90269162,2.393255829,48.90269162
Vélib,41605,41605 - GENERAL DE GAULLE 2 (SAINT MANDE),120 AVENUE GENERAL DE GAULLE - 94160 SAINT MANDE,94,94160,SAINT-MANDE,48.83608868,2.418907595,48.83608868
Vélib,42206,42206 - PARIS 2 (CHARENTON),111 RUE DE PARIS - 94220 CHARENTON,94,94220,CHARENTON,48.82378409,2.41001354,48.82378409
Vélib,43008,43008 - FONTENAY (VINCENNES),12 RUE DE FONTENAY - 94300 VINCENNES,94,94300,VINCENNES,48.84779066,2.444690888,48.84779066
Vélib,1009,01009 - PONT NEUF - 14,14 RUE DU PONT NEUF - 75001 PARIS,75,75001,PARIS,48.86024519,2.344333545,48.86024519
Vélib,5029,05029 - PORT ROYAL,FACE 41 AVENUE GEORGES BERNANOS - 75005 PARIS,75,75005,PARIS,48.84010896,2.33729689,48.84010896
Vélib,8051,08051 - CHAPTAL,45 BD BATIGNOLLES - 75008 PARIS,75,75008,PARIS,48.88214895,2.319858692,48.88214895
Vélib,8101,08101 - LONDRES AMSTERDAM,42 RUE DE LONDRES - 75008 PARIS,75,75008,PARIS,48.87803446,2.326483541,48.87803446
Vélib,11107,11107 - BIBLIOTHEQUE FAIDHERBE,11 RUE FAIDHERBE - 75011 PARIS,75,75011,PARIS,48.85153201,2.383723288,48.85153201
Vélib,21201,21201 - JAURES (MONTROUGE),6 PLACE JEAN JAURES / RUE MAURICE ARNOUX ET RUE CAMILLE PELLETIN - 92120 MONTROUGE,92,92120,MONTROUGE,48.81629068,2.311279543,48.81629068
Vélib,22002,22002 - ARGENSON (NEUILLY),44 BOULEVARD D'ARGENSON - 92200 NEUILLY,92,92200,NEUILLY-SUR-SEINE,48.88864877,2.263904603,48.88864877
Vélib,34001,34001 - FRUCTIDOR (SAINT OUEN),FACE 10 RUE FRUCTIDOR / FACE BAT 2 LE COLYSEE - 93400 SAINT OUEN,93,93400,SAINT-OUEN,48.90088963,2.324819808,48.90088963
Vélo2,50009,50009 - CER09 - RUE DU BRÛLOIR,88 RUE DU BRÛLOIR ANGLE RUE DES TOULEUSES POURPRES - 95000 CERGY,95,95000,CERGY,49.02868316,2.071980564,49.02868316
Vélib,2107,02107 - THOREL,11 RUE THOREL - 75002 PARIS,75,75002,PARIS,48.87000062,2.348995518,48.87000062
Vélib,2016,02016 - ABOUKIR,108 RUE D'ABOUKIR - 75002 PARIS,75,75002,PARIS,48.86866048,2.350185888,48.86866048
Vélib,4019,04019 - BEAUBOURG SAINT MERRY,4 RUE DU CLOITRE SAINT MERRI - 75004 PARIS,75,75004,PARIS,48.85882899,2.351891471,48.85882899
Vélib,7016,07016 - TOUR MAUBOURG UNIVERSITE,13 RUE SURCOUF - 75007 PARIS,75,75007,PARIS,48.86127302,2.309453551,48.86127302
Vélib,8038,08038 - FRANCOIS 1 ER,22 RUE FRANCOIS 1ER - 75008 PARIS,75,75008,PARIS,48.86688765,2.306675576,48.86688765
Vélib,10018,10018 - ALBAN SATRAGNE,110-112 RUE FAUBOURG SAINT DENIS - 75010 PARIS,75,75010,PARIS,48.87538491,2.356094019,48.87538491
Vélib,11007,11007 - FAIDHERBE PALAIS DE LA FEMME,17 RUE JEAN MACE - 75011 PARIS,75,75011,PARIS,48.85328932,2.383041177,48.85328932
Vélib,11034,11034 - PARMENTIER FONTAINE AU ROI,124 AVENUE PARMENTIER - 75011 PARIS,75,75011,PARIS,48.86787671,2.372705979,48.86787671
Vélib,13023,13023 - BOBILLOT VERLAINE,30 RUE BOBILLOT - 75013 PARIS,75,75013,PARIS,48.82860289,2.353034583,48.82860289
Vélib,15036,15036 - LAMBERT,102 RUE DE LA CROIX NIVERT - 75015 PARIS,75,75015,PARIS,48.84307639,2.295141413,48.84307639
Vélib,15063,15063 - SAINT CHARLES - CONVENTION,59 RUE DE LA CONVENTION - 75015 PARIS,75,75015,PARIS,48.84329536,2.283209,48.84329536
Vélib,17005,17005 - BROCHANT,43 RUE BROCHANT - 75017 PARIS,75,75017,PARIS,48.89032999,2.31973056,48.89032999
Vélib,19115,19115 - PORTE DE LA VILLETTE,1 AVENUE DE LA PORTE DE LA VILLETTE - 75019 PARIS,75,75019,PARIS,48.89849005,2.386120008,48.89849005
Vélib,20005,20005 - RUE DE LAGNY SAINT MANDE,2 RUE REYNALDO HAHN - 75020 PARIS,75,75020,PARIS,48.84926604,2.412330329,48.84926604
Vélib,2005,02005 - MONTORGUEIL RUE MONTMARTRE VERSION 2,46 RUE DE MONTMARTRE - 75002 PARIS,75,75002,PARIS,48.86502195,2.34506844,48.86502195
Vélib,4103,04103 - HOTEL DE VILLE,1 RUE DES ARCHIVES - 75004 PARIS,75,75004,PARIS,48.85720379,2.353976274,48.85720379
Vélib,7013,07013 - PLACE DE BRETEUIL,17 RUE DUROC - 75007 PARIS,75,75007,PARIS,48.84750226,2.312688329,48.84750226
Vélib,12126,12126 - AVENUE DE GRAVELLE,FACE 71 AVENUE DE GRAVELLE - 75012 PARIS,75,75012,PARIS,48.82440777,2.418455004,48.82440777
Vélib,13045,13045 - TOLBIAC ALBERT,FACE 1 RUE JEAN COLLY - 75013 PARIS,75,75013,PARIS,48.82783803,2.370530564,48.82783803
Vélib,13053,13053 - CHEVALERET TOLBIAC,56 RUE CHEVALERET - 75013 PARIS,75,75013,PARIS,48.82941013,2.375934558,48.82941013
Vélib,13118,13118 - PATAY REGNAULT,36-38 RUE REGNAULT - 75013 PARIS,75,75013,PARIS,48.82434286,2.376060092,48.82434286
Vélib,21104,21104 - SANZILLON (CLICHY),64 RUE DE MADAME DE SANZILLON - 92110 CLICHY,92,92110,CLICHY,48.9036767,2.319176658,48.9036767
Vélib,22008,22008 - DE GAULLE (NEUILLY),153 BIS AVENUE CHARLES DE GAULLE - 92200 NEUILLY SUR SEINE,92,92200,NEUILLY-SUR-SEINE,48.88295163,2.265135009,48.88295163
Vélib,23001,23001 - COUTURIER 1 (LEVALLOIS),2 RUE PAUL VAILLANT COUTURIER - 92300 LEVALLOIS,92,92300,LEVALLOIS-PERRET,48.89361465,2.277618727,48.89361465
Vélo2,56102,56102 - ERA02 - CHARLES DE GAULLE,AVENUE FERNAND CHATELAIN ANGLE RUE DE PIERRELAYE 95600 - ERAGNY,95,95600,ERAGNY,49.02306511,2.110459967,49.02306511
Vélib,15062,15062 - BOUCICAUT,87 RUE DE LA CONVENTION - 75015 PARIS,75,75015,PARIS,48.84214433,2.285862656,48.84214433
Vélib,15035,15035 - PLACE ETIENNE PERNET,2 RUE DES FRERES MORANE - 75015 PARIS,75,75015,PARIS,48.84245876,2.292173541,48.84245876
Vélib,15123,15123 - RUE DU COMMERCE,20 RUE DU COMMERCE - 75015 PARIS,75,75015,PARIS,48.84799219,2.296681686,48.84799219
Vélib,16043,16043 - PLACE DE PASSY,2 PLACE DE PASSY - 75016 PARIS,75,75016,PARIS,48.85780292,2.277500547,48.85780292
Vélib,17046,17046 - MAC MAHON,18 AVENUE MARC MAHON - 75017 PARIS,75,75017,PARIS,48.87753208,2.294512536,48.87753208
Vélib,17015,17015 - PLACE DE LEVIS,19BIS/21 RUE LEGENDRE - 75017 PARIS,75,75017,PARIS,48.88368822,2.313284405,48.88368822
Vélib,17022,17022 - PLACE DE WAGRAM,67 BOULEVARD PEREIRE - 75017 PARIS,75,75017,PARIS,48.88707061,2.304111125,48.88707061
Vélib,17027,17027 - PEREIRE LEVALLOIS,121 BOULEVARD PEREIRE - 75017 PARIS,75,75017,PARIS,48.88526331,2.298286467,48.88526331
Vélib,18006,18006 - MARCHE ST-PIERRE,PLACE SAINT PIERRE - 75018 PARIS,75,75018,PARIS,48.88469161,2.344139286,48.88469161
Vélib,18048,18048 - PORTE DE LA CHAPELLE,29 BOULEVARD NEY - 75018 PARIS,75,75018,PARIS,48.89838502,2.360877349,48.89838502
Vélib,18013,18013 - CHATEAU ROUGE,28 RUE POULET - 75018 PARIS,75,75018,PARIS,48.88778177,2.350517738,48.88778177
Vélib,20042,20042 - PYRENEES ERMITAGE,300 RUE DES PYRENEES - 75020 PARIS,75,75020,PARIS,48.87215738,2.391739174,48.87215738
Vélib,20031,20031 - DURIS,33 RUE DURIS - 75020 PARIS,75,75020,PARIS,48.86554087,2.387724496,48.86554087
Vélib,13007,13007 - LE BRUN GOBELINS,42 RUE LE BRUN - 75013 PARIS,75,75013,PARIS,48.83509279,2.353468135,48.83509279
Vélib,14024,14024 - RAYMOND LAUSSERAND,RUE VERCINGETORIX - 75014 PARIS,75,75014,PARIS,48.82798949,2.305672106,48.82798949
Vélib,15044,15044 - J DUPRE,65 RUE DANTZIG - 75015 PARIS,75,75015,PARIS,48.83026939,2.296008076,48.83026939
Vélib,16010,16010 - BELLES FEUILLES,4 RUE DES BELLES FEUILLES - 75016 PARIS,75,75016,PARIS,48.8658555,2.282859909,48.8658555
Vélib,17047,17047 - COURCELLES - DEMOURES,172 RUE DE COURCELLES - 75017 PARIS,75,75017,PARIS,48.88376973,2.298584663,48.88376973
Vélib,17037,17037 - BAYERN PEREIRE,40 RUE BAYEN - 75017 PARIS,75,75017,PARIS,48.88183072,2.292140666,48.88183072
Vélib,18028,18028 - VAUVENARGUES,195 RUE CHAMPIONNET - 75018 PARIS,75,75018,PARIS,48.89405725,2.332199336,48.89405725
Vélib,18107,18107 - CHARTRES,22-24 RUE DE CHARTRES - 75018 PARIS,75,75018,PARIS,48.88470686,2.35358041,48.88470686
Vélib,20013,20013 - PLACE DE LA REUNION,106 RUE ALEXANDRE DUMAS - 75020 PARIS,75,75020,PARIS,48.85535514,2.39972859,48.85535514
Vélib,1022,01022 - RUE DE LA PAIX,37 RUE CASANOVA - 75001 PARIS,75,75001,PARIS,48.86821702,2.330493511,48.86821702
Vélib,2015,02015 - OPERA - CAPUCINES,25 RUE LOUIS LE GRAND - 75002 PARIS,75,75002,PARIS,48.87050894,2.334054462,48.87050894
Vélib,4014,04014 - ARCHIVES BLANCS MANTEAUX,29 RUE DES BLANCS MANTEAUX - 75004 PARIS,75,75004,PARIS,48.85940272,2.355927487,48.85940272
Vélib,5105,05105 - GEOFFROY SAINT HILAIRE,8 RUE GEOFFROY SAINT HILAIRE - 75005 PARIS,75,75005,PARIS,48.83907826,2.356877341,48.83907826
Vélib,6021,06021 - BONAPARTE BEAUX ARTS,17 RUE DES BEAUX ARTS - 75006 PARIS,75,75006,PARIS,48.85643741,2.334797623,48.85643741
Vélib,7101,07101 - SEVRES BABYLONE,BOULEVARD RASPAIL - 75007 PARIS,75,75007,PARIS,48.85224162,2.326606019,48.85224162
Vélib,8056,08056 - WAGRAM,21 RUE BEAUJON - 75008 PARIS,75,75008,PARIS,48.87537765,2.296555342,48.87537765
Vélib,9008,09008 - TOUR D'AUVERGNE,24 RUE D'AUVERGNE - 75009 PARIS,75,75009,PARIS,48.87916178,2.343698431,48.87916178
Vélib,10105,10105 - BONNE NOUVELLE PROP2,2 RUE DE MAZAGRAN - 75010 PARIS,75,75010,PARIS,48.87027808,2.351281637,48.87027808
Vélib,12115,12115 - PORTE DE VINCENNES,22 AVENUE DE LA PORTE DE VINCENNES - 75012 PARIS,75,75012,PARIS,48.84641937,2.415636607,48.84641937
Vélib,21203,21203 - BRIAND (MONTROUGE),PLACE JULES FERRY / AVENUE ARISTIDE BRIAND - 92120 MONTROUGE,92,92120,MONTROUGE,48.81251091,2.325680623,48.81251091
Vélib,42205,42205 - PARIS 1 (CHARENTON),89 RUE DE PARIS - 94220 CHARENTON,94,94220,CHARENTON,48.82214313,2.412602786,48.82214313
Vélib,20014,20014 - ALEXANDRE DUMAS,142 BD CHARONNE - 75020 PARIS,75,75020,PARIS,48.85616738,2.394825009,48.85616738
Vélib,2003,02003 - ALLEE PIERRE LAZAEFF,189 RUE SAINT DENIS - 75002 PARIS,75,75002,PARIS,48.86614575,2.350844595,48.86614575
Vélib,5106,05106 - CUJAS,22 RUE CUJAS - 75005 PARIS,75,75005,PARIS,48.84819135,2.341831655,48.84819135
Vélib,8055,08055 - TERNES COURCELLES,87 BD COURCELLES - 75008 PARIS,75,75008,PARIS,48.87818888,2.299296004,48.87818888
Vélib,8033,08033 - SAINT PHILIPPE DU ROULE,1 RUE DU CDT RIVIERE - 75008 PARIS,75,75008,PARIS,48.87278768,2.309722589,48.87278768
Vélib,8052,08052 - WASHINGTON,2 RUE BALZAC - 75008 PARIS,75,75008,PARIS,48.87288299,2.299972933,48.87288299
Vélib,11031,11031 - PARMENTIER,1 RUE JACQUARD - 75011 PARIS,75,75011,PARIS,48.86455577,2.373071507,48.86455577
Vélib,11028,11028 - BLUETS REPUBLIQUE,FACE 20 RUE GUILLAUME BERTRAND - 75011 PARIS,75,75011,PARIS,48.86382517,2.380906377,48.86382517
Vélib,12120,12120 - CONSERVATION,ROUTE DE LA CEINTURE DU LAC DAUMESNIL - 75012 PARIS,75,75012,PARIS,48.82772524,2.418272342,48.82772524
Vélib,13001,13001 - PORT ROYAL,51 BOULEVARD PORT ROYAL - 75013 PARIS,75,75013,PARIS,48.83772792,2.344664043,48.83772792
Vélib,42001,42001 - JULES (IVRY),1 RUE JULES VANZUPPE - 94200 IVRY,94,94200,IVRY-SUR-SEINE,48.82032218,2.39498124,48.82032218
Vélib,43007,43007 - VORGES (VINCENNES),4 AVENUE VORGES - 94300 VINCENNES,94,94300,VINCENNES,48.84825775,2.439892899,48.84825775
Vélo2,54905,54905 - VAU05 - LES TOUPETS,MAIL MENDES FRANCE ANGLE AVENUE DE LA REVOLUTION FRANCAISE - 95490 VAUREAL,95,95490,VAUREAL,49.0231626,2.029486291,49.0231626
Vélib,1019,01019 - SAINT HONORE VENDOME,237 RUE SAINT HONORE - 75001 PARIS,75,75001,PARIS,48.86669801,2.328288186,48.86669801
Vélib,6017,06017 - SENAT CONDE,34 RUE CONDE - 75006 PARIS,75,75006,PARIS,48.84958,2.337848437,48.84958
Vélib,8103,08103 - D'ARTOIS BERRY,31 RUE D'ARTOIS - 75008 PARIS,75,75008,PARIS,48.87379432,2.30629955,48.87379432
Vélib,9102,09102 - PLACE D'ESTIENNE D'ORVES,2 RUE DE LONDRES - 75009 PARIS,75,75009,PARIS,48.8767325,2.330484226,48.8767325
Vélib,12030,12030 - WATTIGNIES,245 RUE DE CHARENTON - 75012 PARIS,75,75012,PARIS,48.8366758,2.391795856,48.8366758
Vélib,12035,12035 - MADAGASCAR,4 RUE DE MADAGASCAR - 75012 PARIS,75,75012,PARIS,48.83470586,2.397111553,48.83470586
Vélo2,54902,54902 - VAU02 - MAIRIE CROIX-LIEU(CB),Rond Point de la Croix Lieu côté avenue Gandhi - 95490 VAUREAL,95,95490,VAUREAL,49.03010628,2.021573367,49.03010628
Vélib,21701,21701 - LARMEROUX (VANVES),FACE 5 BIS RUE LARMEROUX - 92170 VANVES,92,92170,VANVES,48.81693991,2.28098948,48.81693991
Vélib,42003,42003 - INSURRECTION AOUT 1944 (IVRY),2 PLACE DE L'INSURRECTION AOUT 1944 - 94200 IVRY SUR SEINE,94,94200,IVRY-SUR-SEINE,48.81466008,2.398261541,48.81466008
Cristolib,7,07- AVENUE DU DOCTEUR PAUL CASALIS,Avenue du docteur Paul Casalis,94,94000,Créteil,48.78021353,2.469692231,48.78021353
Vélib,13123,13123 - BIBLIOTHÈQUE FRANÇOIS MITTERAND,53 QUAI FRANCOIS MAURIAC - 75013 PARIS,75,75013,PARIS,48.83505072,2.3760681,48.83505072
Vélib,14127,14127 - ODESSA,5-7 RUE D'ODESSA - 75014 PARIS,75,75014,PARIS,48.84284228,2.324441565,48.84284228
Vélib,18033,18033 - MOSKOWA,111 RUE BELLIARD - 75018 PARIS,75,75018,PARIS,48.89669239,2.33802345,48.89669239
Vélib,18015,18015 - CUSTINE,23 RUE CUSTINE - 75018 PARIS,75,75018,PARIS,48.88861972,2.347011336,48.88861972
Vélib,20117,20117 - SAINT FARGEAU MORTIER,72 RUE SAINT-FARGEAU - 75020 PARIS,75,75020,PARIS,48.87274727,2.408203454,48.87274727
Vélib,4003,04003 - PONT SAINT LOUIS,1 QUAI AUX FLEURS - 75004 PARIS,75,75004,PARIS,48.85294489,2.352088649,48.85294489
Vélib,5013,05013 - ULM ERASME,13 RUE ERASME - 75005 PARIS,75,75005,PARIS,48.84254795,2.34459665,48.84254795
Vélib,8105,08105 - FRANCOIS 1ER LINCOLN,56 RUE FRANCOIS 1ER - 75008 PARIS,75,75008,PARIS,48.86951798,2.302426219,48.86951798
Vélib,20043,20043 - CHARONNE AVRON,48 BOULEVARD DE CHARONNE - 75011 PARIS,75,75011,PARIS,48.85160267,2.398403047,48.85160267
Vélib,12022,12022 - BIZOT,FACE 29 RUE DU SAHEL - 75012 PARIS,75,75012,PARIS,48.84089981,2.404380103,48.84089981
Vélib,12013,12013 - RUE MONTGALLET,FACE 39 RUE MONTGALLET - 75012 PARIS,75,75012,PARIS,48.84431261,2.389595227,48.84431261
Vélib,12114,12114 - PORTE DE SAINT MANDE,33 AVENUE COURTELINE - 75012 PARIS,75,75012,PARIS,48.84394906,2.415081395,48.84394906
Vélib,903,00903 - QUAI MAURIAC  / PONT DE BERCY,FETE DE L'OH (BERCY) - QUAI MAURIAC ANG PONT DE BERCY - 75013 PARIS,75,75013,PARIS,48.83713369,2.374340555,48.83713369
Vélib,14011,14011 - ALESIA SARRETTE,6 RUE SARRETTE - 75014 PARIS,75,75014,PARIS,48.82752529,2.331729379,48.82752529
Vélib,21502,21502 - VERDUN (SURESNES),18 BIS RUE DE VERDUN / COUR MADELAINE - 92150 SURESNES,92,92150,SURESNES,48.87100304,2.227477477,48.87100304
Vélib,21105,21105 - MORICE (CLICHY),35-37 RUE MORICE - 92110 CLICHY,92,92110,CLICHY,48.90261519,2.313320637,48.90261519
Vélib,21208,21208 - CARVES (MONTROUGE),67 RUE CARVES ANGLE AVENUE HENRI GINOUX - 92120 MONTROUGE,92,92120,MONTROUGE,48.81308091,2.319787937,48.81308091
Vélib,23006,23006 - GUESDE (LEVALLOIS),8 RUE JULES GUESDE - 92300 LEVALLOIS-PERRET,92,92300,LEVALLOIS-PERRET,48.89086032,2.29500037,48.89086032
Vélib,33005,33005 - REPUBLIQUE 2 (AUBERVILLIERS),FACE AU 106 AVENUE DE LA REPUBLIQUE - 93300 AUBERVILLIERS,93,93300,AUBERVILLIERS,48.9063834,2.389547502,48.9063834
Vélib,42202,42202 - RONSARD (CHARENTON),1 RUE  KENNEDY / ALLEE RONSARD - 94220 CHARENTON,94,94220,CHARENTON,48.82273601,2.405659203,48.82273601
Vélo2,53101,53101 - SOA01 - PLACE CARNOT (CB),Place Carnot côté quai de l'Ecluse ou halage - 95310 SAINT OUEN L'AUMONE,95,95310,"""SAINT-OUEN-LAUMONE""",49.04778061,2.103037726,49.04778061
Vélib,13006,13006 - SAINT MARCEL JEANNE D'ARC,02 RUE DUMERIL - 75013 PARIS,75,75013,PARIS,48.83815161,2.35710845,48.83815161
Vélib,14115,14115 - CITÉ UNIVERSITAIRE,AVENUE MAURICE D'OCAGNE - 75014 PARIS,75,75014,PARIS,48.82392317,2.316573329,48.82392317
Vélib,16005,16005 - POINCARE VICTOR HUGO,89 AVENUE RAYMOND POINCARE - 75016 PARIS,75,75016,PARIS,48.87030612,2.285074541,48.87030612
Vélib,6032,06032 - RENNES SABOT,7 RUE DU SABOT - 75006 PARIS,75,75006,PARIS,48.85255742,2.331647723,48.85255742
Vélib,11029,11029 - MENILMONTANT OBERKAMPF,137 BOULEVARD MENILMONTANT - 75011 PARIS,75,75011,PARIS,48.86661766,2.38301344,48.86661766
Vélib,11030,11030 - SAINT MAUR OBERKAMPF,80 RUE OBERKAMPF - 75011 PARIS,75,75011,PARIS,48.86530798,2.376019912,48.86530798
Vélib,11037,11037 - FAUBOURG DU TEMPLE PLACE DE LA REPUBLIQUE,2 RUE DU FAUBOURG DU TEMPLE - 75011 PARIS,75,75011,PARIS,48.868,2.36498,48.868
Vélib,13107,13107 - MARCHAND SANTE,12 PASSAGE VICTOR MARCHAND - 75013 PARIS,75,75013,PARIS,48.82884022,2.341967437,48.82884022
Vélib,14034,14034 - RUE DE L OUEST CHATEAU,48 RUE DE L'OUEST - 75014 PARIS,75,75014,PARIS,48.83617286,2.319392144,48.83617286
Vélib,14005,14005 - DENFERT ROCHEREAU,2 AVENUE RENE COTY - 75014 PARIS,75,75014,PARIS,48.8331408,2.332672227,48.8331408
Vélib,15032,15032 - LOURMEL,112 AVE FELIX FAURE - 75015 PARIS,75,75015,PARIS,48.83873441,2.28175554,48.83873441
Vélib,16029,16029 - MAISON DE RADIO FRANCE,1 RUE GROS - 75016 PARIS,75,75016,PARIS,48.85135991,2.277697269,48.85135991
Vélib,16036,16036 - PORTE MOLITOR,PLACE DE LA PORTE MOLITOR - 75016 PARIS,75,75016,PARIS,48.84524431,2.256939537,48.84524431
Vélib,17029,17029 - PLACE AIMÉE MAILLART,29 RUE PIERRE DEMOURS - 75017 PARIS,75,75017,PARIS,48.8814111,2.294828201,48.8814111
Vélib,17032,17032 - ESPACE CHAMPERRET,12 RUE JEAN OESTREICHER - 75017 PARIS,75,75017,PARIS,48.88657099,2.288612345,48.88657099
Vélib,19101,19101 - SIMON BOLIVAR,36 AVENUE SIMON BOLIVAR - 75019 PARIS,75,75019,PARIS,48.8750704,2.382591715,48.8750704
Vélib,20012,20012 - BUZENVAL VIGNOLES,90 RUE BUZENVAL - 75020 PARIS,75,75020,PARIS,48.85392328,2.400038749,48.85392328
Vélib,5104,05104 - BUFFON,47 RUE BUFFON - 75005 PARIS,75,75005,PARIS,48.84191618,2.358912681,48.84191618
Vélib,11041,11041 - SAINT AMBROISE,2 RUE LACHARRIERE - 75011 PARIS,75,75011,PARIS,48.86082071,2.375636526,48.86082071
Vélib,21311,21311 - GAMBETTA (ISSY LES MOULINEAUX),FACE AU 40 BOULEVARD GAMBETTA - 92130 ISSY LES MOULINEAUX,92,92130,ISSY-LES-MOULINEAUX,48.8274705,2.278549601,48.8274705
Vélib,41603,41603 - PASTEUR (SAINT MANDE),AVENUE PASTEUR/AVENUE DE PARIS - 94160 SAINT MANDE,94,94160,SAINT-MANDE,48.84577922,2.423770595,48.84577922
Vélib,42009,42009 - VERDUN (IVRY),157-165 AVENUE DE VERDUN - 94200 IVRY,94,94200,IVRY-SUR-SEINE,48.80725928,2.375130199,48.80725928
Vélib,19103,19103 - MANIN CARRIERES,139 RUE MANIN - 75019 PARIS,75,75019,PARIS,48.88477086,2.39209312,48.88477086
Vélib,13117,13117 - STADE GEORGES CARPENTIER,95-97 BOULEVARD MASSENA - 75013 PARIS,75,75013,PARIS,48.82049519,2.366819682,48.82049519
Vélib,15106,15106 - GRENELLE VIOLET (PROP3),BOULEVARD DE GRENELLE - 75015 PARIS,75,75015,PARIS,48.8499211,2.294660576,48.8499211
Vélib,15024,15024 - LAOS,88 AVENUE DE SUFFREN - 75015 PARIS,75,75015,PARIS,48.85091461,2.301293385,48.85091461
Vélib,17007,17007 - NAVIER,FACE 57 RUE NAVIER - 75017 PARIS,75,75017,PARIS,48.89591412,2.322727367,48.89591412
Vélib,17049,17049 - SAUSSURE,116 BIS RUE DE SAUSSURE - 75017 PARIS,75,75017,PARIS,48.88819924,2.310623418,48.88819924
Vélib,20503,20503 - COURS DE VINCENNES PYRÉNÉES,1 RUE DES PYRENEES - 75020 PARIS,75,75020,PARIS,48.84772497,2.405907317,48.84772497
Vélib,42704,42704 - ROSSEL (LE KREMLIN BICETRE),RUE ROSSEL / AVENUE DE LA CONVENTION - 94270 LE KREMLIN BICETRE,94,94270,LE KREMLIN-BICETRE,48.81201281,2.356971893,48.81201281
Vélib,1013,01013 - SAINT HONORE,186 RUE SAINT HONORE - 75001 PARIS,75,75001,PARIS,48.86243023,2.338520131,48.86243023
Vélib,1025,01025 - TEMPLE DE L'ORATOIRE,2 RUE DE L'ORATOIRE - 75001 PARIS,75,75001,PARIS,48.86138947,2.340055233,48.86138947
Vélib,2101,02101 - BACHAUMONT,14 RUE BACHAUMONT - 75002 PARIS,75,75002,PARIS,48.86606715,2.345463653,48.86606715
Vélib,4020,04020 - BEAUBOURG PLACE MICHELET,FACE 27 RUE QUINCAMPOIX - 75004 PARIS,75,75004,PARIS,48.86008833,2.350148336,48.86008833
Vélib,4107,04107 - BEAUMARCHAIS,27 BOULEVARD BEAUMARCHAIS - 75004 PARIS,75,75004,PARIS,48.85550136,2.36842907,48.85550136
Vélib,8054,08054 - HOCHE ALBRECHT,10 AVENUE BERTHIER ALBRECHT - 75008 PARIS,75,75008,PARIS,48.8761404,2.301303138,48.8761404
Vélib,8026,08026 - MESSINE,2 AVENUE MESSINE - 75008 PARIS,75,75008,PARIS,48.8754572,2.315465495,48.8754572
Vélib,9010,09010 - CADET,1/3 RUE DE ROCHECHOUART - 75009 PARIS,75,75009,PARIS,48.8767199,2.344393022,48.8767199
Vélib,11023,11023 - LEO FROT ROQUETTE,2 RUE SAINT MAUR - 75011 PARIS,75,75011,PARIS,48.85868877,2.383553995,48.85868877
Vélib,31002,31002 - REPUBLIQUE (MONTREUIL),38 RUE DE LA REPUBLIQUE - 93100 MONTREUIL,93,93100,MONTREUIL,48.85281419,2.419307089,48.85281419
Vélib,33003,33003 - FAURE (AUBERVILLIERS),ANGLE RUE BORDIER ET BOULEVARD FELIX FAURE  - 93300 AUBERVILLIERS,93,93300,AUBERVILLIERS,48.90396402,2.383125491,48.90396402
Vélib,42014,42014 - CACHIN (IVRY),PLACE MARCEL CACHIN - 94200 IVRY SUR SEINE,94,94200,IVRY-SUR-SEINE,48.81414054,2.390909368,48.81414054
Vélib,16007,16007 - LONGCHAMP,4 RUE DE LONGCHAMP - 75016 PARIS,75,75016,PARIS,48.86491045,2.292519101,48.86491045
Vélib,16037,16037 - MOLITOR - MICHEL ANGE,35 RUE MOLITOR - 75016 PARIS,75,75016,PARIS,48.84518208,2.262112774,48.84518208
Vélib,19124,19124 - ALEXANDER FLEMMING,RUE ALEXANDER FLEMMING - 75019 PARIS,75,75019,PARIS,48.88176979,2.403179368,48.88176979
Vélib,21018,21018 - SEINE (BOULOGNE-BILLANCOURT),FACE AU 13 RUE DE LA SEINE - 92100 BOULOGNE-BILLANCOURT,92,92100,BOULOGNE-BILLANCOURT,48.82824349,2.25065774,48.82824349
Vélib,31012,31012 - CARNOT (MONTREUIL),35/37 RUE CARNOT - 93100 MONTREUIL,93,93100,MONTREUIL,48.85581031,2.441520442,48.85581031
Vélo2,50019,50019 - CER19 - RUE DES LILAS,RUE DES LILAS ANGLE BOULEVARD DU PORT - 95000 CERGY,95,95000,CERGY,49.03495249,2.066631849,49.03495249
Vélib,2011,02011 - BIBLIOTHEQUE NATIONALE,71 RUE DE RICHELIEU - 75002 PARIS,75,75002,PARIS,48.86829989,2.338089782,48.86829989
Vélib,3012,03012 - GAITE LYRIQUE,FACE 8 RUE SALOMON DE CAUS - 75003 PARIS,75,75003,PARIS,48.86749799,2.353660816,48.86749799
Vélib,905,00905 - CONCORDE/BERGES DE SEINE (STATION MOBILE),QUAI D'ORSAY - CONCORDE - 75007 PARIS,75,75007,PARIS,48.86314,2.31669,48.86314
Vélib,8049,08049 - DUNANT,42 AVENUE GEORGE V - 75008 PARIS,75,75008,PARIS,48.87043781,2.300830261,48.87043781
Vélib,9016,09016 - MARTYRS CHORON,24 RUE DE CHORON - 75009 PARIS,75,75009,PARIS,48.8777707,2.339784968,48.8777707
Vélib,10152,10152 - GARE DU NORD 2,3 BOULEVARD DE DENAIN - 75010 PARIS,75,75010,PARIS,48.87904931,2.354159096,48.87904931
Vélib,10035,10035 - AUBERVILLIERS,1 BOULEVARD DE LA CHAPELLE - 75010 PARIS,75,75010,PARIS,48.88434815,2.36416333,48.88434815
Vélib,35006,35006 - DELIZY (PANTIN),FACE AU 23 RUE DELIZY - 93500 PANTIN,93,93500,PANTIN,48.89633193,2.409087653,48.89633193
Vélib,43003,43003 - PARIS 2 (VINCENNES),104 AVENUE DE PARIS - 94300 VINCENNES,94,94300,VINCENNES,48.8457199,2.427406303,48.8457199
Vélib,6007,06007 - VAVIN,18 RUE BREA - 75006 PARIS,75,75006,PARIS,48.84273848,2.329794222,48.84273848
Vélib,11036,11036 - JULES FERRY FAUBOURG DU TEMPLE,FACE 28 RUE JULES FERRY - 75011 PARIS,75,75011,PARIS,48.8684101,2.367841497,48.8684101
Vélib,13033,13033 - PORTE D'ITALIE,15 AVENUE DE LA PORTE D'ITALIE - 75013 PARIS,75,75013,PARIS,48.8173123,2.360218481,48.8173123
Vélib,16129,16129 - BOIS DE BOULOGNE / PORTE DE LA MUETTE 1,CHEMIN DE LA CEINTURE DU LAC INTERIEUR / AVENUE DE SAINT CLOUD - 75016 PARIS,75,75016,PARIS,48.86208187,2.261746386,48.86208187
Vélib,19023,19023 - MANIN SIMON BOLIVAR,FACE 1 RUE MANIN - 75019 PARIS,75,75019,PARIS,48.87649965,2.379407363,48.87649965
Vélib,19121,19121 - BELLEVILLE PRE SAINT GERVAIS,195 RUE DE BELLEVILLE - 75019 PARIS,75,75019,PARIS,48.87551807,2.392960787,48.87551807
Vélib,20131,20131 - REPOS,41 RUE DU REPOS - 75020 PARIS,75,75020,PARIS,48.85935852,2.389613137,48.85935852
Vélib,2001,02001 - SEBASTOPOL-GRENATA,12 RUE GRENETA - 75002 PARIS,75,75002,PARIS,48.86524062,2.351669874,48.86524062
Vélib,3003,03003 - TURENNE BRETAGNE,4 RUE DES FILLES DU CALVAIRE - 75003 PARIS,75,75003,PARIS,48.86213223,2.364951387,48.86213223
Vélib,8036,08036 - RIO,39 RUE DE LISBONNE - 75008 PARIS,75,75008,PARIS,48.87745568,2.309694221,48.87745568
Vélib,9005,09005 - SQUARE D'ANVERS,95 RUE DE DUNKERQUE - 75009 PARIS,75,75009,PARIS,48.88263348,2.344884406,48.88263348
Vélib,10040,10040 - BELLEVILLE,8 BOULEVARD DE LA VILETTE - 75010 PARIS,75,75010,PARIS,48.87277816,2.376348395,48.87277816
Vélib,12112,12112 - CHARENTON JARDINIER,311-313 RUE DE CHARENTON - 75012 PARIS,75,75012,PARIS,48.83382177,2.394692664,48.83382177
Vélib,12007,12007 - GARE DE LYON CHALON,FACE 54 RUE DE CHALON - 75012 PARIS,75,75012,PARIS,48.84568898,2.37420369,48.84568898
Vélib,21019,21019 - VAILLANT (BOULOGNE-BILLANCOURT),71 AVENUE EDOUARD VAILLANT - 92100 BOULOGNE-BILLANCOURT,92,92100,BOULOGNE-BILLANCOURT,48.83486081,2.247862551,48.83486081
Vélib,21207,21207 - VERDIER (MONTROUGE),AVENUE VERDIER ANGLE AVENUE DE LA REPUBLIQUE - 92120 MONTROUGE,92,92120,MONTROUGE,48.81552963,2.317029864,48.81552963
Vélib,13015,13015 - WEISS,2 RUE LOUIS WEISS - 75013 PARIS,75,75013,PARIS,48.83257072,2.371231987,48.83257072
Vélib,18040,18040 - CHAPELLE MARX DORMOY,29 BOULEVARD DE LA CHAPELLE - 75018 PARIS,75,75018,PARIS,48.88457006,2.360215573,48.88457006
Vélib,18114,18114 - LEPIC VERON,35 RUE VERON - 75018 PARIS,75,75018,PARIS,48.88525797,2.334617736,48.88525797
Vélib,19109,19109 - PLACE DU MAROC,27 RUE DE TANGER - 75019 PARIS,75,75019,PARIS,48.88623342,2.36885639,48.88623342
Vélib,20001,20001 - PLACE DE LA NATION,1 COURS DE VINCENNES - 75020 PARIS,75,75020,PARIS,48.84836467,2.399762386,48.84836467
Vélib,15122,15122 - PLACE CHARLES VALLIN,PLACE CHARLES VALLIN - 75015 PARIS,75,75015,PARIS,48.83552475,2.302621941,48.83552475
Vélib,20121,20121 - MENILMONTANT BOYER,27 RUE BOYER - 75020 PARIS,75,75020,PARIS,48.86891013,2.392020489,48.86891013
Vélib,5017,05017 - DESCARTES,17 RUE DESCARTES - 75005 PARIS,75,75005,PARIS,48.84660187,2.349014733,48.84660187
Vélib,5004,05004 - SAINT JACQUES VAL DE GRACE,272 RUE SAINT JACQUES - 75005 PARIS,75,75005,PARIS,48.84186596,2.341202027,48.84186596
Vélib,5016,05016 - CONTRESCARPE-THOUIN,1 RUE THOUIN - 75005 PARIS,75,75005,PARIS,48.84506226,2.34949779,48.84506226
Vélib,7015,07015 - VARENNE,9 BOULEVARD DES INVALIDES - 75007 PARIS,75,75007,PARIS,48.85729012,2.315309683,48.85729012
Vélib,11112,11112 - CHARONNES VALLES,22 RUE JULES VALLES - 75011 PARIS,75,75011,PARIS,48.85430418,2.384886153,48.85430418
Vélib,31003,31003 - PARIS (MONTREUIL),237-241 RUE DE PARIS - 93100 MONTREUIL,93,93100,MONTREUIL,48.85491133,2.41877243,48.85491133
Vélib,16040,16040 - EXELMANS,73 BIS BOULEVARD EXELMANS - 75016 PARIS,75,75016,PARIS,48.84310449,2.259821392,48.84310449
Vélib,17111,17111 - LEMERCIER,109 RUE LEMERCIER - 75017 PARIS,75,75017,PARIS,48.8900205,2.31759093,48.8900205
Vélib,19006,19006 - MATHIS,6 RUE MATHIS - 75019 PARIS,75,75019,PARIS,48.89067813,2.376142469,48.89067813
Vélib,20105,20105 - GAUMONT,AVENUE BENOIT FRACHON - 75020 PARIS,75,75020,PARIS,48.85255339,2.415542372,48.85255339
Vélib,5033,05033 - SAINT SEVERIN,42 RUE SAINT SEVERIN - 75005 PARIS,75,75005,PARIS,48.85270565,2.344137763,48.85270565
Vélib,11019,11019 - CHARONNE PHILIPPE AUGUSTE,156 RUE DE CHARONNE - 75011 PARIS,75,75011,PARIS,48.85560316,2.390546391,48.85560316
Vélib,21011,21011 - SILLY (BOULOGNE BILLANCOURT),153 RUE DE SILLY - 92100 BOULOGNE BILLANCOURT,92,92100,BOULOGNE-BILLANCOURT,48.83227466,2.234016401,48.83227466
Vélib,21101,21101 - VALITON (CLICHY),4 RUE DE VALITON - 92110 CLICHY,92,92110,CLICHY,48.90249245,2.297840007,48.90249245
Vélib,4015,04015 - MAIRIE DU 4 EME,25 RUE DU PONT LOUIS PHILIPPE - 75004 PARIS,75,75004,PARIS,48.85596586,2.356381155,48.85596586
Vélib,7102,07102 - SAINTE CLOTHILDE,FACE 19 RUE CASIMIR PERIER - 75007 PARIS,75,75007,PARIS,48.85782911,2.319149053,48.85782911
Vélib,9036,09036 - ATHENES CLICHY,4 RUE D'ATHENES - 75009 PARIS,75,75009,PARIS,48.87811379,2.329560219,48.87811379
Vélib,10110,10110 - LOUIS BLANC (PROP 2),10 RUE LOUIS BLANC - 75010 PARIS,75,75010,PARIS,48.87933217,2.368628716,48.87933217
Vélib,15058,15058 - GEORGES POMPIDOU,4 PLACE DU MOULIN DE JAVEL - 75015 PARIS,75,75015,PARIS,48.84009445,2.271589912,48.84009445
Vélib,15102,15102 - SQUARE BELA BARTOK,QUAI DE GRENELLE - 75015 PARIS,75,75015,PARIS,48.85116724,2.284607608,48.85116724
Vélib,21113,21113 - PETIT (CLICHY),2 RUE PETIT - 92110 CLICHY,92,92110,CLICHY,48.89934835,2.296626483,48.89934835
Vélib,21705,21705 - HUGO (VANVES),11 AVENUE VICTOR HUGO - 92170 VANVES,92,92170,VANVES,48.82359964,2.28881973,48.82359964
Vélib,23004,23004 - COUTURIER 2 (LEVALLOIS),109 RUE  PAUL VAILLANT COUTURIER - 92300 LEVALLOIS,92,92300,LEVALLOIS-PERRET,48.89819702,2.293848018,48.89819702
Vélib,32003,32003 - METALLURGIE (SAINT DENIS),AVENUE DU PRESIDENT WILSON / RUE DE LA METALLURGIE - 93200 SAINT DENIS,93,93200,SAINT-DENIS,48.90933002,2.358050566,48.90933002
Vélib,34006,34006 - MICHELET (SAINT OUEN),92 AVENUE MICHELET - 93400 SAINT OUEN,93,93400,SAINT-OUEN,48.90630481,2.343969017,48.90630481
Vélo2,50005,50005 - CER05 - MOULIN A VENT,AVENUE DU HAZAY ANGLE RUE DE L'AISSELETTE - 95000 CERGY,95,95000,CERGY,49.04952196,2.016943277,49.04952196
Vélib,13004,13004 - GLACIERE,88 BOULEVARD AUGUSTE BLANQUI (SUR TPC) - 75013 PARIS,75,75013,PARIS,48.83062408,2.345429457,48.83062408
Vélib,17036,17036 - AVENUE DE TERNES,2-4 PLACE TRISTAN BERNARD - 75017 PARIS,75,75017,PARIS,48.87949289,2.291498185,48.87949289
Vélib,19102,19102 - BELLEVILLE RAMPAL,4 RUE DE RAMPAL - 75019 PARIS,75,75019,PARIS,48.87315262,2.379855611,48.87315262
Vélib,20006,20006 - PYRÉNÉES - PLAINE,33 RUE DES PYRENEES - 75020 PARIS,75,75020,PARIS,48.85028528,2.406296108,48.85028528
Vélib,4011,04011 - PLACE DU BATAILLON FRANCAIS DE L'ONU,FACE 18 RUE DE L'HOTEL DE VILLE - 75004 PARIS,75,75004,PARIS,48.85381415,2.357092654,48.85381415
Vélib,5001,05001 - SAINT GERMAIN HARPE,32 RUE DE LA HARPE - 75005 PARIS,75,75005,PARIS,48.85158134,2.343704537,48.85158134
Vélib,6107,06107 - CHERCHE MIDI,29 RUE DU CHERCHE MIDI - 75006 PARIS,75,75006,PARIS,48.85024109,2.327551549,48.85024109
Vélib,7103,07103 - BELGRADE,2 RUE DE BELGRADE - 75007 PARIS,75,75007,PARIS,48.85605931,2.302239129,48.85605931
Vélib,12039,12039 - DECAEN,45 AVENUE DU GENERAL MICHEL BIZOT - 75012 PARIS,75,75012,PARIS,48.83481263,2.400927788,48.83481263
Vélo2,50008,50008 - CER08 - AXE MAJEUR (CB),RUE DE L'ESPLANADE DE PARIS ANGLE BOULEVARD DE L'OISE - 95000 CERGY,95,95000,CERGY,49.04406518,2.036852733,49.04406518
Vélo2,56401,56401 - COU01 - LA LOUVIERE (CB),Boulevard des chasseurs angle boulevard Sainte Apolline - 95400 COURDIMANCHE,95,95400,COURDIMANCHE,49.04522302,2.002507135,49.04522302
Vélib,17011,17011 - PORTE DE CLICHY FRAGONARD,4 RUE FRAGONARD - 75017 PARIS,75,75017,PARIS,48.89415138,2.314678001,48.89415138
Vélib,17041,17041 - PORTE DE VILLIERS,51 RUE GUERSANT - 75017 PARIS,75,75017,PARIS,48.88287775,2.287667371,48.88287775
Vélib,19026,19026 - DANUBE,53 RUE MIGUEL HIDALGO - 75019 PARIS,75,75019,PARIS,48.88195317,2.392496217,48.88195317
Vélib,22404,22404 - BROSSOLETTE 2 (MALAKOFF),102 AVENUE PIERRE BROSSOLETTE - 92240 MALAKOFF,92,92240,MALAKOFF,48.81755975,2.307485841,48.81755975
Vélib,33006,33006 - KARMAN (AUBERVILLIERS),FACE 143 RUE ANDRE KARMAN - 93300 AUBERVILLIERS,93,93300,AUBERVILLIERS,48.91014367,2.385052018,48.91014367
Vélib,31707,31707 - VAILLANT (BAGNOLET),FACE 70 RUE EDOUARD VAILLANT - 93170 BAGNOLET,93,93170,BAGNOLET,48.85839568,2.414860628,48.85839568
Vélo2,50014,50014 - CER14 - AVENUE DU NORD,AVENUE DU NORD ANGLE ALLÉE DES ACACIAS - 95000 CERGY,95,95000,CERGY,49.04325948,2.060450788,49.04325948
Vélib,16044,16044 - STADE FRANCAIS,24 AVENUE DE LA PORTE DE SAINT CLOUD - 75016 PARIS,75,75016,PARIS,48.83871336,2.252191061,48.83871336
Vélib,19110,19110 - MACDONALD DUCHESNE,1 RUE JACQUES DUCHESNE - 75019 PARIS,75,75019,PARIS,48.89909167,2.37403321,48.89909167
Vélib,20111,20111 - L'ISLE ADAM PYRENÉES,60 RUE VILLIERS DE L'ISLE ADAM - 75020 PARIS,75,75020,PARIS,48.8673623,2.396222891,48.8673623
Vélib,10113,10113 - PARMENTIER LOUVEL-TESSIER,151 AVENUE PARMENTIER - 75010 PARIS,75,75010,PARIS,48.87137987,2.369896384,48.87137987
Vélib,12029,12029 - DUGOMMIER,FACE 4 BOULEVARD DE REUILLY - 75012 PARIS,75,75012,PARIS,48.83884902,2.389724508,48.83884902
Vélib,13021,13021 - BOUSSINGAULT - TOLBIAC,55 RUE BOUSSINGAULT - 75013 PARIS,75,75013,PARIS,48.82603517,2.342176808,48.82603517
Vélib,14035,14035 - MAINE GAITE,90 AVENUE DU MAINE - 75014 PARIS,75,75014,PARIS,48.83788363,2.32255164,48.83788363
Vélib,15004,15004 - VAUGIRARD PASTEUR,DEV 71 BOULEVARD DE VAUGIRARD - 75015 PARIS,75,75015,PARIS,48.84059587,2.315363038,48.84059587
Vélib,18003,18003 - JOSEPH DE MAISTRE LEPIC,2 RUE JOSEPH DE MAISTRE - 75018 PARIS,75,75018,PARIS,48.88645682,2.332897828,48.88645682
Vélib,19024,19024 - BUTTES CHAUMONT,28 / 30 RUE BOTZARIS - 75019 PARIS,75,75019,PARIS,48.87795125,2.381464663,48.87795125
Vélib,20047,20047 - COURS DE VINCENNES BD DAVOUT,107 COURS DE VINCENNES - 75020 PARIS,75,75020,PARIS,48.84733105,2.410390008,48.84733105
Vélib,20009,20009 - DOCTEUR DEJERINE,RUE DES DOCTEURS DEJERINE - 75020 PARIS,75,75020,PARIS,48.85402328,2.412058017,48.85402328
Vélib,5032,05032 - PANTHEON CARMES,2 RUE VALETTE - 75005 PARIS,75,75005,PARIS,48.84698675,2.346499654,48.84698675
Vélib,5023,05023 - PLACE JUSSIEU,13 RUE JUSSIEU - 75005 PARIS,75,75005,PARIS,48.84561688,2.3557455,48.84561688
Vélib,5028,05028 - CENSIER BUFFON,6 RUE CENSIER - 75005 PARIS,75,75005,PARIS,48.84108002,2.355430714,48.84108002
Vélib,6028,06028 - ODEON QUATRE VENTS,6 RUE DES QUATRE VENTS - 75006 PARIS,75,75006,PARIS,48.85175137,2.338161695,48.85175137
Vélib,8004,08004 - MALESHERBES PASQUIER,FACE 4 BD MALESHERBES - 75008 PARIS,75,75008,PARIS,48.87042188,2.323288995,48.87042188
Vélib,10038,10038 - COLONEL FABIEN,69 RUE DE LA GRANGE AUX BELLES - 75010 PARIS,75,75010,PARIS,48.87752003,2.369791245,48.87752003
Vélib,11020,11020 - CHARONNE,1 RUE DE BELFORT - 75011 PARIS,75,75011,PARIS,48.85631718,2.383072452,48.85631718
Vélib,11033,11033 - BREGUET SABIN,FACE 23 BD RICHARD LENOIR - 75011 PARIS,75,75011,PARIS,48.85687047,2.37055464,48.85687047
Vélib,12101,12101 - CHARENTON PRAGUE,89 TER RUE DE CHARENTON - 75012 PARIS,75,75012,PARIS,48.84817513,2.376358449,48.84817513
Vélib,13120,13120 - VITRY DESAULT,RUE PIERRE ET JOSEPH DESAULT - 75013 PARIS,75,75013,PARIS,48.82113875,2.378718607,48.82113875
Vélo2,53003,53003 - PON03 - UNIVERSITÉ ST MARTIN,Avenue François Mitterand côté boulevard du Port - 95300 PONTOISE,95,95300,PONTOISE,49.04358297,2.084808037,49.04358297
Vélib,13514,13514 - GARE D'AUSTERLITZ 2,9 BOULEVARD DE L'HOPITAL - 75013 PARIS,75,75013,PARIS,48.84183617,2.363468637,48.84183617
Vélib,15061,15061 - DESNOUETTES,12 SQUARE DESNOUETTES - 75015 PARIS,75,75015,PARIS,48.83476838,2.284142297,48.83476838
Vélib,18002,18002 - CLIGNANCOURT,25 RUE DE CLIGNANCOURT - 75018 PARIS,75,75018,PARIS,48.88530162,2.347211038,48.88530162
Vélib,7012,07012 - CITE VANEAU,7 CITE VANEAU - 75007 PARIS,75,75007,PARIS,48.85426833,2.31945401,48.85426833
Vélib,10161,10161 - GARE DE L'EST,FACE 129 RUE DU FBG SAINT MARTIN - 75010 PARIS,75,75010,PARIS,48.87567011,2.359509938,48.87567011
Vélib,35002,35002 - JAURES 2 (PANTIN),130 RUE JEAN JAURES - 93500 PANTIN,93,93500,PANTIN,48.90722601,2.3961292,48.90722601
Vélib,42011,42011 - BOYER (IVRY),26 QUAI MARCEL BOYER - 94200 IVRY,94,94200,IVRY-SUR-SEINE,48.82211534,2.392850382,48.82211534
Vélib,42201,42201 - NECKER (CHARENTON),RUE NECKER/ RUE DU PORT AUX LIONS - 94220 CHARENTON,94,94220,CHARENTON,48.82396325,2.39999842,48.82396325
Vélib,16021,16021 - RUE FRANCOIS PONSARD,1 RUE FRANCOIS PONSARD - 75016 PARIS,75,75016,PARIS,48.8584277,2.274308524,48.8584277
Vélib,18026,18026 - RUISSEAU ORDENER,37 RUE DU RUISSEAU - 75018 PARIS,75,75018,PARIS,48.89289528,2.340119632,48.89289528
Vélib,19003,19003 - QUAI DE SEINE,3 QUAI DE LA SEINE - 75019 PARIS,75,75019,PARIS,48.88431618,2.36982958,48.88431618
Vélib,20023,20023 - PELLEPORT BELGRAND,44 RUE PELLEPORT - 75020 PARIS,75,75020,PARIS,48.86500082,2.403980836,48.86500082
Vélib,21704,21704 - REPUBLIQUE (VANVES),2 RUE DE LA REPUBLIQUE - 92170 VANVES,92,92170,VANVES,48.8217027,2.285395625,48.8217027
Vélib,15108,15108 - MUSÉE DES TÉLÉCOMMUNICATIONS,88 - 90 RUE DE LOURMEL - 75015 PARIS,75,75015,PARIS,48.84472879,2.287141454,48.84472879
Vélib,17019,17019 - MALESHERBES,20 RUE DE PHALSBOURG - 75017 PARIS,75,75017,PARIS,48.88260882,2.309026487,48.88260882
Vélib,28003,28003 - JAURES (PUTEAUX),152 RUE JEAN JAURES - 92800 PUTEAUX,92,92800,PUTEAUX,48.88047087,2.237362446,48.88047087
Vélib,34004,34004 - VOLTAIRE (SAINT OUEN),1 RUE VOLTAIRE - 93400 SAINT OUEN,93,93400,SAINT-OUEN,48.90249976,2.342248145,48.90249976
Vélib,34011,34011 - DHALENNE (SAINT OUEN),FACE AU 61 RUE ALBERT DHALENNE - 93401 SAINT OUEN,93,93400,SAINT-OUEN,48.91418831,2.332082836,48.91418831
Vélib,41201,41201 - DE RICARD (FONTENAY-SOUS-BOIS),RUE LOUIS-XAVIER DE RICARD - 94120 FONTENAY-SOUS-BOIS,94,94120,FONTENAY-SOUS-BOIS,48.84630286,2.472408775,48.84630286
Vélib,42707,42707 - OKABE (LE KREMLIN-BICETRE),51 avenue de Fontainebleau - 94270 Le Kremlin-Bicetre,94,94270,LE KREMLIN-BICETRE,48.81236783,2.361809848,48.81236783
Vélib,7024,07024 - AVENUE RAPP,43 AVENUE RAPP - 75007 PARIS,75,75007,PARIS,48.85816904,2.30052833,48.85816904
Vélib,8031,08031 - ROND POINT DES CHAMPS ELYSEES,2 RUE JEAN MERMOZ - 75008 PARIS,75,75008,PARIS,48.86970885,2.310714655,48.86970885
Vélib,13008,13008 - ITALIE ROSALIE,FACE 2 PLACE D'ITALIE - 75013 PARIS,75,75013,PARIS,48.83199637,2.354809473,48.83199637
Vélib,21302,21302 - BRIAND (ISSY LES MOULINEAUX),PLACE DE LA RESISTANCE ANGLE RUE ARISTIDE BRIAND - 92130 ISSY LES MOULINEAUX,92,92130,ISSY-LES-MOULINEAUX,48.82103025,2.251019572,48.82103025
Vélib,1012,01012 - BOURSE DU COMMERCE,FACE 29 RUE JEAN JACQUES ROUSSEAU - 75001 PARIS,75,75001,PARIS,48.86299817,2.341555078,48.86299817
Vélib,3005,03005 - TURBIGO SAINTE ELISABETH,7 RUE SAINTE ELISABETH - 75003 PARIS,75,75003,PARIS,48.86613722,2.359661144,48.86613722
Vélib,9028,09028 - MONCEY BLANCHE,4 RUE MONCEY - 75009 PARIS,75,75009,PARIS,48.88015399,2.33107516,48.88015399
Vélib,10151,10151 - GARE DU NORD 1,8-10 RUE DE DUNKERQUE - 75010 PARIS,75,75010,PARIS,48.87963935,2.356904958,48.87963935
Vélib,15059,15059 - CITROEN,RUE BALARD - 75015 PARIS,75,75015,PARIS,48.84071436,2.278018572,48.84071436
Vélib,16105,16105 - CREVAUX,1 RUE CREVAUX - 75016 PARIS,75,75016,PARIS,48.87080943,2.281149008,48.87080943
Vélib,18024,18024 - CLIGNANCOURT MARCADET,105 RUE DE CLIGNANCOURT - 75018 PARIS,75,75018,PARIS,48.89145773,2.348636478,48.89145773
Vélib,19105,19105 - PORTE BRUNET,FACE 1 AVENUE AMBROISE RENDU - 75019 PARIS,75,75019,PARIS,48.88365921,2.395719508,48.88365921
Vélib,20107,20107 - STADE MARYSE HILSZ,26 RUE MARYSE HILSZ - 75020 PARIS,75,75020,PARIS,48.85128528,2.412733642,48.85128528
Vélib,20108,20108 - HOSPICE DEBROUSSE,142 RUE DE BAGNOLET - 75020 PARIS,75,75020,PARIS,48.86157296,2.405688637,48.86157296
Vélib,6031,06031 - SAINT MICHEL SARRAZIN,5 RUE PIERRE SARAZIN - 75006 PARIS,75,75006,PARIS,48.85083365,2.342198228,48.85083365
Vélib,10032,10032 - DODU,N° 12-14 RUE CLAUDE VELLEFAUX- 75010 PARIS,75,75010,PARIS,48.87285914,2.370071707,48.87285914
Vélib,10014,10014 - BEAUREPAIRE,14 RUE DE MARSEILLE - 75010 PARIS,75,75010,PARIS,48.87166266,2.363933311,48.87166266
Vélib,10039,10039 - SAMBRE ET MEUSE,37 RUE SAMBRE ET MEUSE - 75010 PARIS,75,75010,PARIS,48.87440567,2.373807238,48.87440567
Vélib,31009,31009 - DE GAULLE (MONTREUIL),13/15 PLACE DU GENERAL DE GAULLE - 93100 MONTREUIL,93,93100,MONTREUIL,48.86881236,2.432974795,48.86881236
Vélib,31005,31005 - PARIS 2  (MONTREUIL),127/129 RUE DE PARIS - 93100 MONTREUIL,93,93100,MONTREUIL,48.85628452,2.426434491,48.85628452
Vélib,31701,31701 - BERTON (BAGNOLET),3 RUE RAOUL BERTON - 93170 BAGNOLET,93,93170,BAGNOLET,48.8684533,2.417816935,48.8684533
Vélib,14012,14012 - SIBELLE ALESIA,FACE 2 AVENUE DE LA SIBELLE - 75014 PARIS,75,75014,PARIS,48.82670394,2.338636324,48.82670394
Vélib,15034,15034 - COMMERCE,2 RUE LAKANAL - 75015 PARIS,75,75015,PARIS,48.84442592,2.294041433,48.84442592
Vélib,16009,16009 - SAINT DIDIER,32 RUE SAINT DIDIER - 75016 PARIS,75,75016,PARIS,48.86643916,2.285745944,48.86643916
Vélib,17028,17028 - PORTE DE COURCELLE,34 BOULEVARD DE REIMS - 75017 PARIS,75,75017,PARIS,48.88880002,2.296319932,48.88880002
Vélib,18014,18014 - DOUDEAUVILLE LEON,26 RUE LEON - 75018 PARIS,75,75018,PARIS,48.88832422,2.353573373,48.88832422
Vélib,20115,20115 - PORTE DE BAGNOLET,102 RUE LOUIS LUMIERE - 75020 PARIS,75,75020,PARIS,48.86442365,2.410411116,48.86442365
Vélib,20103,20103 - LE VAU BERTEAUX,24 RUE LE VAU - 75020 PARIS,75,75020,PARIS,48.86803439,2.411030612,48.86803439
Vélib,15009,15009 - SUFFREN,140 AVENUE DE SUFFREN - 75015 PARIS,75,75015,PARIS,48.84717561,2.307052148,48.84717561
Vélib,16101,16101 - MALAKOFF,161 AVENUE MALAKOFF - 75016 PARIS,75,75016,PARIS,48.87669269,2.283457593,48.87669269
Vélib,18043,18043 - BLANCHE,55 BOULEVARD DE CLICHY - 75018 PARIS,75,75018,PARIS,48.88356474,2.333418629,48.88356474
Vélib,31008,31008 - VINCENNES (MONTREUIL),7 BIS RUE DE VINCENNES - 93100 MONTREUIL,93,93100,MONTREUIL,48.85770213,2.437368661,48.85770213
Cristolib,1,01 - LATTRE DE TASSIGNY,AVENUE DU MARECHAL DE LATTRE DE TASSIGNY,94,94000,Créteil,48.7988351,2.453876338,48.7988351
Vélib,4005,04005 - SULLY MORLAND,2 QUAI DES CELESTINS - 75004 PARIS,75,75004,PARIS,48.85127148,2.362430213,48.85127148
Vélib,9029,09029 - TRINITE,62 RUE SAINT LAZARE - 75009 PARIS,75,75009,PARIS,48.87685933,2.33276238,48.87685933
Vélib,10028,10028 - GARE DU NORD DENAN,24 RUE DE DUNKERQUE - 75010 PARIS,75,75010,PARIS,48.88037062,2.352820057,48.88037062
Vélib,22101,22101 - GARE ROUTIERE ( SAINT CLOUD),GARE ROUTIERE - ARRET TRAM - 92210 SAINT CLOUD,92,92210,SAINT-CLOUD,48.84312621,2.222189236,48.84312621
Vélib,35008,35008 - LOLIVE 2 (PANTIN),132 RUE JEAN LOLIVE - 93500 PANTIN,93,93500,PANTIN,48.89271967,2.412529571,48.89271967
Vélib,35005,35005 - GENERAL LECLERC (PANTIN),QUAI DE L'AISNE/AVENUE DU GENERAL LECLERC 93500 PANTIN,93,93500,PANTIN,48.89571395,2.400571894,48.89571395
Cristolib,10,10 - MAGELLAN,RUE MAGELLAN,94,94000,Créteil,48.76895633,2.456664668,48.76895633
Vélib,20015,20015 - BAGNOLET-ORTEAUX,44 BIS RUE DE BAGNOLET - 75020 PARIS,75,75020,PARIS,48.85714339,2.394872402,48.85714339
Vélib,4013,04013 - FRANCS BOURGEOIS,50 RUE VIEILLE DU TEMPLE - 75004 PARIS,75,75004,PARIS,48.85851071,2.358633579,48.85851071
Vélib,5018,05018 - MUTUALITE,20 RUE MONGE - 75005 PARIS,75,75005,PARIS,48.84838576,2.350169939,48.84838576
Vélib,8019,08019 - EUROPE,03 RUE DE NAPLES - 75008 PARIS,75,75008,PARIS,48.87995716,2.321359676,48.87995716
Vélib,10015,10015 - RECOLLETS,46 RUE LUCIE SAMPAIX - 75010 PARIS,75,75010,PARIS,48.87411292,2.362498529,48.87411292
Vélib,10006,10006 - PETITES ECURIES,5 RUE DES PETITES ECURIES - 75010 PARIS,75,75010,PARIS,48.87293977,2.354034484,48.87293977
Vélib,10026,10026 - CHATEAU LANDON,2 RUE DE CHATEAU LANDON - 75010 PARIS,75,75010,PARIS,48.88387987,2.360080357,48.88387987
Vélib,11104,11104 - CHARONNE DU BUREAU,170 RUE DE CHARONNE - 75011 PARIS,75,75011,PARIS,48.85594378,2.392532527,48.85594378
Cristolib,4,04 - UNIVERSITE - MAIL DES MECHES,Avenue du Général de Gaulle,94,94000,Créteil,48.78811078,2.446248652,48.78811078
Vélib,6008,06008 - ASSAS LUXEMBOURG,90 RUE D'ASSAS - 75006 PARIS,75,75006,PARIS,48.84373447,2.333428382,48.84373447
Vélib,8027,08027 - MAIRIE DU 8 ÈME,28 RUE DE MADRID - 75008 PARIS,75,75008,PARIS,48.87798403,2.318404863,48.87798403
Vélib,17026,17026 - WAGRAM COURCELLES,105 RUE JOUFFROY D'ABBANS - 75017 PARIS,75,75017,PARIS,48.88185715,2.301138378,48.88185715
Vélib,32001,32001 - PROUDHON (SAINT DENIS),AVENUE PRESIDENT WILSON / RUE PROUDHON - 93200 SAINT DENIS,93,93200,SAINT-DENIS,48.90646937,2.358442054,48.90646937
Vélib,34010,34010 - DIDEROT 2 (SAINT OUEN),FACE 61-63 RUE DIDEROT- 93400 SAINT OUEN,93,93400,SAINT-OUEN,48.91157046,2.333910127,48.91157046
Vélib,42013,42013 - BARBES (IVRY),RUE BARBES / AVENUE DE VERDUN - 94200 IVRY SUR SEINE,94,94200,IVRY-SUR-SEINE,48.8159111,2.368229729,48.8159111
Vélib,42701,42701 - GIDE (LE KREMLIN BICETRE),FACE 50 AVENUE CHARLES GIDE - 94270 LE KREMELIN BICETRE,94,94270,LE KREMLIN-BICETRE,48.80721112,2.353852673,48.80721112
Vélib,13043,13043 - DUNOIS CLISSON,55 RUE DUNOIS - 75013 PARIS,75,75013,PARIS,48.83227246,2.367415867,48.83227246
Vélib,18011,18011 - HERBERT,85 RUE PAJOL - 75018 PARIS,75,75018,PARIS,48.89284571,2.363429016,48.89284571
Vélib,18023,18023 - POISSONNIERS ORDENER,57 RUE ORDENER - 75018 PARIS,75,75018,PARIS,48.89121389,2.351288666,48.89121389
Vélib,1010,01010 - PONT NEUF,10 RUE BOUCHER - 75001 PARIS,75,75001,PARIS,48.85946239,2.344366128,48.85946239
Vélib,5012,05012 - ULM - LHOMOND,20 RUE DE L'ESTRAPADE - 75005 PARIS,75,75005,PARIS,48.84514349,2.345412681,48.84514349
Vélib,5006,05006 - SAINT JACQUES SOUFFLOT,174 RUE SAINT JACQUES - 75005 PARIS,75,75005,PARIS,48.84651692,2.343123803,48.84651692
Vélib,6012,06012 - SAINT GERMAIN COPEAU,141 BD SAINT GERMAIN - 75006 PARIS,75,75006,PARIS,48.85330528,2.334465462,48.85330528
Vélib,7002,07002 - VANEAU,86 RUE VANEAU - 75007 PARIS,75,75007,PARIS,48.84857761,2.320417393,48.84857761
Vélib,9025,09025 - TAITBOUT CHÂTEAUDUN,77 RUE TAITBOUT - 75009 PARIS,75,75009,PARIS,48.87638397,2.335356678,48.87638397
Vélib,13022,13022 - BUTTE AUX CAILLES,27 ET 36 RUE DE LA BUTTE AUX CAILLES - 75013 PARIS,75,75013,PARIS,48.82756438,2.349063507,48.82756438
Vélo2,56101,56101 - ERA01 - LA DANNE,BOULEVARD CHARLES DE GAULLE ANGLE BOULEVARD JACQUES DUCLOS 95600 - ERAGNY,95,95600,ERAGNY,49.02421047,2.103267509,49.02421047
Vélo2,50010,50010 - CER10 - GARE CERGY AXE MAJ HORLOGE (CB),RUE DES PAS PERDUS - 95000 CERGY,95,95000,CERGY,49.04935838,2.033458885,49.04935838
Vélib,15038,15038 - PLACE ADOLPHE CHERIOUX,18 PLACE ADOLPHE CHERIOUX - 75015 PARIS,75,75015,PARIS,48.83963508,2.300654459,48.83963508
Vélib,15010,15010 - CAMBRONNE,FACE 3 BD GARIBALDI - 75015 PARIS,75,75015,PARIS,48.84757532,2.302863101,48.84757532
Vélib,17001,17001 - GUY MOCQUET,RUE GUY MOCQUET - 75017 PARIS,75,75017,PARIS,48.89282296,2.32680349,48.89282296
Vélib,21106,21106 - MORICE 2 (CLICHY),2-4 RUE MORICE - 92110 CLICHY,92,92110,CLICHY,48.90066035,2.308569535,48.90066035
Vélib,33009,33009 - FELIX (AUBERVILLIERS),120 BOULEVARD FELIX FAURE - 93300 AUBERVILLIERS,93,93300,AUBERVILLIERS,48.90788576,2.378838474,48.90788576
Vélo2,50020,50020 - CONSEIL GÉNÉRAL,AVENUE DU PARC ANGLE BOULEVARD DE L'HAUTIL - 95000 CERGY,95,95000,CERGY,49.03376046,2.072036503,49.03376046
Vélib,13030,13030 - ITALIE TOLBIAC,88 AVENUE D'ITALIE - 75013 PARIS,75,75013,PARIS,48.82583946,2.357215358,48.82583946
Vélib,14116,14116 - ROMAIN ROLLAND,49-51 BD ROMAIN ROLLAND - 75014 PARIS,75,75014,PARIS,48.82032365,2.323003041,48.82032365
Vélib,14008,14008 - MOUTON DUVERNET,5 RUE MOUTON DUVERNET - 75014 PARIS,75,75014,PARIS,48.83150668,2.329319363,48.83150668
Vélib,15109,15109 - CEVENNES,65 - 67 RUE DES CEVENNES - 75015 PARIS,75,75015,PARIS,48.84244145,2.281070755,48.84244145
Vélib,16014,16014 - AVENUE D EYLAU,4 AVENUE D'EYLAU - 75016 PARIS,75,75016,PARIS,48.8635464,2.286394497,48.8635464
Vélib,17107,17107 - BERTHIER STUART MERRIL,182 BOULEVARD BERTHIER - 75017 PARIS,75,75017,PARIS,48.88591313,2.293234151,48.88591313
Vélib,18027,18027 - DAMREMONT ORDENER,102 RUE DAMREMONT - 75018 PARIS,75,75018,PARIS,48.89340039,2.336266524,48.89340039
Vélib,1017,01017 - SAINT HONORE,215 RUE SAINT HONORE - 75001 PARIS,75,75001,PARIS,48.86557114,2.330567418,48.86557114
Vélib,2022,02022 - BONNE NOUVELLE SAINT FIACRE,20 RUE SAINT FIACRE - 75002 PARIS,75,75002,PARIS,48.87078278,2.345905811,48.87078278
Vélib,7017,07017 - LA TOUR MAUBOURG,1 AVENUE DE LA MOTTE PICQUET - 75007 PARIS,75,75007,PARIS,48.8572765,2.310257928,48.8572765
Vélib,8102,08102 - LAMENAIS WASHINGTON,1 RUE LAMENNAIS - 75008 PARIS,75,75008,PARIS,48.87355533,2.303288666,48.87355533
Vélib,8044,08044 - VAN DYCK,2 RUE ALFRED DE VIGNY - 75008 PARIS,75,75008,PARIS,48.87836138,2.305254448,48.87836138
Vélib,15042,15042 - FARMAN,61 RUE HENRY FARMAN - 75015 PARIS,75,75015,PARIS,48.83373383,2.271396472,48.83373383
Vélib,15069,15069 - BOUCICAUT FAURE,41 AVENUE FELIX FAURE - 75015 PARIS,75,75015,PARIS,48.84124934,2.288386601,48.84124934
Vélib,15114,15114 - PASTEUR COTENTIN,FACE 1 RUE DU COTENTIN - 75015 PARIS,75,75015,PARIS,48.83893691,2.316168412,48.83893691
Vélib,16041,16041 - VERSAILLES,164 AVENUE DE VERSAILLES - 75016 PARIS,75,75016,PARIS,48.84021934,2.263834191,48.84021934
Vélib,17043,17043 - PLACE GENERAL KOENIG,10 RUE BELIDOR - 75017 PARIS,75,75017,PARIS,48.88023363,2.285380679,48.88023363
Vélib,18046,18046 - FOURCHE,12 RUE ETIENNE JOGELLE - 75018 PARIS,75,75018,PARIS,48.88794016,2.32612442,48.88794016
Vélib,18035,18035 - PORTE MONTMARTRE,FACE 66 RUE RENE BINET - 75018 PARIS,75,75018,PARIS,48.89913599,2.336893454,48.89913599
Vélib,1023,01023 - ANDRE MALRAUX MUSEE DU LOUVRE,165 RUE SAINT HONORE - 75001 PARIS,75,75001,PARIS,48.86349702,2.334846328,48.86349702
Vélib,3001,03001 - CHEMIN VERT BEAUMARCHAIS,69 BOULEVARD BEAUMARCHAIS - 75003 PARIS,75,75003,PARIS,48.85804406,2.367832659,48.85804406
Vélib,4017,04017 - PLACE DE L'HOTEL DE VILLE,7 PLACE DE L'HOTEL DE VILLE - 75004 PARIS,75,75004,PARIS,48.85712865,2.351194996,48.85712865
Vélib,9033,09033 - HAVRE CAUMARTIN,FACE 45 RUE CAUMARTIN - 75009 PARIS,75,75009,PARIS,48.87279502,2.328315743,48.87279502
Vélib,32006,32006 - EGLISE SAINT JUSTE (SAINT DENIS),AVENUE DU PRESIDENT WILSON / PARKING DE L'EGLISE SAINT JUSTE - 93210 SAINT DENIS,93,93200,SAINT-DENIS,48.90858672,2.358482458,48.90858672
Vélib,42012,42012 - BARBUSSE (IVRY),1 RUE HENRY BARBUSSE - 94200 IVRY,94,94200,IVRY-SUR-SEINE,48.81020035,2.379670589,48.81020035
Vélib,31011,31011 - STALINGRAD 2 (MONTREUIL),27 RUE DE STALINGRAD - 93100 MONTREUIL,93,93100,MONTREUIL,48.85892303,2.443142118,48.85892303
Vélib,42706,42706 - SALENGRO (KREMLIN BICETRE),3 RUE ROGER SALENGRO -  94270 LE KREMLIN BICETRE,94,94270,LE KREMLIN-BICETRE,48.8146625,2.361345503,48.8146625
Vélo2,50017,50017 - CER17 - CERGY VILLAGE CENTRE,RUE NATIONALE ANGLE RUE LEVÈQUE - 95000 CERGY,95,95000,CERGY,49.03657665,2.061675667,49.03657665
Vélib,15025,15025 - AMETTE,26 RUE DUPLEIX - 75015 PARIS,75,75015,PARIS,48.85145418,2.296710301,48.85145418
Vélib,16016,16016 - PAUL DOUMER / LA TOUR,53 AVENUE PAUL DOUMER - 75016 PARIS,75,75016,PARIS,48.86011611,2.280840482,48.86011611
Vélib,17021,17021 - WAGRAM (17EME ARR.),RUE JOUFFROY D'ABBANS - 75017 PARIS,75,75017,PARIS,48.88428944,2.305497444,48.88428944
Vélib,19031,19031 - MANIN CRIMEE,8 RUE MANIN - 75019 PARIS,75,75019,PARIS,48.88302984,2.38634884,48.88302984
Vélib,19017,19017 - PARC DE LA VILLETTE,197 AVENUE JEAN JAURES - 75019 PARIS,75,75019,PARIS,48.88836894,2.390991659,48.88836894
Vélib,42705,42705 - CONVENTION (LE KREMLIN BICETRE),1 RUE DE LA CONVENTION - 94270 LE KREMLIN BICETRE,94,94270,LE KREMLIN-BICETRE,48.8128003,2.361041166,48.8128003
Vélib,3002,03002 - SAINT GILLES,26 RUE SAINT GILLES - 75003 PARIS,75,75003,PARIS,48.85815896,2.364714992,48.85815896
Vélib,5002,05002 - SAINT JACQUES,20 RUE SOMMERARD - 75005 PARIS,75,75005,PARIS,48.85031043,2.345015835,48.85031043
Vélib,5007,05007 - ECOLES CARMES,39 RUE DES ECOLES - 75005 PARIS,75,75005,PARIS,48.84891901,2.34720133,48.84891901
Vélib,7020,07020 - CLER,FACE 3 RUE DU CHAMP DE MARS - 75007 PARIS,75,75007,PARIS,48.8566411,2.306598534,48.8566411
Vélib,9108,09108 - ROCHECHOUART MAUBEUGE,25 RUE DE ROCHECHOUART - 75009 PARIS,75,75009,PARIS,48.87789001,2.344785603,48.87789001
Vélib,12028,12028 - VIVALDI,42 ALLEE VIVALDI - 75012 PARIS,75,75012,PARIS,48.84192366,2.389728979,48.84192366
Vélib,12125,12125 - PYRAMIDE ENTRÉE PARC FLORAL,PYRAMIDE ENTREE PARC FLORAL - 75012 PARIS,75,75012,PARIS,48.83706149,2.440446664,48.83706149
Vélib,18044,18044 - CLICHY,132 BOULEVARD DE CLICHY - 75018 PARIS,75,75018,PARIS,48.88412711,2.328807098,48.88412711
Vélib,19114,19114 - MANIN SECRETAN,31 RUE MANIN - 75019 PARIS,75,75019,PARIS,48.8792752,2.378637022,48.8792752
Vélib,13052,13052 - TOLBIAC LERREDE,2 RUE LEREDDE - 75013 PARIS,75,75013,PARIS,48.82897474,2.374332001,48.82897474
Vélib,14103,14103 - MAINE LIANCOURT,132 / 136 AVENUE DU MAINE - 75014 PARIS,75,75014,PARIS,48.83506436,2.32373145,48.83506436
Vélib,15001,15001 - ARRIVEE,8 RUE DE L'ARRIVEE - 75015 PARIS,75,75015,PARIS,48.84374889,2.322451937,48.84374889
Vélib,16027,16027 - JASMIN,79 AV MOZART- 75016 PARIS,75,75016,PARIS,48.85286125,2.268483571,48.85286125
Vélib,17013,17013 - LEGENDRE,62 RUE LEGENDRE - 75017 PARIS,75,75017,PARIS,48.88543773,2.316473836,48.88543773
Vélib,32605,32605 - HORTENSIAS (LES LILAS),1 ALLEE DES HORTENSIAS - 93260 LES LILAS,93,93260,LES LILAS,48.88217309,2.423272636,48.88217309
Vélib,34009,34009 - MAAR (SAINT OUEN),RUE DORA MAAR / GARE RER - 93400 SAINT OUEN,93,93400,SAINT-OUEN,48.90526963,2.322171249,48.90526963
Vélib,1102,01102 - FRANCAISE,6 RUE FRANCAISE - 75001 PARIS,75,75001,PARIS,48.86406505,2.347597913,48.86406505
Vélib,7004,07004 - RASPAIL VARENNE,FACE 28 BOULEVARD RASPAIL - 75007 PARIS,75,75007,PARIS,48.85326167,2.326319806,48.85326167
Vélib,8034,08034 - HAUSSMANN COURCELLES,49 RUE DE BERRI - 75008 PARIS,75,75008,PARIS,48.87481039,2.308314064,48.87481039
Vélib,11102,11102 - RUE DES BOULETS ( COMPLEMENTAIRE ),3 RUE ALEXANDRE DUMAS - 75011 PARIS,75,75011,PARIS,48.85288867,2.389147641,48.85288867
Vélib,31706,31706 - CHATEAU (BAGNOLET),RUE DU CHATEAU - 93170 BAGNOLET,93,93170,BAGNOLET,48.86302549,2.415622204,48.86302549
Vélib,42505,42505 - FREROT (GENTILLY),37 RUE CHARLES FREROT - 94250 GENTILLY,94,94250,GENTILLY,48.81576879,2.350476199,48.81576879
Vélib,43004,43004 - MONTREUIL (VINCENNES),43 RUE DE MONTREUIL - 94300 VINCENNES,94,94300,VINCENNES,48.85041837,2.434513786,48.85041837
Vélo2,50012,50012 - CER12 - PLACE DU HAUT-GENCY,PLACE DU HAUT DE GENCY ANGLE RUE DES VENDANGES PROCHAINES - 95000 CERGY,95,95000,CERGY,49.04782299,2.044759834,49.04782299
Vélib,33102,33102 - JAURES 1 (PRE SAINT GERVAIS),RUE GABRIEL PERI ANGLE AVENUE JAURES - 93310 LE PRE SAINT GERVAIS,93,93310,LE PRE SAINT-GERVAIS,48.88652698,2.407468689,48.88652698
Vélib,2009,02009 - BOURSE,1 RUE DES FILLES SAINT THOMAS - 75002 PARIS,75,75002,PARIS,48.86885169,2.339731401,48.86885169
Vélib,6025,06025 - RENNES - ASSAS,16 RUE D'ASSAS - 75006 PARIS,75,75006,PARIS,48.8492085,2.328514546,48.8492085
Vélib,7022,07022 - PONT DE L'ALMA,3 AVENUE BOSQUET - 75007 PARIS,75,75007,PARIS,48.8616405,2.302250344,48.8616405
Vélib,9001,09001 - POISSONNIERE,5 RUE DE BELLEFOND - 75009 PARIS,75,75009,PARIS,48.87750147,2.348569373,48.87750147
Vélib,12040,12040 - PORTE DE CHARENTON,FACE 2 AV. DE LA PORTE DE CHARENTON - 75012 PARIS,75,75012,PARIS,48.83158813,2.398745665,48.83158813
Vélib,13017,13017 - NATIONALE,167 RUE NATIONALE - 75013 PARIS,75,75013,PARIS,48.83252708,2.36235441,48.83252708
Vélib,1001,01001 - ILE DE LA CITE PONT NEUF,41 QUAI DE L'HORLOGE - 75001 PARIS,75,75001,PARIS,48.85709164,2.341747995,48.85709164
Vélib,7011,07011 - ST DOMINIQUE,30 BIS RUE LAS CASES - 75007 PARIS,75,75007,PARIS,48.85906839,2.318624221,48.85906839
Vélib,8012,08012 - CLICHY,10 BOULEVARD DES BATIGNOLLES SUR TPC - 75008 PARIS,75,75008,PARIS,48.88331804,2.326207175,48.88331804
Vélib,8108,08108 - L'ISLY,10-12 RUE DE L'ISLY - 75008 PARIS,75,75008,PARIS,48.87482319,2.325296118,48.87482319
Vélib,9015,09015 - LAMARTINE,43 RUE LAMARTINE - 75009 PARIS,75,75009,PARIS,48.87662212,2.339799899,48.87662212
Vélib,10153,10153 - GARE DU NORD 3,7 BOULEVARD DE DENAIN - 75010 PARIS,75,75010,PARIS,48.87957772,2.354463131,48.87957772
Vélib,10005,10005 - CONSERVATOIRE,59 RUE DES PETITES ECURIES - 75010 PARIS,75,75010,PARIS,48.87397217,2.348388758,48.87397217
Vélib,12018,12018 - SAINT MANDE - FAVRE,5 AVENUE SAINT MANDE - 75012 PARIS,75,75012,PARIS,48.84560925,2.395932627,48.84560925
Vélib,12016,12016 - PICPUS,43 AVENUE DE SAINT MANDE - 75012 PARIS,75,75012,PARIS,48.84512829,2.401400708,48.84512829
Vélib,22014,22014 - HUGO (NEUILLY),35 BOULEVARD VICTOR HUGO - 92200 NEUILLY,92,92200,NEUILLY-SUR-SEINE,48.88780107,2.278072424,48.88780107
Vélib,15006,15006 - CHERCHE MIDI,FACE AU 138 RUE DU CHERCHE MIDI - 75015 PARIS,75,75015,PARIS,48.84457596,2.317756579,48.84457596
Vélib,16030,16030 - MIRABEAU,4 PLACE DE BARCELONE - 75016 PARIS,75,75016,PARIS,48.84766571,2.273556265,48.84766571
Vélib,14124,14124 - PORTE D'ARCUEIL,AVENUE DAVID WEIL - 75014 PARIS,75,75014,PARIS,48.82111177,2.33378529,48.82111177
Vélib,15028,15028 - DUPLEIX,54 BOULEVARD DE GRENELLE - 75015 PARIS,75,75015,PARIS,48.85139672,2.291889313,48.85139672
Vélib,16042,16042 - PORTE DE SAINT CLOUD,120 BOULEVARD MURAT - 75016 PARIS,75,75016,PARIS,48.83755526,2.257972573,48.83755526
Vélib,16108,16108 - SABLONS,40 RUE DES SABLONS - 75016 PARIS,75,75016,PARIS,48.86387513,2.281890737,48.86387513
Vélib,41301,41301 - CLEMANCEAU (NOGENT),2 AVENUE GEORGES CLEMENCEAU - 94130 NOGENT,94,94130,NOGENT,48.83612584,2.470375451,48.83612584
Vélib,1003,01003 - RIVOLI SAINT DENIS,7 RUE SAINT DENIS - 75001 PARIS,75,75001,PARIS,48.85915029,2.347620088,48.85915029
Vélib,1006,01006 - GRANDE TRUANDERIE,2-4 rue DE LA GRANDE TRUANDERIE 75001 PARIS,75,75001,PARIS,48.8626318,2.349732145,48.8626318
Vélib,5010,05010 - SAINT MICHEL HENRI BARBUSSE,1 RUE HENRI BARBUSSE - 75005 PARIS,75,75005,PARIS,48.84375698,2.339306722,48.84375698
Vélib,904,00904 - PLACE JOFFRE / ECOLE MILITAIRE,ECOLE MILITAIRE-AVENUE DE LA MOTTE PICQUET - 75007 PARIS,75,75007,PARIS,48.85213621,2.301961227,48.85213621
Vélib,8029,08029 - PLACE DU CANADA,1 AVENUE FRANKLIN ROOSEVELT - 75008 PARIS,75,75008,PARIS,48.86534627,2.310193788,48.86534627
Vélib,9019,09019 - VICTOR MASSE,38 RUE VICTOR MASSE - 75009 PARIS,75,75009,PARIS,48.88114903,2.336681004,48.88114903
Vélib,12109,12109 - CHAROLAIS,212 RUE DE CHARENTON - 75012 PARIS,75,75012,PARIS,48.84086946,2.387564335,48.84086946
Vélib,15037,15037 - GROULT,202 RUE LECOURBE - 75015 PARIS,75,75015,PARIS,48.84041619,2.295464907,48.84041619
Vélib,17108,17108 - BESSIERES,102 BOULEVARD BESSIERES - 75017 PARIS,75,75017,PARIS,48.89618127,2.318020679,48.89618127
Vélib,19038,19038 - JOURDAIN,9 RUE LASSUS - 75019 PARIS,75,75019,PARIS,48.87555039,2.389038161,48.87555039
Vélib,19012,19012 - LALLY TOLLENDAL,5 RUE LALLY TOLLENDAL - 75019 PARIS,75,75019,PARIS,48.88270064,2.374693389,48.88270064
Vélib,19106,19106 - GARE EMGP,15 RUE MADELEINE VIONNET - 75019 PARIS,75,75019,PARIS,48.90177385,2.372628294,48.90177385
Vélib,19117,19117 - EURYALE DEHAYNIN,22 RUE EURYALE DEHAYNIN - 75019 PARIS,75,75019,PARIS,48.88630005,2.377388863,48.88630005
Vélib,4105,04105 - MORLAND,17 BOULEVARD DU MORLAND - 75004 PARIS,75,75004,PARIS,48.84996004,2.363239869,48.84996004
Vélib,5008,05008 - ST GERMAIN-DANTE,9 RUE DE DANTE - 75005 PARIS,75,75005,PARIS,48.85097723,2.346076826,48.85097723
Vélib,7014,07014 - SAINT FRANCOIS XAVIER,35 BOULEVARD DES INVALIDES - 75007 PARIS,75,75007,PARIS,48.85167823,2.314633841,48.85167823
Vélib,9106,09106 - AUBER,3 RUE BOUDREAU - 75009 PARIS,75,75009,PARIS,48.87219025,2.329423494,48.87219025
Vélib,13151,13151 - GARE D'AUSTERLITZ,GARE D'AUSTERLITZ - 75013 PARIS,75,75013,PARIS,48.8405773,2.366124462,48.8405773
Vélib,42002,42002 - GARE (IVRY),VIS-A-VIS DU 17 RUE DE LA GARE - 94200 IVRY SUR SEINE,94,94200,IVRY-SUR-SEINE,48.81492647,2.392001636,48.81492647
Vélo2,50004,50004 - CER04 - LE BON TEMPS,AVENUE DU BON TEMPS ANGLE AVENUE DU HAZAY - 95000 CERGY,95,95000,CERGY,49.05229745,2.023269785,49.05229745
Vélib,1027,01027 - BERGER,49 RUE BERGER - 75001 PARIS,75,75001,PARIS,48.86223872,2.341960938,48.86223872
Vélib,2108,02108 - VIVIENNE,42 RUE VIVIENNE - 75002 PARIS,75,75002,PARIS,48.87124227,2.341394999,48.87124227
Vélib,6015,06015 - MAZET SAINT ANDRE DES ARTS,10 RUE ANDRE MAZET - 75006 PARIS,75,75006,PARIS,48.85375107,2.339113723,48.85375107
Vélib,10027,10027 - DUNKERQUE,4 RUE DE DUNKERQUE - 75010 PARIS,75,75010,PARIS,48.8793551,2.358379192,48.8793551
Vélib,11002,11002 - ROQUETTE THIERE,37 RUE DE LA ROQUETTE - 75011 PARIS,75,75011,PARIS,48.8551063,2.373424542,48.8551063
Vélib,15067,15067 - DESAIX,23 RUE DESAIX - 75015 PARIS,75,75015,PARIS,48.8528046,2.29307703,48.8528046
Vélib,19004,19004 - QUAI DE LA LOIRE,4 QUAI DE LA LOIRE - 75019 PARIS,75,75019,PARIS,48.88339734,2.371074523,48.88339734
Vélib,23008,23008 - REPUBLIQUE (LEVALLOIS),PLACE DE LA REPUBLIQUE - 92300 LEVALLOIS,92,92300,LEVALLOIS-PERRET,48.89319468,2.28891416,48.89319468
Vélib,34005,34005 - LESENNE (SAINT OUEN),44 RUE ADRIEN LESENNE - 93400 SAINT OUEN,93,93400,SAINT-OUEN,48.90255328,2.348274936,48.90255328
Vélo2,54903,54903 - VAU03 - LE BOULINGRIN,Avenue Simone Signoret angle rue de l'Enfance - 95490 VAUREAL,95,95490,VAUREAL,49.02627484,2.016950696,49.02627484
Vélib,13048,13048 - TOLBIAC WURTZ,20 RUE WURTZ - 75013 PARIS,75,75013,PARIS,48.82649433,2.344301716,48.82649433
Vélib,17010,17010 - JONCQUIERE,90 RUE DE LA JONQUIERE - 75017 PARIS,75,75017,PARIS,48.89476862,2.318885354,48.89476862
Vélib,21007,21007 - RHIN DANUBE (BOULOGNE BILLANCOURT),15 ROND POINT RHIN DANUBE - 92100 BOULOGNE BILLANCOURT,92,92100,BOULOGNE-BILLANCOURT,48.8406493,2.227978775,48.8406493
Vélib,4007,04007 - BOURDON,BOULEVARD BOURDON - 75004 PARIS,75,75004,PARIS,48.85255712,2.368240719,48.85255712
Vélib,12113,12113 - CARDINAL LAVIGERIE,4 PLACE DU CARDINAL LAVIGERIE - 75012 PARIS,75,75012,PARIS,48.83293419,2.402636749,48.83293419
Vélib,12036,12036 - REUILLY,116 RUE DE REUILLY - 75012 PARIS,75,75012,PARIS,48.84030274,2.394630399,48.84030274
Vélib,13042,13042 - NATIONALE BACH,150 RUE NATIONALE - 75013 PARIS,75,75013,PARIS,48.83095746,2.364107053,48.83095746
Vélib,43002,43002 - LAGNY (VINCENNES),1 BIS RUE DE LAGNY - 94300 VINCENNES,94,94300,VINCENNES,48.84887902,2.426198422,48.84887902
Vélo2,50001,50001 - CER01 - GARE LES HAUTS DE CERGY(CB),PLACE DES 3 GARES - 95000 CERGY,95,95000,CERGY,49.04821411,2.011811193,49.04821411
Vélib,14010,14010 - JEAN MOULIN ALESIA,12 AVENUE JEAN MOULIN - 75014 PARIS,75,75014,PARIS,48.8274269,2.325760333,48.8274269
Vélib,16107,16107 - GODARD,2 RUE BENJAMIN GODARD - 75016 PARIS,75,75016,PARIS,48.86598324,2.275725636,48.86598324
Vélib,16024,16024 - KENNEDY RANELAGH,4 RUE RANELAGH DEVANT RER - 75016 PARIS,75,75016,PARIS,48.85293316,2.28043972,48.85293316
Vélib,17101,17101 - ALEXANDRE CHARPENTIER,FACE 3 RUE ALEXANDRE CHARPENTIER - 75017 PARIS,75,75017,PARIS,48.88434112,2.288273753,48.88434112
Vélib,31703,31703 - CARNOT (BAGNOLET),177 RUE SADI CARNOT - 93170 BAGNOLET,93,93170,BAGNOLET,48.875267,2.423649491,48.875267
Vélib,21021,21021 - PARADIS (BOULOGNE-BILLANCOURT),FACE AU 128 RUE DES ENFANTS DU PARADIS - 92100 BOULOGNE BILLANCOURT,92,92100,BOULOGNE-BILLANCOURT,48.83317496,2.257005867,48.83317496
Vélib,42502,42502 - RASPAIL 2 (GENTILLY),FACE AU 79 AVENUE RASPAIL- 94250 GENTILLY,94,94250,GENTILLY,48.81312765,2.346794374,48.81312765
Vélib,43001,43001 - PARIS 1 (VINCENNES),168 AVENUE DE PARIS - 94300 VINCENNES,94,94300,VINCENNES,48.84633805,2.42024734,48.84633805
Vélo2,50023,50023 - CER23 - LES TOULEUSES,AVENUE DU SUD - 95000 CERGY,95,95000,CERGY,49.03043963,2.082152707,49.03043963
Vélo2,50018,50018 - CER18 - PORT CERGY (CB),BOULEVARD DU PORT ANGLE RUE JEAN BART - 95000 CERGY,95,95000,CERGY,49.0314815,2.061675503,49.0314815
Vélib,14021,14021 - PLACE DE LA PORTE DE CHATILLON,BOULEVARD BRUNE PORTE DE CHATILLON - 75014 PARIS,75,75014,PARIS,48.8244897,2.318447431,48.8244897
Vélib,16002,16002 - PERGOLESE,FACE 25 RUE PERGOLESE - 75016 PARIS,75,75016,PARIS,48.87518496,2.284219432,48.87518496
Vélib,20119,20119 - SQUARE DE MENILMONTANT,138 RUE DE MENILMONTANT - 75020 PARIS,75,75020,PARIS,48.87013646,2.396690613,48.87013646
Vélib,1020,01020 - RIVOLI CONCORDE,2 RUE CAMBON - 75001 PARIS,75,75001,PARIS,48.86628522,2.325249045,48.86628522
Vélib,3014,03014 - GRENIER SAINT LAZARE,FACE 34 RUE GRENIER SAINT LAZARE - 75003 PARIS,75,75003,PARIS,48.86306283,2.352839381,48.86306283
Vélib,4104,04104 - SEBASTOPOL RAMBUTEAU,FACE 40 BOULEVARD SEBASTOPOL - 75004 PARIS,75,75004,PARIS,48.8618831,2.350220976,48.8618831
Vélib,8016,08016 - SQUARE LOUIS XVI,DEV 32 RUE PASQUIER - 75008 PARIS,75,75008,PARIS,48.8732044,2.323658831,48.8732044
Vélib,12023,12023 - SAHEL,15 AVENUE EMILE LAURENT - 75012 PARIS,75,75012,PARIS,48.84076228,2.410523441,48.84076228
Vélib,14033,14033 - DAGUERRE GASSENDI,31 RUE FRODEVAUX - 75014 PARIS,75,75014,PARIS,48.83568044,2.328290822,48.83568044
Vélib,15040,15040 - MONCLAR,33 BIS RUE SAINT AMAND - 75015 PARIS,75,75015,PARIS,48.83411715,2.308850015,48.83411715
Vélib,15105,15105 - SUFFREN FÉDÉRATION,84 RUE DE LA FEDERATION - 75015 PARIS,75,75015,PARIS,48.85276674,2.297876431,48.85276674
Vélib,15027,15027 - GIDE,4 RUE ANDRE GIDE  - 75015 PARIS,75,75015,PARIS,48.83656622,2.312707121,48.83656622
Vélib,16039,16039 - VERSAILLES EXELMANS,27 BOULEVARD EXELMANS - 75016 PARIS,75,75016,PARIS,48.84096295,2.264394118,48.84096295
Vélib,18021,18021 - MARCADET - RAMEY,98 RUE MARCADET - 75018 PARIS,75,75018,PARIS,48.89092238,2.344986482,48.89092238
Vélib,20110,20110 - PORTE DES LILAS,FACE 241 AVENUE GAMBETTA - 75020 PARIS,75,75020,PARIS,48.87541242,2.405960331,48.87541242
Vélib,13106,13106 - BOBILLOT MERY,17 RUE BOBILLOT - 75013 PARIS,75,75013,PARIS,48.82987537,2.354246535,48.82987537
Vélib,21707,21707 - PASTEUR (VANVES),9 AVENUE PASTEUR ANGLE CARREFOUR ALBERT LEGRIS - 92170 Vanves,92,92170,VANVES,48.82509933,2.292500331,48.82509933
Vélib,21014,21014 - HAMEAU FLEURI (BOULOGNE-BILLANCOURT),FACE AU 12 RUE DU HAMEAU FLEURIE - 92100 BOULOGNE BILLANCOURT,92,92100,BOULOGNE-BILLANCOURT,48.83142865,2.241204653,48.83142865
Vélib,31704,31704 - HORNET (BAGNOLET),FACE AU 1 RUE JEANNE HORNET - 93170 BAGNOLET,93,93170,BAGNOLET,48.8739292,2.42793358,48.8739292
Vélib,19037,19037 - PORTE DES LILAS,304 RUE DE BELLEVILLE - 75019 PARIS,75,75019,PARIS,48.87660392,2.404769691,48.87660392
Vélib,14006,14006 - SAINT JACQUES TOMBE ISSOIRE,46 BOULEVARD SAINT JACQUES - 75014 PARIS,75,75014,PARIS,48.83319032,2.336933391,48.83319032
Vélib,16019,16019 - HENRI MARTIN,FACE 98 AV. HENRI MARTIN - 75016 PARIS,75,75016,PARIS,48.86302532,2.26880655,48.86302532
Vélib,18010,18010 - MARX DORMOY,81 RUE RIQUET - 75018 PARIS,75,75018,PARIS,48.89013399,2.360504245,48.89013399
Vélib,18102,18102 - RUE DE LA CHAPELLE,69 BIS RUE DE LA CHAPELLE - 75018 PARIS,75,75018,PARIS,48.89648283,2.358845525,48.89648283
Vélib,20016,20016 - PYRENEES VITRUVE,114 BIS RUE DES PYRENEES - 75020 PARIS,75,75020,PARIS,48.8571294,2.404425625,48.8571294
Vélib,44101,44101 - PLACE MONGOLFIER (SAINT MAURICE),PLACE MONTGOLFIER - 94410 SAINT MAURICE,94,94410,SAINT-MAURICE,48.81505001,2.459239415,48.81505001
Vélib,5014,05014 - CALVIN,8 RUE JEAN CALVIN - 75005 PARIS,75,75005,PARIS,48.84163271,2.348552018,48.84163271
Vélib,10111,10111 - BOURSE DU TRAVAIL,100 QUAI DE JEMMAPES - 75010 PARIS,75,75010,PARIS,48.8734628,2.364035059,48.8734628
Vélib,11024,11024 - BOULEVARD VOLTAIRE,82 RUE SEDAINE - 75011 PARIS,75,75011,PARIS,48.85882891,2.378871327,48.85882891
Vélib,22003,22003 - BEFFROY (NEUILLY),3 RUE BEFFROY - 92200 NEUILLY,92,92200,NEUILLY-SUR-SEINE,48.88670498,2.261263518,48.88670498
Vélib,28002,28002 - SOLJENITSYNE (PUTEAUX),BOULEVARD ALEXANDRE SOLJENITSYNE - 92800 PUTEAUX,92,92800,PUTEAUX,48.88468634,2.248125491,48.88468634
Vélib,31006,31006 - REPUBLIQUE 2 (MONTREUIL),2/4 PLACE DE LA REPUBLIQUE - 93100 MONTREUIL,93,93100,MONTREUIL,48.85375962,2.424445808,48.85375962
Vélib,19041,19041 - PYRÉNÉES,101 RUE DE BELLEVILLE - 75019 PARIS,75,75019,PARIS,48.87434914,2.386095374,48.87434914
Vélib,13032,13032 - MASSENA,163 AVENUE D'ITALIE - 75013 PARIS,75,75013,PARIS,48.81989462,2.359432938,48.81989462
Vélib,14026,14026 - PLANTES MOULIN VERT,23 RUE DES PLANTES - 75014 PARIS,75,75014,PARIS,48.8301472,2.323313446,48.8301472
Vélib,15033,15033 - VIOLET,5 PLACE VIOLET - 75015 PARIS,75,75015,PARIS,48.84479039,2.29054156,48.84479039
Vélib,21004,21004 - JAURES 2 (BOULOGNE-BILLANCOURT),55 BOULEVARD JEAN JAURES - 92100 BOULOGNE-BILLANCOURT,92,92100,BOULOGNE-BILLANCOURT,48.84002326,2.239818997,48.84002326
Vélib,8040,08040 - CHAMPS ELYSEES CHARRON,65 RUE PIERRE CHARRON - 75008 PARIS,75,75008,PARIS,48.87007034,2.304315447,48.87007034
Vélib,13038,13038 - CHOISY POINT D'IVRY,28 AVENUE DE CHOISY - 75013 PARIS,75,75013,PARIS,48.82190797,2.363334711,48.82190797
Vélib,22013,22013 - SAINTE FOY (NEUILLY),2 rue de Chézy - 92200 NEUILLY,92,92200,NEUILLY-SUR-SEINE,48.88514005,2.267800008,48.88514005
Vélib,23010,23010 - VOLTAIRE (LEVALLOIS),47 RUE VOLTAIRE - 92300 LEVALLOIS-PERRET,92,92300,LEVALLOIS-PERRET,48.89196233,2.28420499,48.89196233
Vélib,34007,34007 - ROSIERS (SAINT OUEN),43-45 RUE BLANQUI / RUE DES ROSIERS - 93400 SAINT OUEN,93,93400,SAINT-OUEN,48.90536225,2.337389649,48.90536225
Vélib,5009,05009 - SQUARE VIVIANI,6 RUE DU FOUARRE - 75005 PARIS,75,75005,PARIS,48.85165118,2.347463335,48.85165118
Vélib,9012,09012 - ROUGEMONT,3-5 RUE ROUGEMONT - 75009 PARIS,75,75009,PARIS,48.87154221,2.345836456,48.87154221
Vélib,15030,15030 - LINOIS,66 RUE EMERIAU - 75015 PARIS,75,75015,PARIS,48.84804579,2.284380634,48.84804579
Vélib,16033,16033 - MICHEL ANGE AUTEUIL,85 RUE JEAN DE LA FONTAINE - 75016 PARIS,75,75016,PARIS,48.84842761,2.265253821,48.84842761
Vélib,17003,17003 - JACQUES KELLNER,4-6 RUE JACQUES KELLNER - 75017 PARIS,75,75017,PARIS,48.89580949,2.327897409,48.89580949
Vélib,18113,18113 - LEPIC,70 - 72 RUE LEPIC - 75018 PARIS,75,75018,PARIS,48.88757307,2.334327336,48.88757307
Vélib,20011,20011 - PYRÉNÉES-DAGORNO,103 RUE DES PYRENNEES - 75020 PARIS,75,75020,PARIS,48.85550135,2.405168521,48.85550135
Vélib,20026,20026 - PELLEPORT,121 AVENUE GAMBETTA - 75020 PARIS,75,75020,PARIS,48.86792515,2.400976624,48.86792515
Vélib,20104,20104 - RUE LOUIS LUMIÈRE,68 RUE LOUIS LUMIERE - 75020 PARIS,75,75020,PARIS,48.86216198,2.411125782,48.86216198
Vélib,4006,04006 - BASSIN DE L'ARSENAL,FACE 1 BOULEVARD BOURBON - 75004 PARIS,75,75004,PARIS,48.84772513,2.365939153,48.84772513
Vélib,6014,06014 - PONT DE LODI DAUPHINE,7 RUE DU PONT DE LODI - 75006 PARIS,75,75006,PARIS,48.8552969,2.339947308,48.8552969
Vélib,8009,08009 - SAINT LAZARE RER,1 RUE DE L'ISLY - 75008 PARIS,75,75008,PARIS,48.87480802,2.326481486,48.87480802
Vélib,10002,10002 - STRASBOURG,3 BD STRASBOURG - 75010 PARIS,75,75010,PARIS,48.86967912,2.354327697,48.86967912
Vélib,12008,12008 - HECTOR MALOT,15 BIS RUE HECTOR MALOT - 75012 PARIS,75,75012,PARIS,48.84681513,2.376929361,48.84681513
Vélib,32604,32604 - KOCK (LES LILAS),FACE 3 AVENUE PAUL DE KOCK - 93260 LES LILAS,93,93260,LES LILAS,48.88121543,2.420209155,48.88121543
Vélib,15064,15064 - JAVEL,DEV 5 AVENUE EMILE ZOLA - 75015 PARIS,75,75015,PARIS,48.84629492,2.278413913,48.84629492
Vélib,15070,15070 - BLANC,88 RUE BALARD - 75015 PARIS,75,75015,PARIS,48.83863387,2.278274193,48.83863387
Vélib,17106,17106 - BERTHIER PORTE DE CLICHY,4 BOULEVARD BERTHIER - 75017 PARIS,75,75017,PARIS,48.89434509,2.312593887,48.89434509
Vélib,14122,14122 - BRUNE,1 RUE DU COLONEL MONTEIL - 75014 PARIS,75,75014,PARIS,48.82650293,2.3092748,48.82650293
Vélib,15115,15115 - VAUGIRARD,25-31 BOULEVARD DE VAUGIRARD - 75015 PARIS,75,75015,PARIS,48.84132526,2.318291552,48.84132526
Vélib,17109,17109 - BOIS LE PRÊTRE,22 BD DE BOIS LE PRETRE - 75017 PARIS,75,75017,PARIS,48.89953828,2.320133661,48.89953828
Vélib,17045,17045 - PLACE DES TERNES - 5,5 PLACE DES TERNES - 75017 PARIS,75,75017,PARIS,48.87841039,2.297831065,48.87841039
Vélib,18042,18042 - PIGALLE GERMAIN PILLON,FACE 36 BOULEVARD DE CLICHY - 75018 PARIS,75,75018,PARIS,48.88272809,2.336262639,48.88272809
Vélib,18030,18030 - SIMPLON,1 RUE JOSEPH DIJON - 75018 PARIS,75,75018,PARIS,48.89373428,2.347517967,48.89373428
Vélib,18045,18045 - GANNERON,2 RUE PIERRE GINIER - 75018 PARIS,75,75018,PARIS,48.88662715,2.326293689,48.88662715
Vélib,20030,20030 - PERE LACHAISE,54 BOULEVARD MENILMONTANT - 75020 PARIS,75,75020,PARIS,48.86341111,2.387133958,48.86341111
Vélib,20109,20109 - SURMELIN HAXO,2 RUE HAXO - 75020 PARIS,75,75020,PARIS,48.86943708,2.405396575,48.86943708
Vélib,6029,06029 - VAUGIRARD PRINCE,FACE 1 RUE DE VAUGIRARD - 75006 PARIS,75,75006,PARIS,48.84892296,2.341040509,48.84892296
Vélib,6001,06001 - INSTITUT,5 QUAI MALAQAIS - 75006 PARIS,75,75006,PARIS,48.85761568,2.335831353,48.85761568
Vélib,6024,06024 - SAINT GERMAIN DES PRES,55 RUE DES SAINTS PERES - 75006 PARIS,75,75006,PARIS,48.85394231,2.330153525,48.85394231
Vélib,8001,08001 - PETIT PALAIS,AV. DUTUIT - 75008 PARIS,75,75008,PARIS,48.8668438,2.315779713,48.8668438
Vélib,8110,08110 - STOCKOLM ROME,6 RUE DE STOCKOLM - 75008 PARIS,75,75008,PARIS,48.87711192,2.322329321,48.87711192
Vélib,10008,10008 - CITE RIVERIN,12 RUE CITE RIVERIN / ANGLE RUE DU CHATEAU D'EAU - 75010 PARIS,75,75010,PARIS,48.87076498,2.358724462,48.87076498
Vélib,11038,11038 - TEMPLE REPUBLIQUE,44 BD DU TEMPLE - 75011 PARIS,75,75011,PARIS,48.86574508,2.365312951,48.86574508
Vélib,13037,13037 - IVRY BAUDICOURT,76 AVENUE D'IVRY - 75013 PARIS,75,75013,PARIS,48.824696,2.363106074,48.824696
Vélo2,53001,53001 - PON01 - RUE SERE-DEPOIN (CB),Place du Général de Gaulle devant la Gare - 95300 PONTOISE,95,95300,PONTOISE,49.04762193,2.095547002,49.04762193
Vélib,17102,17102 - ALFRED ROLL,14 RUE ALFRED ROLL - 75017 PARIS,75,75017,PARIS,48.88784949,2.300034398,48.88784949
Vélib,18031,18031 - ALBERT KAHN,67 RUE CHAMPIONNET - 75018 PARIS,75,75018,PARIS,48.89579698,2.345585584,48.89579698
Vélib,19002,19002 - TANGER,45 & 48 RUE RIQUET - 75019 PARIS,75,75019,PARIS,48.88935145,2.370774488,48.88935145
Vélib,21210,21210 - PERI 2 (MONTROUGE),8 RUE GABRIEL PERI - 92120 MONTROUGE,92,92120,MONTROUGE,48.81781709,2.324031278,48.81781709
Vélib,22401,22401 - DE GAULLE (MALAKOFF),BOULEVARD CHARLES DE GAULLE (STATION DE METRO) - 92240 MALAKOFF,92,92240,MALAKOFF,48.82252831,2.298631654,48.82252831
Vélib,35010,35010 - GERVAIS (PANTIN),1-3 RUE DU PRE SAINT GERVAIS - 93500 PANTIN,93,93500,PANTIN,48.89107898,2.40277552,48.89107898
Vélo2,50022,50022 - CER22 - GARE CERGY GRAND CENTRE (CB),BOULEVARD DE L'OISE / RUE DE LA GARE - 95000 CERGY,95,95000,CERGY,49.03536206,2.081226367,49.03536206
Vélib,1005,01005 - LES HALLES - SEBASTOPOL,3 RUE DE LA COSSONNERIE - 75001 PARIS,75,75001,PARIS,48.86126207,2.3494,48.86126207
Vélib,1014,01014 - RIVOLI MUSEE DU LOUVRE,5 RUE DE L'ECHELLE - 75001 PARIS,75,75001,PARIS,48.86367226,2.334057608,48.86367226
Vélib,9002,09002 - MAUBEUGE CONDORCET,19 RUE D'ABBEVILLE - 75009 PARIS,75,75009,PARIS,48.87922337,2.349147494,48.87922337
Vélib,12107,12107 - DIDEROT BOURDAN,146 BOULEVARD DIDEROT - 75012 PARIS,75,75012,PARIS,48.84765388,2.390238633,48.84765388
Vélib,15011,15011 - THEBAUD RUE DE CAMBRONNE,32 RUE CAMBRONNE - 75015 PARIS,75,75015,PARIS,48.84583142,2.301753087,48.84583142
Vélib,16023,16023 - RUE DE PASSY,1 RUE DE PASSY - 75016 PARIS,75,75016,PARIS,48.85838125,2.284129013,48.85838125
Vélib,16111,16111 - HELIE,4 - 6 rue Faustin Helie - 75016 PARIS,75,75016,PARIS,48.85940308,2.276522089,48.85940308
Vélo2,50101,50101 - PÔLE GARE (CB),CHEMIN DE CERGY DEVANT LA GARE - 95010 NEUVILLE,95,95010,NEUVILLE,49.01889782,2.056537004,49.01889782
Vélib,22006,22006 - PIERRET (NEUILLY),33 RUE PIERRET - 92200 NEUILLY SUR SEINE,92,92200,NEUILLY-SUR-SEINE,48.88302666,2.260096984,48.88302666
Vélib,35007,35007 - DELESSERT (PANTIN),1 RUE  BENJAMIN DELESSERT - 93500 PANTIN,93,93500,PANTIN,48.89394371,2.41802966,48.89394371
Vélib,35013,35013 - TELL (PANTIN),1 RUE GUILLAUME TELL / FACE AU 64 BENJAMIN DELESSERT- 93500 PANTIN,93,93500,PANTIN,48.88948842,2.419848969,48.88948842
Vélib,18041,18041 - MARTYRS 2,FACE 112 BOULEVARD DE ROCHECHOUART - 75018 PARIS,75,75018,PARIS,48.8821942,2.34065185,48.8821942
Vélib,19016,19016 - OURCQ,78 RUE D'HAUTPOUL - 75019 PARIS,75,75019,PARIS,48.88639368,2.386541454,48.88639368
Vélib,20028,20028 - GAMBETTA MARTIN NADAUD,FACE 2 RUE ORFILA - 75020 PARIS,75,75020,PARIS,48.86518641,2.394468581,48.86518641
Vélib,1004,01004 - MARGUERITE DE NAVARRE,12 RUE DES HALLES - 75001 PARIS,75,75001,PARIS,48.85989631,2.346756668,48.85989631
Vélib,5027,05027 - GOBELINS,22 AVENUE DES GOBELINS - 75005 PARIS,75,75005,PARIS,48.83712604,2.35143333,48.83712604
Vélib,7026,07026 - PLACE DE FINLANDE,39 QUAI D'ORSAY - 75007 PARIS,75,75007,PARIS,48.86233,2.31124,48.86233
Vélib,10009,10009 - HITTORFF,FACE 14 RUE HITTORFF - 75010 PARIS,75,75010,PARIS,48.87208361,2.357663686,48.87208361
Vélib,13122,13122 - PARC DE CHOISY,FACE 153 AVENUE DE CHOISY - 75013 PARIS,75,75013,PARIS,48.82815625,2.358513533,48.82815625
Vélo2,53002,53002 - PON02 - PLACE DE LA LIBÉRATION,Place de la Libération côté avenue de Verdun - 95300 PONTOISE,95,95300,PONTOISE,49.04468282,2.090817351,49.04468282
Cristolib,5,05 - GENERAL LECLERC / BARRAGE,144 RUE DU GENERAL LECLERC,94,94000,Créteil,48.78683891,2.468566572,48.78683891
Vélib,14029,14029 - GERGOVIE VERCINGETORIX,112 RUE VERCINGETORIX - 75014 PARIS,75,75014,PARIS,48.83425925,2.313391647,48.83425925
Vélib,18111,18111 - FELIZ ZIEM,2 RUE FELIX ZIEM - 75018 PARIS,75,75018,PARIS,48.8894963,2.333393659,48.8894963
Vélib,18105,18105 - BELIARD POISSONNIERS,157 BIS-159 RUE DES POISSONNIERS - 75018 PARIS,75,75018,PARIS,48.89740679,2.352526659,48.89740679
Vélib,19118,19118 - BOLIVAR BURNOUF,82 AVENUE SIMON BOLIVAR - 75019 PARIS,75,75019,PARIS,48.87712418,2.374276509,48.87712418
Vélib,21503,21503 - LEDRU ROLLIN (SURESNES),13/15 RUE LEDRU ROLLIN - 92150 SURESNES,92,92150,SURESNES,48.87092049,2.229589352,48.87092049
Vélib,22001,22001 - CHATEAU (NEUILLY),26 BOULEVARD DU CHATEAU - 92200 NEUILLY,92,92200,NEUILLY-SUR-SEINE,48.89051191,2.270167225,48.89051191
Vélib,42006,42006 - BROSSOLETTE (IVRY),23 RUE PIERRE BROSSOLETTE - 94200 IVRY,94,94200,IVRY-SUR-SEINE,48.81692972,2.381460319,48.81692972
Vélib,21703,21703 - MARTINIE (VANVES),5-7 AVENUE MARCEL MARTINIE - 92170 VANVES,92,92170,VANVES,48.82104992,2.291300631,48.82104992
Vélib,12123,12123 - CHATEAU DE VINCENNES,COURS DES MARECHAUX - 94300 VINCENNES,94,94300,VINCENNES,48.84423193,2.439209538,48.84423193
Vélib,14108,14108 - JOURDAN LE BRIX ET MESNIN,RUE LE BRIX ET MESNIN - 75014 PARIS,75,75014,PARIS,48.82234097,2.327861653,48.82234097
Vélib,14022,14022 - BRUNE DIDOT,108 RUE DIDOT - 75014 PARIS,75,75014,PARIS,48.82656672,2.313276758,48.82656672
Vélib,15104,15104 - HÔPITAL GEORGES POMPIDOU (PROP 2),FACE 66 - 70 RUE LEBLANC - 75015 PARIS,75,75015,PARIS,48.837679,2.275730609,48.837679
Vélib,16112,16112 - CHERNOVITZ,1-3 RUE CHERNOVITZ - 75016 PARIS,75,75016,PARIS,48.85698641,2.282173218,48.85698641
Vélib,18109,18109 - RIQUET PAJOL,55 RUE PAJOL - 75018 PARIS,75,75018,PARIS,48.88959697,2.362853604,48.88959697
Vélib,18112,18112 - HÔPITAL BICHAT,2 RUE ARTHUR RANC - 75018 PARIS,75,75018,PARIS,48.89801434,2.333653376,48.89801434
Vélib,20020,20020 - PYRENEES RENOUVIER,183 RUE DES PYRENEES - 75020 PARIS,75,75020,PARIS,48.86095933,2.400421852,48.86095933
Vélib,7001,07001 - DUROC,63 BOULEVARD DES INVALIDES - 75007 PARIS,75,75007,PARIS,48.84776986,2.316183887,48.84776986
Vélib,7010,07010 - INVALIDES,FACE 3 RUE DE CONSTANTINE - 75007 PARIS,75,75007,PARIS,48.86076996,2.314838279,48.86076996
Vélib,9020,09020 - TOUDOUZE CLAUZEL,FACE 27 RUE CLAUZEL - 75009 PARIS,75,75009,PARIS,48.87950527,2.337190639,48.87950527
Vélib,9035,09035 - PLACE DE BUDAPEST,38 RUE DE LONDRES - 75009 PARIS,75,75009,PARIS,48.87775323,2.327339291,48.87775323
Vélib,9023,09023 - ITALIENS LAFFITE,1 RUE LAFFITE - 75009 PARIS,75,75009,PARIS,48.87181574,2.337201548,48.87181574
Vélib,11014,11014 - NATION TRONE,FACE 21 PLACE DE LA NATION - 75011 PARIS,75,75011,PARIS,48.84848282,2.397211882,48.84848282
Vélib,12027,12027 - MONTGALLET CHARENTON,2 RUE MONTGALLET - 75012 PARIS,75,75012,PARIS,48.84264778,2.386164928,48.84264778
